County,License Number,Operation Type,Establishment Type,Entity Name,DBA Name,Street Number,Street Name,Address Line 2,Address Line 3,City,State,Zip Code,Square Footage,Georeference
New York,756075,Store,JAC,BERISTAINS MEXICAN DELI LLC,BERISTAINS MEXICAN DELI,4672,BROADWAY,,,NEW YORK,NY,10040,0,POINT (-73.93003 40.86315)
New York,756032,Store,JAC,ITO INC,TIKKA,66,BROADWAY,,,NEW YORK,NY,10005,0,POINT (-74.01228 40.70706)
Kings,756004,Store,A,RIGHT DRUGS INC,KINGS RX PHARMACY,1214,KINGS HIGHWAY,,,BROOKLYN,NY,11229,0,POINT (-73.96048 40.60786)
Schenectady,755939,Store,JAC,BROADWAY MOBIL LLC,BROADWAY MOBIL,591,BROADWAY,,,SCHENECTADY,NY,12305,1500,POINT (-73.94717 42.80566)
Kings,755920,Store,JAC,BANGLA BAZAR GROCERY INC,BANGLA BAZAR GROCERY,509,CORTELYOU ROAD,,,BROOKLYN,NY,11218,0,POINT (-73.9742 40.6384)
Nassau,755870,Store,A,RZW CONVENIENCE CORP,TRACK SIDE SMOKE SHOP,57,JACKSON AVENUE,,,SYOSSET,NY,11791,640,POINT (-73.50226 40.82456)
Kings,755841,Store,A,1490 CONVENIENCE STORE CORP,1490 CONVENIENCE STORE,1490,FULTON STREET,,,BROOKLYN,NY,11216,1000,POINT (-73.94138 40.67995)
Kings,755840,Store,JAC,MULGOGI CORP,MULGOGI,1420,FULTON STREET,,,BROOKLYN,NY,11216,0,POINT (-73.94418 40.68009)
Westchester,755830,Store,JAC,VEGAN LIFE FOR THE SOUL LLC,VEGAN LIFE FOR THE SOUL,127,MAIN STREET,,,OSSINING,NY,10562,0,POINT (-73.86407 41.16077)
New York,755817,Store,JAC,QUALITY FOOD MARKET CORP,QUALITY FOOD MARKET,4453,BROADWAY,,,NEW YORK,NY,10040,0,POINT (-73.93246 40.85703)
New York,755762,Store,JAC,ZS CONVENIENCE STORE CORP,Z'S CONVENIENCE STORE,3580,BROADWAY,,,NEW YORK,NY,10031,0,POINT (-73.94926 40.82789)
Kings,755758,Store,JAC,H&M MARKET INC,H&M MARKET,561,GRAND STREET,,,BROOKLYN,NY,11211,0,POINT (-73.94912 40.71114)
Bronx,755665,Store,JAC,RANCH MINI MARKET & DELI INC,RANCH MINI MARKET & DEL,2739,WHITE PLAINS ROAD,,,BRONX,NY,10467,1000,POINT (-73.86728 40.86643)
New York,755645,Store,JAC,SUPER TASTY DELI INC,SUPER TASTY DELI,3522,BROADWAY,,,NEW YORK,NY,10031,0,POINT (-73.95073 40.82587)
Kings,755604,Store,JAC,NEW HOME TRADING INC,LATINO'S FAMILY MARKET,1949-51,86TH STREET,,,BROOKLYN,NY,11214,0,POINT (-73.99926 40.60521)
New York,755596,Store,A,SANAA CONVENIENT STORE CORP,SANAA CONVENIENT STORE,3422,BROADWAY,,,NEW YORK,NY,10031,1600,POINT (-73.95299 40.82279)
Orange,755561,Store,A,MUNCHEEZ DELI & GROCERY INC.,MUNCHEEZ DELI & GROCERY,220,BROADWAY,,,NEWBURGH,NY,12550,1000,POINT (-74.01724 41.50043)
Kings,755475,Store,JAC,NEW EVELINA GROCERY INC,NEW EVELINA GROCERY,1339,FLATBUSH AVENUE,,,BROOKLYN,NY,11226,0,POINT (-73.95366 40.63849)
Chemung,755295,Store,JAC,AYRA FOODS & BEVERAGES LLC,THE DELI & GROCERY STOR,502,BROADWAY,,,ELMIRA,NY,14904,3500,POINT (-76.81283 42.07429)
Ulster,755279,Store,A,ROSIES PASTEL LLC,THE LITTLE RYE BAKEHOUS,588,BROADWAY,,,KINGSTON,NY,12401,0,POINT (-74.00384 41.92931)
New York,755250,Store,A,GB LICENSE LLC,GOPUFF 1036,769,BROADWAY,,,NEW YORK,NY,10003,0,POINT (-73.9919 40.73116)
Kings,755179,Store,JAC,HIGHLAND PARK GROCERY CORP,HIGHLAND PARK GROCERY,272,JAMAICA AVENUE,,,BROOKLYN,NY,11207,1000,POINT (-73.89119 40.68109)
Kings,755169,Store,JAC,BEYOND NATURAL MARKET 2 INC,BEYOND NATURAL MARKET 2,1197,FULTON STREET,,,BROOKLYN,NY,11216,5000,POINT (-73.95383 40.68074)
Suffolk,755145,Store,A,B & P AUTO SERVICES 3 INC.,VALERO MINI-MART,1080,MAIN STREET,,,HOLBROOK,NY,11741,800,POINT (-73.0779 40.81027)
Kings,755124,Store,A,DANIELS FARM CORP,DANIEL'S FARM,920,KINGS HIGHWAY,,,BROOKLYN,NY,11223,2500,POINT (-73.96317 40.60693)
Kings,755118,Store,JAC,IEI KINGS CHOICE INC,IEI KINGS CHOICE,239,KINGS HIGHWAY,,,BROOKLYN,NY,11223,0,POINT (-73.98182 40.60535)
Dutchess,755082,Store,JAC,PYRAMIDS MAIN STREET INC,PYRAMIDS MAIN STREET,196,MAIN STREET,,,POUGHKEEPSIE,NY,12601,2000,POINT (-73.93138 41.70484)
Richmond,755061,Store,JAC,ADAM GROCERY & EXOTIC CORP,ADAM GROCERY & EXOTIC,658,NEW DORP LANE,,,STATEN ISLAND,NY,10306,1600,POINT (-74.1018 40.56651)
Queens,755058,Store,JAC,NUT ORCHARD INC,NUT ORCHARD,41-22,MAIN STREET,,,FLUSHING,NY,11355,1500,POINT (-73.82921 40.75765)
Suffolk,754978,Store,JAC,PACHIS LLC,PACHI'S & CO,213,BROADWAY,,,AMITYVILLE,NY,11701,1000,POINT (-73.41691 40.67856)
Nassau,754944,Store,A,VARLI DS HOSPITALITY INC,VARLI MARKETPLACE,74A,HILLSIDE AVENUE,,,WILLISTON PARK,NY,11596,0,POINT (-73.64243 40.75729)
New York,754820,Store,A,TESOLIFE K TOWN INC,TESOLIFE,1265,BROADWAY,,,NEW YORK,NY,10001,6000,POINT (-73.98822 40.74803)
Suffolk,754721,Store,JAC,RAMIREZ KGC,JESSENIAS DELI,208,BROADWAY,,,AMITYVILLE,NY,11701,1400,POINT (-73.41723 40.6795)
New York,754705,Store,A,CVS ALBANY LLC,CVS/PHARMACY #11384,217,BROADWAY,,,NEW YORK,NY,10007,0,POINT (-74.00847 40.71156)
Kings,754675,Store,JAC,WAN CHANG MARKET INC,WAN CHANG MARKET,2217,86TH STREET,,,BROOKLYN,NY,11214,0,POINT (-73.99329 40.60158)
Kings,754574,Store,JAC,CHURCH FINEST MEAT CORP,GREENVILLAGE MEAT MARKE,1711,CHURCH AVENUE,,,BROOKLYN,NY,11226,0,POINT (-73.96351 40.64926)
Kings,754537,Store,JAC,MCC1013FULTON INC,MAYA CONGEE CAFE,1013,FULTON STREET,,,BROOKLYN,NY,11238,0,POINT (-73.96143 40.68233)
Queens,754513,Store,JAC,OUR VILLAGE BAKERY & RESTAURANT C,OUR VILLAGE BAKERY & RE,123-25,JAMAICA AVENUE,,,RICHMOND HILL,NY,11418,2000,POINT (-73.82648 40.70082)
Kings,754490,Store,A,K&K GROCERY NY INC,K&K GROCERY NY,2308,86TH STREET,,,BROOKLYN,NY,11214,0,POINT (-73.99131 40.60039)
Kings,754473,Store,A,GOLDEN TREASURY NY INC,GOLDEN TREASURY NY,2067,86TH STREET,,,BROOKLYN,NY,11214,0,POINT (-73.9966 40.60358)
New York,754472,Store,A,MADISON FARE LLC,MADISON FARE,1225,MADISON AVENUE,,,NEW YORK,NY,10128,0,POINT (-73.95775 40.78232)
Queens,754388,Store,JAC,CB DIRECTOR STORE INC,CB DIRECTOR STORE,4296A,MAIN STREET,,,FLUSHING,NY,11355,0,POINT (-73.82698 40.75262)
New York,754244,Store,JAC,WHOLE FOODS MARKET GROUP INC,WHOLE FOODS MARKET,66,BROADWAY,,,NEW YORK,NY,10005,42000,POINT (-74.01228 40.70706)
New York,754235,Store,A,GORILLAS NYC NOHO LLC,GORILLAS,678,BROADWAY,,,NEW YORK,NY,10012,0,POINT (-73.99494 40.72758)
Bronx,754197,Store,JAC,ALEY LUISA LLC,HABANA 1957 FOOD HOUSE,1865,EAST TREMONT AVENUE,,,BRONX,NY,10460,900,POINT (-73.86474 40.84103)
Kings,754155,Store,JAC,V&W SUPERMARKET NY INC,V&W SUPERMARKET NY,2502,86TH STREET,,,BROOKLYN,NY,11214,0,POINT (-73.98687 40.59773)
Queens,754064,Store,JAC,48 BROADWAY SUPERMARKET INC,FOOD IS LOVE,48-18,BROADWAY,,,ASTORIA,NY,11103,5000,POINT (-73.91222 40.7558)
New York,754054,Store,JAC,NFM BROADWAY LLC,NUTS FACTORY,2244,BROADWAY,,,NEW YORK,NY,10024,1000,POINT (-73.97926 40.78468)
Orange,753992,Store,JAC,WASHINGTON DELI & CAFE LLC,WASHINGTON DELI & CAFE,199,WASHINGTON STREET,,,NEWBURGH,NY,12550,900,POINT (-74.01629 41.49873)
Ulster,753971,Store,JAC,J KUMAR DELI & GROCERY INC,JOE'S DELI & GROCERY,121,WALL STREET,,,KINGSTON,NY,12401,2000,POINT (-74.01601 41.92794)
Schenectady,753891,Store,A,ALDI INC,ALDI,3075,BROADWAY,,,SCHENECTADY,NY,12306,0,POINT (-73.98006 42.7907)
New York,753882,Store,A,TARGET CORPORATION,TARGET STORE T-3411,600,BROADWAY,,,NEW YORK,NY,10012,26000,POINT (-73.99694 40.72526)
Kings,753846,Store,A,CHEERS CONVENIENCE CORP,CHEERS CONVIENCE,2154,PITKIN AVENUE,,,BROOKLYN,NY,11207,1000,POINT (-73.8929 40.67235)
Kings,753824,Store,JAC,EL CONUCO DE MAMA CORP,EL CONUCO DE MAMA,3156,FULTON STREET,,,BROOKLYN,NY,11208,0,POINT (-73.87846 40.68188)
Richmond,753797,Store,JAC,JAY KUMAR ENTERPRISE INC,7 ELEVEN STORE #34248B,1440,FOREST AVENUE,,,STATEN ISLAND,NY,10302,3500,POINT (-74.13644 40.62469)
Kings,753766,Store,A,COFFEE SHOP LLC,COFFEE SHOP,544A,FLATBUSH AVENUE,,,BROOKLYN,NY,11225,0,POINT (-73.9608 40.66078)
New York,753736,Store,A,BROADWAY NEWS STAND CORP,BROADWAY NEWS STAND,4765,BROADWAY,,,NEW YORK,NY,10034,0,POINT (-73.92699 40.86563)
Bronx,753694,Store,JAC,DRAFT SNEAKERS INC,HUGOS GOURMET MARKET,6469,BROADWAY,,,BRONX,NY,10471,1400,POINT (-73.89639 40.90379)
Queens,753676,Store,A,KRM GROCERY INC,KRM GROCERY,75-03,37TH AVENUE,,,JACKSON HEIGHTS,NY,11372,0,POINT (-73.89063 40.74908)
Bronx,753651,Store,JAC,KINGSTON FINE FOODS CORP,KEY FOOD,2711,WHITE PLAINS ROAD,,,BRONX,NY,10467,10000,POINT (-73.86731 40.86602)
Bronx,753577,Store,A,AMAZING COMMUNITY PHARMACY LLC,AMAZING PHARMACY,595,EAST TREMONT AVENUE,,,BRONX,NY,10457,0,POINT (-73.89365 40.84644)
Queens,753526,Store,JAC,PRINCE ABOUS BUTCHERY LLC,PRINCE ABOUS BUTCHERY,32-88,STEINWAY STREET,,,ASTORIA,NY,11103,0,POINT (-73.92062 40.75698)
Bronx,753474,Store,JAC,J&L DELI GROCERY MINI MARKET CORP,J&L DELI GROCERY MINI M,3214,WHITE PLAINS ROAD,,,BRONX,NY,10467,0,POINT (-73.86714 40.87197)
Kings,753462,Store,JAC,MPM ENTERPRISES BEDFORD INC,UNION MARKET,1525,BEDFORD AVENUE,,,BROOKLYN,NY,11216,1600,POINT (-73.95509 40.67066)
Chemung,753454,Store,JAC,QUEEN CITY DELI & GROCERY INC,QUEEN CITY DELI & GROCE,403,BROADWAY,,,ELMIRA,NY,14904,0,POINT (-76.81156 42.07754)
Kings,753417,Store,JAC,GATE OF YEMEN LLC,ALARABI MARKET,6824,5TH AVENUE,,,BROOKLYN,NY,11220,2000,POINT (-74.02094 40.63361)
Kings,753411,Store,JAC,1709 DELI & GRILL CORP,1709 DELI & GRILL,1709,CHURCH AVENUE,,,BROOKLYN,NY,11226,0,POINT (-73.96357 40.64924)
Kings,753406,Store,JAC,YNS MART INC,YNS MART,852,FLATBUSH AVENUE,,,BROOKLYN,NY,11226,3400,POINT (-73.95901 40.65156)
Kings,753404,Store,JAC,GARCONNETI PRIMATE,PRIMATE GARCONNET,697,FLATBUSH AVENUE,,,BROOKLYN,NY,11225,0,POINT (-73.95999 40.65614)
Queens,753384,Store,JAC,LA ISLA PRODUCE INC,LA ISLA PRODUCE,170-16,JAMAICA AVENUE,,,JAMAICA,NY,11432,1000,POINT (-73.78915 40.70736)
Kings,753341,Store,JAC,S&S SMOKE SHOP AND GROCERY DISCOU,S&S SMOKE SHOP AND GROC,1150,FLATBUSH AVENUE,,,BROOKLYN,NY,11226,5000,POINT (-73.95733 40.64222)
Monroe,753337,Store,A,JAY STREET CONVENIENT STORE INC,JAY STREET CONVENIENT S,954,JAY STREET,,,ROCHESTER,NY,14611,0,POINT (-77.64651 43.15939)
Albany,753328,Store,JAC,4 CONENIENCE LLC,4 CONENIENCE,1110,BROADWAY,,,ALBANY,NY,12204,0,POINT (-73.74009 42.66892)
Erie,753292,Store,JAC,WE R NUTS NY INC,WE R NUTS NY,999,BROADWAY,,,BUFFALO,NY,14212,0,POINT (-78.8375 42.89339)
Suffolk,753253,Store,JAC,LEPICURISTE LLC,LEPICURISTE,2466,MAIN STREET,,,BRIDGEHAMPTON,NY,11932,1500,POINT (-72.303 40.93673)
Kings,753243,Store,JAC,FULTON DELI GROCERY CORP,FULTON DELI GROCERY,1565,FULTON STREET,,,BROOKLYN,NY,11216,1800,POINT (-73.93868 40.67978)
Orange,753217,Store,JAC,ZONA 593 INC,ZONA 593,327,BROADWAY,,,NEWBURGH,NY,12550,6400,POINT (-74.02247 41.50078)
Queens,753182,Store,A,MI ESQUINA MARKET CORP,MI ESQUINA MARKET,98-02,37TH AVENUE,,,CORONA,NY,11368,0,POINT (-73.8689 40.75208)
Westchester,753156,Store,JAC,COFFEE LABS ROASTERS INC,COFFEE LABS ROASTERS,7,MAIN STREET,,,TARRYTOWN,NY,10591,2200,POINT (-73.85864 41.07636)
Bronx,753154,Store,JAC,BRONX FRESH FOODS CORP,PIONEER SUPERMARKETS,3035,WHITE PLAINS ROAD,,,BRONX,NY,10467,0,POINT (-73.86718 40.87029)
Kings,753139,Store,JAC,KABAB TABLE INC,KABAB TABLE,896,BROADWAY,,,BROOKLYN,NY,11206,0,POINT (-73.93696 40.69795)
New York,752987,Store,A,BLUE MOON CONVENIENT STORE CORP,BLUE MOON CONVENIENT ST,3422,BROADWAY,,,NEW YORK,NY,10031,0,POINT (-73.95299 40.82279)
Bronx,752980,Store,A,WP 99 CENTS PLUS CORP,WP 99 CENTS PLUS,1207,WHITE PLAINS ROAD,,,BRONX,NY,10472,0,POINT (-73.86173 40.83074)
Kings,752914,Store,JAC,SUPERMARKET LAS GARDENIAS CORP,SUPERMARKET LAS GARDENI,4401,5TH AVENUE,,,BROOKLYN,NY,11220,0,POINT (-74.0069 40.64838)
Bronx,752894,Store,JAC,WHITE PLAINS MINI MART CORPORATIO,WHITE PLAINS MINI MART,3608,WHITE PLAINS ROAD,,,BRONX,NY,10467,900,POINT (-73.86506 40.87935)
Kings,752837,Store,JAC,NY GOURMET DELI INC,NY GOURMET DELI,801,FLATBUSH AVENUE,,,BROOKLYN,NY,11226,0,POINT (-73.95935 40.65309)
Kings,752835,Store,A,EMPIRE SMOKE SHOP,EMPIRE SMOKE SHOP,738,FLATBUSH AVENUE,,,BROOKLYN,NY,11226,0,POINT (-73.95972 40.65494)
New York,752824,Store,A,BROADWAY CANDY CORP,BROADWAY CANDY,4973,BROADWAY,,,NEW YORK,NY,10034,900,POINT (-73.91944 40.86819)
New York,752778,Store,JAC,NYC GOURMET DELI 1 CORP,NYC GOURMET DELI,3459,BROADWAY,,,NEW YORK,NY,10031,0,POINT (-73.95253 40.82373)
Kings,752772,Store,JAC,DON ELIGO GROCERY CORP,DON ELIGO GROCERY,2348,PITKIN AVENUE,,,BROOKLYN,NY,11207,0,POINT (-73.88565 40.67342)
Ulster,752652,Store,JAC,HEALTHY CHOICE MARKETS 3 LLC,MOTHER EARTHS STOREHOUS,249,MAIN STREET,,,SAUGERTIES,NY,12477,0,POINT (-73.95303 42.07763)
Orange,752603,Store,JAC,PAULITAS MARKET INC,PAULITAS MARKET,289-291,BROADWAY,,,NEWBURGH,NY,12550,9100,POINT (-74.02058 41.50065)
Nassau,752587,Store,JAC,MANDAS DELI CORP,MANDAS DELI,88,BROADWAY,,,FREEPORT,NY,11520,0,POINT (-73.58074 40.6594)
Kings,752563,Store,JAC,CHOPPED CHEESE 2 CORP,CHOPPED CHEESE,2847,CHURCH AVENUE,,,BROOKLYN,NY,11226,0,POINT (-73.94988 40.6508)
Sullivan,752445,Store,JAC,MOUNTAIN MAIN TRADING LLC,SANDBURG TRADING,64,MAIN STREET,,,MOUNTAIN DALE,NY,12763,1200,POINT (-74.53203 41.68989)
Dutchess,752431,Store,JAC,PRICE AND SHILLING LLC,PRICE AND SCHILLING,54A,BROADWAY,,,TIVOLI,NY,12583,700,POINT (-73.90905 42.05854)
Suffolk,752424,Store,A,DOLLAR TREE STORES INC,DOLLAR TREE #09117,355,BROADWAY,,,AMITYVILLE,NY,11701,0,POINT (-73.41747 40.6839)
Nassau,752396,Store,JAC,1102 F & V LLC,1102 F & V,1102,BROADWAY,,,WOODMERE,NY,11598,0,POINT (-73.70613 40.63284)
Kings,752394,Store,JAC,3334 LA SIRENA SUPERMARKET INC,LA SIRENA SUPERMARKET,3334,FULTON STREET,,,BROOKLYN,NY,11208,4000,POINT (-73.8726 40.68352)
Bronx,752369,Store,JAC,A & C DELI MINI MARKET CORP,A & C DELI MINI MARKET,885,EAST TREMONT AVENUE,,,BRONX,NY,10460,0,POINT (-73.88521 40.8425)
Ulster,752216,Store,JAC,NIRANJAN LLC,CALCUTTA KITCHEN,448,BROADWAY,,,KINGSTON,NY,12401,2400,POINT (-73.99776 41.92711)
Queens,752206,Store,JAC,SABA RESTAURANT CORP,AI QUDS,25-75,STEINWAY STREET,,,ASTORIA,NY,11103,0,POINT (-73.91319 40.76611)
Queens,752192,Store,JAC,VADICE LIKOVIC INC,VADICE LIKOVIC,95-08,JAMAICA AVENUE,,,WOODHAVEN,NY,11421,0,POINT (-73.85008 40.69432)
Kings,752160,Store,JAC,NEW TOWN DELI AND GRILL CORP,NEW TOWN DELI AND GRILL,354,KINGS HIGHWAY,,,BROOKLYN,NY,11223,0,POINT (-73.97721 40.60478)
Suffolk,752137,Store,JAC,BOLLA OPERATING LI CORP,KINGS 616 BROADWAY C-ST,616,BROADWAY,,,AMITYVILLE,NY,11701,0,POINT (-73.42422 40.6955)
Queens,752120,Store,A,CHAPILANDIA DELI CORP,CHAPILANDIA DELI,86-18,ROOSEVELT AVENUE,,,JACKSON HEIGHTS,NY,11372,0,POINT (-73.8793 40.74812)
Nassau,752100,Store,JAC,TC PROVISIONS INC,TC PROVISIONS,520,MAIN STREET,,,WESTBURY,NY,11590,0,POINT (-73.56717 40.75642)
Kings,752068,Store,JAC,P&L GOURMET DELI CORP,P&L GOURMET,1500,PITKIN AVENUE,,,BROOKLYN,NY,11212,0,POINT (-73.9181 40.6686)
Broome,751995,Store,JAC,A&N MART CORP,A&N MART,341,MAIN STREET,,,BINGHAMTON,NY,13905,0,POINT (-75.94503 42.11121)
Nassau,751986,Store,JAC,PATTYS VARIEDADES CORP,PATTY'S VARIEDADES,119,MAIN STREET,,,HEMPSTEAD,NY,11550,0,POINT (-73.6256 40.71051)
Nassau,751976,Store,JAC,VILLAGE SMOKE LOFT INC THE,THE VILLAGE SMOKE LOFT,57,MAIN STREET,,,HEMPSTEAD,NY,11550,1000,POINT (-73.62448 40.70814)
New York,751949,Store,JAC,ADAN FOOD CENTER CORP,ADAN FOOD CENTER,1626,PARK AVENUE,,,NEW YORK,NY,10029,0,POINT (-73.94374 40.79884)
Queens,751855,Store,JAC,SKILZ CORPORATION,7 ELEVEN STORE # 36951B,179-55,HILLSIDE AVENUE,,,JAMAICA,NY,11432,5000,POINT (-73.78312 40.71281)
Bronx,751853,Store,JAC,BRAODWAY DELI INC,BRAODWAY DELI,5219A,BROADWAY,,,BRONX,NY,10463,0,POINT (-73.90934 40.87488)
Ulster,751708,Store,A,HVNY ENTERPRISES INC,HVNY ENTERPRISES,8,MAIN STREET,,,HIGHLAND,NY,12528,0,POINT (-73.96443 41.71944)
Bronx,751673,Store,JAC,R&A MEAT MARKET LLC,RICHIES MEAT MARKET,3818,EAST TREMONT AVENUE,,,BRONX,NY,10465,900,POINT (-73.82039 40.82474)
Madison,751652,Store,JAC,DELTA CONVENIENCE CORPORATION,DELTA CONVENIENCE,120,MAIN STREET,,,ONEIDA,NY,13421,0,POINT (-75.65227 43.09568)
Monroe,751559,Store,JAC,AHMED MINI MART INC,AHMED MINI MART,670,JAY STREET,,,ROCHESTER,NY,14611,0,POINT (-77.63854 43.15945)
Kings,751411,Store,JAC,CLASSY BITE DELI CORP,CLASSY BITE DELI,183,BEDFORD AVENUE,,,BROOKLYN,NY,11211,1000,POINT (-73.95763 40.71792)
Kings,751410,Store,A,PURELY BROOKLYN INC,PURELY BROOKLYN,489,GRAND STREET,,,BROOKLYN,NY,11211,800,POINT (-73.95157 40.71091)
Queens,751381,Store,JAC,AVADH CONVENIENCE INC,AVADH CONVENIENCE,3714,BROADWAY,,,ASTORIA,NY,11103,0,POINT (-73.92005 40.75947)
Kings,751370,Store,JAC,1872 FULTON DELI & GROCERY 1 INC,1872 FULTON DELI & GROC,1872,FULTON STREET,,,BROOKLYN,NY,11233,0,POINT (-73.92476 40.67904)
Westchester,751328,Store,JAC,PETROGAS INC,VALHALLA SINCLAIR GAS,34,BROADWAY,,,VALHALLA,NY,10595,0,POINT (-73.77343 41.07397)
Kings,751317,Store,JAC,WHOLESOME MARKET & GRILL CORP,WHOLESOME MARKET & GRIL,1077,BROADWAY,,,BROOKLYN,NY,11221,0,POINT (-73.93092 40.69456)
Kings,751308,Store,A,MYTOWN GROCERY INC,MYTOWN GROCERY,5206,7TH AVENUE,,,BROOKLYN,NY,11220,0,POINT (-74.00724 40.64116)
Queens,751255,Store,JAC,48ST GROCERY CORP,48ST GROCERY,48-16,BROADWAY,,,ASTORIA,NY,11103,0,POINT (-73.91238 40.75587)
Wyoming,751233,Store,JAC,DOMES INC,DOMES COUNTRY STORE,560,MAIN STREET,,,ARCADE,NY,14009,2500,POINT (-78.43744 42.5336)
Kings,751212,Store,JAC,SHLOMS HEIMISH CORPORATION,SHLOMIES BAKE SHOP,744,BEDFORD AVENUE,,,BROOKLYN,NY,11205,0,POINT (-73.95693 40.69849)
Erie,751182,Store,JAC,EASTERN PETROLEUM CORP,EASTERN PETROLEUM,4535,BROADWAY,,,DEPEW,NY,14043,2000,POINT (-78.70715 42.90093)
Kings,751172,Store,JAC,D&J GROCERY SPANISH FOOD INC,D&J GROCERY SPANISH FOO,927,GRAND STREET,,,BROOKLYN,NY,11211,0,POINT (-73.93709 40.71282)
New York,751170,Store,JAC,2421 GARY UPTOWN WHOLE FOODS LLC,UPTOWN WHOLE FOODS,2421,BROADWAY,,,NEW YORK,NY,10024,2300,POINT (-73.97501 40.79038)
Queens,751099,Store,JAC,MAIN STREET CONVENIENCE INC,7-ELEVEN STORE #20944F,69-58,MAIN STREET,,,FLUSHING,NY,11367,1500,POINT (-73.82343 40.72982)
Kings,751047,Store,JAC,511 CHURCH DELI GRILL CORP,511 CHURCH DELI GRILL,511,CHURCH AVENUE,,,BROOKLYN,NY,11218,0,POINT (-73.97529 40.64457)
Kings,751034,Store,JAC,369 FLATBUSH FOOD LLC,FOOD UNIVERSE MARKETPLA,369,FLATBUSH AVENUE,,,BROOKLYN,NY,11238,0,POINT (-73.97204 40.6766)
Kings,750971,Store,A,HEALTH PLUS DRUGS INC.,HEALTH PLUS DRUGS,1231,FULTON STREET,,,BROOKLYN,NY,11216,1500,POINT (-73.95227 40.68054)
Queens,750934,Store,JAC,SUN FISH INC,SUN FISH,9007,JAMAICA AVENUE,,,WOODHAVEN,NY,11421,0,POINT (-73.85436 40.6929)
New York,750925,Store,A,SR MANGO HOUSE INC,SR MANGO HOUSE,3580,BROADWAY,,,NEW YORK,NY,10031,0,POINT (-73.94926 40.82789)
Queens,750907,Store,JAC,LHAKPA ENTERPRISES INC,BROADWAY NATURAL,3007,BROADWAY,,,ASTORIA,NY,11106,0,POINT (-73.92587 40.76221)
New York,750899,Store,A,METRO RUN LLC,METRORUN,1458,LEXINGTON AVENUE,,,NEW YORK,NY,10128,0,POINT (-73.95168 40.78484)
Dutchess,750874,Store,A,ELLAA MARKET CORP,ELLAA MARKET,811,MAIN STREET,,,POUGHKEEPSIE,NY,12603,850,POINT (-73.8993 41.69612)
Westchester,750868,Store,JAC,HIROHITO FOODS LLC,FUJI MART,816,WHITE PLAINS ROAD,,,SCARSDALE,NY,10583,0,POINT (-73.80277 40.97591)
Kings,750805,Store,JAC,ADELAY DELI GROCERY INC,ADELAY DELI GROCERY,1861,PITKIN AVENUE,,,BROOKLYN,NY,11212,1000,POINT (-73.90406 40.67069)
Queens,750804,Store,A,NEWLEAF COMMODITIES INC,TINDAHAN,81-04,BROADWAY,,,ELMHURST,NY,11373,0,POINT (-73.8837 40.74332)
Westchester,750773,Store,JAB,WINSUNCANE LLC,COOKIE & CHOCO,163,GRAND STREET,,,CROTON ON HUDSON,NY,10520,0,POINT (-73.88244 41.2104)
New York,750573,Store,A,GETIR US INC,GETIR,2565,BROADWAY,,,NEW YORK,NY,10025,0,POINT (-73.97178 40.79483)
Kings,750567,Store,JAC,35049B STORE INC,7 ELEVEN STORE #35049B,2474,FLATBUSH AVENUE,,,BROOKLYN,NY,11234,2000,POINT (-73.92287 40.60999)
Kings,750520,Store,JAC,KINGS 1 DELI AND GRILL INC,KINGS 1 DELI AND GRILL,1424,SHEEPSHEAD BAY ROAD,,,BROOKLYN,NY,11235,1000,POINT (-73.95444 40.58743)
Monroe,750519,Store,A,FUN CITY MINI MARKET INC,FINE CITY MINI MARKET,255,JAY STREET,,,ROCHESTER,NY,14608,0,POINT (-77.62685 43.15945)
Queens,750509,Store,JAC,SUBZI BAZAAR NY II INC,SUBZI BAZAAR,42-92,MAIN STREET,,,FLUSHING,NY,11355,8200,POINT (-73.82707 40.75278)
Kings,750496,Store,JAC,M N M DELI AND GROCERY CORP,M N M DELI AND GROCERY,3139,FULTON STREET,,,BROOKLYN,NY,11208,1500,POINT (-73.87885 40.68177)
Queens,750495,Store,JAC,MO SALEH DELI AND GROCERY CORP,MO SALEH DELI AND GROCE,148-64A,HILLSIDE AVENUE,,,JAMAICA,NY,11435,1500,POINT (-73.80678 40.70657)
Kings,750481,Store,JAC,DJ FOOD MARKET CORP,DJ FOOD MARKET,860,FLATBUSH AVENUE,,,BROOKLYN,NY,11226,1500,POINT (-73.95894 40.65129)
Kings,750471,Store,JAC,VANILLA GOURMET NY CORP,A&D TURKISH HALAL MEAT,7921,5TH AVENUE,,,BROOKLYN,NY,11209,2000,POINT (-74.02411 40.6259)
Queens,750460,Store,JAC,VARIEDADES GG CORP,VARIEDADES GG,92-11,37TH AVENUE,,,JACKSON HEIGHTS,NY,11372,0,POINT (-73.87478 40.75075)
Kings,750454,Store,A,DOLLAR ZONE OF TRIANGLE JUNCTION,ONE DOLLAR ZONE JUNCTIO,1608,FLATBUSH AVENUE,,,BROOKLYN,NY,11210,8600,POINT (-73.94606 40.63132)
Queens,750382,Store,JAC,ELMHURST DELI & JUICE BAR CORP,ELMHURST DELI & JUICE B,80-03,BROADWAY,,,ELMHURST,NY,11373,1000,POINT (-73.88494 40.74389)
Kings,750354,Store,JAC,SEAFOOD KINGDOM INC,SEAFOOD KINGDOM,1224,FLATBUSH AVENUE,,,BROOKLYN,NY,11226,1000,POINT (-73.95549 40.64035)
Kings,750291,Store,JAC,1 FRESH DELI & GRILL CORP,FRESH DELI & GRILL,3079,FULTON STREET,,,BROOKLYN,NY,11208,1000,POINT (-73.88119 40.68107)
New York,750281,Store,JAC,BROADWAY SAGE CORP,BROADWAY SAGE,3360,BROADWAY,,,NEW YORK,NY,10031,0,POINT (-73.95459 40.8206)
Kings,750250,Store,JABCD,POP SHOP BROOKLYN LLC,SHOWROOM BAKEHOUSE THE,162,7TH AVENUE,,,BROOKLYN,NY,11215,1200,POINT (-73.97729 40.67202)
Nassau,750221,Store,JACH,BROOKLYN PASTA LAB INC,BROOKLYN PASTA LAB,162,MAIN STREET,,,PORT WASHINGTON,NY,11050,2000,POINT (-73.69309 40.83069)
Bronx,750192,Store,JAC,BRONX GOLDEN APPLE FARM INC,COMMUNITY GREEN MARKET,2228,WHITE PLAINS ROAD,,,BRONX,NY,10467,2500,POINT (-73.86756 40.85846)
Kings,750129,Store,JAC,MIDWAY DELI AND TOBACCO CORP,MIDWAY DELI AND TOBACCO,2630,ATLANTIC AVENUE,,,BROOKLYN,NY,11207,1000,POINT (-73.89723 40.67565)
Queens,750115,Store,JAC,BLUE ISLAND SEAFOOD CORP,BLUE ISLAND SEAFOOD,28-19,STEINWAY STREET,,,ASTORIA,NY,11103,0,POINT (-73.91412 40.76497)
Kings,750081,Store,JAC,7 STARS SEAFOOD MARKET INC,SEVEN STARS,1706,CHURCH AVENUE,,,BROOKLYN,NY,11226,0,POINT (-73.96371 40.64918)
New York,750046,Store,JAC,YOUR FAMOUS DELI INC,YOUR FAMOUS DELI,1870,LEXINGTON AVENUE,,,NEW YORK,NY,10029,0,POINT (-73.9418 40.79838)
Bronx,750033,Store,JAC,GOURMET MARKET & BAGEL INC,GOURMET MARKET & BAGEL,5993,BROADWAY,,,BRONX,NY,10471,1500,POINT (-73.89791 40.89041)
Suffolk,750023,Store,A,CENTRAL STATION MARKET INC,CENTRAL STATION MARKET,100,BROADWAY,,,HUNTINGTON STATION,NY,11746,100,POINT (-73.40789 40.8542)
Monroe,749984,Store,JAC,RITAJ EXPRESS MART LLC,RITAJ EXPRESS MART,446,JAY STREET,,,ROCHESTER,NY,14611,0,POINT (-77.63216 43.15948)
Ulster,749980,Store,JAC,OX CARIBBEAN DELI LLC,,579,BROADWAY,,,KINGSTON,NY,12401,0,POINT (-74.00325 41.92908)
Rockland,749866,Store,JAC,JOTA MINI MART CORP,JOTA MINI MART,50,BROADWAY,,,HAVERSTRAW,NY,10927,0,POINT (-73.96482 41.19842)
Queens,749795,Store,A,SAF ENTERPRISE INC I,SAF ENTERPRISE,4220,BROADWAY,,,ASTORIA,NY,11103,0,POINT (-73.91674 40.75791)
Nassau,749789,Store,JAC,3 GOLDEN GUYS INC,3 GOLDEN GUYS,974,FULTON STREET,,,FARMINGDALE,NY,11735,0,POINT (-73.43565 40.72536)
Dutchess,749785,Store,JAC,CASA BLANCA FINEST DELI GROCERY C,CASA BLANCA FINEST DELI,386,MAIN STREET,,,POUGHKEEPSIE,NY,12601,5000,POINT (-73.92395 41.70227)
Kings,749756,Store,JAC,FRANTON FOOD CORP,FINE FARE SUPERMARKET,1498,FLATBUSH AVENUE,,,BROOKLYN,NY,11210,0,POINT (-73.94914 40.63424)
Kings,749752,Store,JAC,DILONE MINI MARKET INC,DILONE MINI MARKET,2837,FULTON STREET,,,BROOKLYN,NY,11207,0,POINT (-73.88972 40.67836)
Kings,749698,Store,JAC,JM DELI & GRILL INC,JM DELI & GRILL,282,BROADWAY,,,BROOKLYN,NY,11211,800,POINT (-73.95855 40.70865)
Rockland,749679,Store,JAC,CARIBBEAN ISLAND GROCERY INC,CARIBBEAN ISLAND GROCER,18,BROAD STREET,,,HAVERSTRAW,NY,10927,0,POINT (-73.96368 41.19744)
New York,749667,Store,JAC,JUICE NOW LLC,JUICE NOW,1646,MADISON AVENUE,,,NEW YORK,NY,10029,0,POINT (-73.94779 40.79597)
Orange,749662,Store,JAC,BUTCHER GR DELI AND GROCERY INC,BUTCHER SHOP/GROCERY,165,BROADWAY,,,NEWBURGH,NY,12550,1200,POINT (-74.01437 41.50024)
Kings,749611,Store,JAC,KINGS ECONOMIC FOOD MARKET INC,KINGS ECONOMIC FOOD MAR,9424,KINGS HIGHWAY,,,BROOKLYN,NY,11212,0,POINT (-73.92048 40.65848)
Kings,749607,Store,JAC,QUSAI DELI GROCERY CORP,QUSAI DELI GROCERY,874,BROADWAY,,,BROOKLYN,NY,11206,0,POINT (-73.93766 40.69833)
Onondaga,749603,Store,JAC,DIAMOND GROCERY SUPERMARKET CORP,DIAMOND GROCERY SUPERMA,1701,COURT STREET,,,SYRACUSE,NY,13208,0,POINT (-76.14443 43.07944)
Queens,749599,Store,JAC,82ND CONVENIENCE STORE CORP,82ND CONVENIENCE STORE,82-02,ROOSEVELT AVENUE,,,JACKSON HEIGHTS,NY,11372,0,POINT (-73.88371 40.74765)
New York,749582,Store,JAC,BAD BUNNY DELI GROCERY CORP,BAD BUNNY DELI GROCERY,1870,LEXINGTON AVENUE,,,NEW YORK,NY,10029,0,POINT (-73.9418 40.79838)
New York,749577,Store,JAC,M&G FRESH PRODUCE CORP,M&G FRESH PRODUCE,3347,BROADWAY,,,NEW YORK,NY,10031,0,POINT (-73.9549 40.82051)
Kings,749539,Store,JAC,GOLDEN DRAGON MARKET CORP,GOLDEN DRAGON MARKET,2223,86TH STREET,,,BROOKLYN,NY,11214,1400,POINT (-73.99317 40.60151)
New York,749520,Store,JAC,CHOP CHEESE DELI 2 CORP,CHOP CHEESE DELI,3879,BROADWAY,,,NEW YORK,NY,10032,0,POINT (-73.94259 40.83733)
Queens,749450,Store,JAC,A & V MINI MARKET CORP,A & V MINI MARKET,98-02,37TH AVENUE,,,CORONA,NY,11368,1000,POINT (-73.8689 40.75208)
Bronx,749387,Store,JAC,MAHADAV ENTERPRISES INC,238 CORNER STORE,5818,BROADWAY,,,BRONX,NY,10463,0,POINT (-73.9007 40.88511)
Bronx,749372,Store,JAC,UVERAL MEAT MARKET & GROCERY CORP,UVERAL MEAT MARKET & GR,2558,GRAND CONCOURSE,,,BRONX,NY,10458,0,POINT (-73.8959 40.86381)
Kings,749356,Store,A,GB LICENSE LLC,GOPUFF 554,835,BROADWAY,,,BROOKLYN,NY,11206,2000,POINT (-73.93905 40.69913)
Washington,749325,Store,JAC,BRIDGEAVE SUPER MART INC,BRIDGEAVE SUPER MART,185,BROADWAY,,,WHITEHALL,NY,12887,0,POINT (-73.40559 43.54822)
Kings,749313,Store,A,XING LONG FA INC,XING LONG FA,1539,PITKIN AVENUE,,,BROOKLYN,NY,11212,2000,POINT (-73.9167 40.66881)
Queens,749243,Store,JAC,JOO YOUNG CHUN,JS MANAGEMENT,21-15,BROADWAY,,,ASTORIA,NY,11106,0,POINT (-73.93106 40.76488)
Madison,749225,Store,JAC,BOWMAN NICKY,NEW WOODSTOCK MARKET,2092,MAIN STREET,,,NEW WOODSTOCK,NY,13122,2000,POINT (-75.85664 42.84819)
Delaware,749194,Store,A,TAY TEA LLC,TAY TEA SHOP AND GIFTS,159,MAIN STREET,,,DELHI,NY,13753,500,POINT (-74.91325 42.2799)
Richmond,749178,Store,JAC,BEAMS FAMILY DELI  INC,BEAMS FAMILY DELI,348,BROADWAY,,,STATEN ISLAND,NY,10310,0,POINT (-74.11685 40.63279)
Kings,749163,Store,JAB,WINNER BK LLC,WINNER BK,367,7TH AVENUE,,,BROOKLYN,NY,11215,2000,POINT (-73.98251 40.66579)
Steuben,749161,Store,JAC,BRIDGET D BURKE,AUNT BRIDGET'S KITCHEN,31,MAIN STREET,,,ADDISON,NY,14801,1000,POINT (-77.23395 42.10626)
Suffolk,749151,Store,JAC,SAYVILLE CHEESE LLC,SAYVILLE CHEESE,110,MAIN STREET,,,SAYVILLE,NY,11782,255,POINT (-73.08397 40.73516)
Kings,749105,Store,JAC,TASTE RITE BAKERY LLC,TASTE RITE BAKERY,4723,CHURCH AVENUE,,,BROOKLYN,NY,11203,2500,POINT (-73.93248 40.65163)
New York,749070,Store,JAC,SUPER DELI MARKET CORP,SUPER DELI MARKET,4500,BROADWAY,,,NEW YORK,NY,10040,2000,POINT (-73.93201 40.85794)
New York,749039,Store,JAC,3345 BROADWAY DELI & GROCERY INC,3345 BROADWAY DELI & GR,3345,BROADWAY,,,NEW YORK,NY,10031,2200,POINT (-73.9549 40.82051)
Queens,748925,Store,JAC,FRUIT TEAM INC,FRUIT TEAM,25-05,STEINWAY STREET,,,ASTORIA,NY,11106,0,POINT (-73.91186 40.76775)
Richmond,748917,Store,JAC,OKIN FOODS INC,OKIN FOODS,1309,FOREST AVENUE,,,STATEN ISLAND,NY,10302,1500,POINT (-74.13345 40.62637)
Richmond,748905,Store,JAC,J KIKIS DELI CORP,KIKIS DELI,249,MAIN STREET,,,STATEN ISLAND,NY,10307,1500,POINT (-74.24693 40.50912)
New York,748904,Store,A,BROADWAY MART 2708 INC,BROADWAY MART,2708,BROADWAY,,,NEW YORK,NY,10025,2000,POINT (-73.96827 40.79942)
New York,748886,Store,A,CONVENIENCE AND CANDY CORP,CONVENIENCE AND CANDY,3550,BROADWAY,,,NEW YORK,NY,10031,1800,POINT (-73.95002 40.82687)
Bronx,748880,Store,A,DCON DISCOUNT INC,DCON DISCOUNT,4412,WHITE PLAINS ROAD,,,BRONX,NY,10470,8000,POINT (-73.85384 40.899)
Albany,748874,Store,JAC,COULSONS 420 INC,COULSON'S NEWS,420,BROADWAY,,,ALBANY,NY,12207,1200,POINT (-73.75075 42.6486)
New York,748858,Store,A,GORILLAS NYC COLUMBIA LLC,GORILLAS - 23 MAHATTAN,2681,BROADWAY,,,NEW YORK,NY,10025,2000,POINT (-73.96896 40.7987)
New York,748842,Store,A,GB LICENSE LLC,GOPUFF 807,2680,BROADWAY,,,NEW YORK,NY,10025,5000,POINT (-73.96882 40.79854)
Nassau,748805,Store,JAC,RUSSIAN EUROPEAN FOOD MARKET CORP,RUSSIAN EUROPEAN FOOD M,148,MAIN STREET,,,EAST ROCKAWAY,NY,11518,0,POINT (-73.6666 40.64187)
Queens,748785,Store,JAC,JMMD DELI CORP,SMILEN BROTHERS MARKET,147-23,JAMAICA AVENUE,,,JAMAICA,NY,11435,0,POINT (-73.8068 40.70178)
Nassau,748696,Store,JAC,LOCAL MARKET PORT WASHINGTON LLC,THE LOCAL MARKET PORT W,273,MAIN STREET,,,PORT WASHINGTON,NY,11050,0,POINT (-73.69794 40.83228)
Kings,748652,Store,JAC,FLATBUSH ORGANIC MARKET CORP,FLATBUSH ORGANIC MARKET,713,FLATBUSH AVENUE,,,BROOKLYN,NY,11225,0,POINT (-73.95989 40.65575)
Kings,748650,Store,JAC,SMITH TAIWO ESTER,ANGEL FOODS DELI & GROC,2123,CHURCH AVENUE,,,BROOKLYN,NY,11226,0,POINT (-73.95913 40.65031)
Kings,748596,Store,JAC,TOGETHER FAMS INC,EDIBLE ARRANGEMENTS,350,BROADWAY,,,BROOKLYN,NY,11211,1000,POINT (-73.95587 40.70771)
Kings,748560,Store,JAC,COCO ISLAND MART INC,COCO ISLAND MART,1514,86TH STREET,,,BROOKLYN,NY,11228,0,POINT (-74.00909 40.61117)
Bronx,748556,Store,JAC,AAA DISCOUNT INC,AAA DISCOUNT,1398,GRAND CONCOURSE,,,BRONX,NY,10456,0,POINT (-73.91374 40.83848)
Kings,748554,Store,JAC,SAMS DELI X-PRESS CORP,SAM'S DELI X-PRESS,1268B,MYRTLE AVENUE,,,BROOKLYN,NY,11221,300,POINT (-73.92659 40.69794)
Richmond,748523,Store,JAC,FAMOUS CONVENIENCE INC,FAMOUS CONVENIENCE,416,BROADWAY,,,STATEN ISLAND,NY,10310,1200,POINT (-74.11654 40.63092)
Kings,748508,Store,JAC,CHORIZOS MEAT CORP,CHORIZOS MEAT,5822,5TH AVENUE,,,BROOKLYN,NY,11220,1000,POINT (-74.01541 40.64019)
Queens,748461,Store,JAC,SUNNYSIDE GOURMET INC,SUNNYSIDE GOURMET,63-20,BROADWAY,,,WOODSIDE,NY,11377,0,POINT (-73.89899 40.74992)
Suffolk,748460,Store,JAC,EXCELSIOR FISH CORP,HASKELLS SEAFOOD MARKET,77A,MAIN STREET,,,WESTHAMPTON BEACH,NY,11978,1500,POINT (-72.64406 40.80869)
Kings,748453,Store,JAC,T & A DELI AND GRILL CORP,T & A DELI AND GRILL,234,7TH AVENUE,,,BROOKLYN,NY,11215,0,POINT (-73.97914 40.66979)
Westchester,748447,Store,JAC,GUNKS HOLDINGS CORP,CHESTNUT MARKETS,420,BROADWAY,,,DOBBS FERRY,NY,10522,700,POINT (-73.8694 41.01538)
Kings,748423,Store,JAC,SULAJ GROUP INC,SULAJ GROUP,242,KINGS HIGHWAY,,,BROOKLYN,NY,11223,1000,POINT (-73.98175 40.60534)
Kings,748378,Store,JAC,LOCAL ROOTS NYC LLC,LOCAL ROOTS NYC,398,COURT STREET,,,BROOKLYN,NY,11231,2000,POINT (-73.99669 40.6807)
New York,748333,Store,JAC,BROS CONVENIENCE STORE 1 CORP,BROS CONVENIENCE STORE,2310,7TH AVENUE,,,NEW YORK,NY,10030,1800,POINT (-73.94344 40.81582)
Queens,748314,Store,JAC,VERMILLION MANAGEMENT CORP,C & J PRIME MEATS,59-07,ROOSEVELT AVENUE,,,WOODSIDE,NY,11377,0,POINT (-73.90503 40.74542)
Kings,748286,Store,JAC,18 AVE SUPERMARKET INC,18 AVE SUPERMARKET,1811,86TH STREET,,,BROOKLYN,NY,11214,3500,POINT (-74.00228 40.60704)
Kings,748219,Store,A,AAA HAPPY INC,AAA HAPPY,1468,MYRTLE AVENUE,,,BROOKLYN,NY,11237,1000,POINT (-73.91589 40.69906)
Queens,748202,Store,JAC,ZU FRUIT GROCERY CORP,ZU FRUIT GROCERY,86-18,ROOSEVELT AVENUE,,,JACKSON HEIGHTS,NY,11372,800,POINT (-73.8793 40.74812)
Kings,748201,Store,A,UNIVERSAL CONVENIENCE CORP,UNIVERSAL CONVENIENCE,267,BROADWAY,,,BROOKLYN,NY,11211,800,POINT (-73.95899 40.70882)
Kings,748200,Store,A,PANG PANG GROCERY INC,PANG PANG GROCERY,4910,7TH AVENUE,,,BROOKLYN,NY,11220,600,POINT (-74.0055 40.64283)
New York,748198,Store,A,GOLDEN EARTH CANDY INC,GOLDEN EARTH CANDY,3635,BROADWAY,,,NEW YORK,NY,10031,0,POINT (-73.9484 40.82939)
Kings,748196,Store,A,FULTON BEBE GROCERY STORE INC,FULTON BEBE GROCERY STO,3158,FULTON STREET,,,BROOKLYN,NY,11208,1000,POINT (-73.8784 40.68189)
Kings,748195,Store,JAC,ORGANIC FRESH MARKET CORP,ORGANIC FRESH MARKET,1440,BROADWAY,,,BROOKLYN,NY,11221,4000,POINT (-73.91961 40.68807)
Kings,748194,Store,JAC,ALEX GROCERY & NEWS INC,ALEX GROCERY & NEWS,300,BROADWAY,,,BROOKLYN,NY,11211,800,POINT (-73.95803 40.70846)
Kings,748175,Store,A,MAX DEALS 1 INC,MAX DEALS,1634,CHURCH AVENUE,,,BROOKLYN,NY,11226,0,POINT (-73.96401 40.64906)
Kings,748174,Store,A,DISCOUNT BROADWAY INC,MAX DEALS,1787,BROADWAY,,,BROOKLYN,NY,11207,0,POINT (-73.90911 40.68212)
Westchester,748167,Store,JAC,DON JUANITO GROCERY & MEAT MARKET,DON JUANITO GROCERY & M,191,MAIN STREET,,,OSSINING,NY,10562,2000,POINT (-73.86181 41.16169)
Suffolk,748125,Store,JAC,IL BUCO VITA LLC,IL BUCO VITA,225,MAIN STREET,,,AMAGANSETT,NY,11930,1000,POINT (-72.14074 40.97552)
Kings,748098,Store,JAC,943 BROADWAY STAR DELI GROCERY CO,943 BROADWAY STAR DELI,943,BROADWAY,,,BROOKLYN,NY,11206,1000,POINT (-73.93538 40.69707)
Queens,748087,Store,JAC,PRINCE PROPERTY HOLDING INC,PRINCE GOURMET FOOD MAR,7410,BROADWAY,,,ELMHURST,NY,11373,1400,POINT (-73.89092 40.74647)
Nassau,748005,Store,JAC,TORRES DELI & GROCERY CORP,TORRES DELI & GROCERY,84A,BROADWAY,,,FREEPORT,NY,11520,0,POINT (-73.58106 40.65917)
Orange,747948,Store,JAC,ANDYS PIT STOP LLC,ANDYS PIT STOP,307,BROADWAY,,,NEWBURGH,NY,12550,2500,POINT (-74.02158 41.50073)
Bronx,747916,Store,JAC,1269 BRONX DELI GROCERY CORP,1269 BRONX DELI GROCERY,1269,GRAND CONCOURSE,,,BRONX,NY,10452,0,POINT (-73.91633 40.83617)
Queens,747888,Store,JAC,M&W DELI INC,M&W DELI,54-00,MYRTLE AVENUE,,,RIDGEWOOD,NY,11385,0,POINT (-73.91078 40.69959)
Kings,747878,Store,A,WALGREENS EASTERN CO INC,WALGREENS #21337,285,BROADWAY,,,BROOKLYN,NY,11211,5000,POINT (-73.95842 40.70861)
Dutchess,747843,Store,A,DREAM BURNER SMOKE AND CONVENIENC,DREAM BURNER SMOKE AND,530,MAIN STREET,,,POUGHKEEPSIE,NY,12601,1200,POINT (-73.91737 41.7005)
Bronx,747837,Store,JAC,SANTANA GROCERY DELI CORP,SANTANA GROCERY DELI,2001,WHITE PLAINS ROAD,,,BRONX,NY,10462,0,POINT (-73.86791 40.84997)
Schenectady,747816,Store,JAC,BROADWAY SCHENECTADY PETROLEUM IN,BROADWAY SCHENECTADY PE,2302,BROADWAY,,,SCHENECTADY,NY,12306,0,POINT (-73.96974 42.79604)
Westchester,747753,Store,JAC,ANTHONY DIMEGLIO,DOBBS FERRY LOBSTER GUY,26,MAIN STREET,,,DOBBS FERRY,NY,10522,600,POINT (-73.87753 41.01278)
Bronx,747748,Store,JAC,ABU YEMEN MEAT MARKET CORP,ABU YEMEN MEAT MARKET,1202,WHITE PLAINS ROAD,,,BRONX,NY,10472,0,POINT (-73.86171 40.83067)
Richmond,747747,Store,JAC,LA PLAZA DELI CORP,LA PLAZA DELI,400,VICTORY BOULEVARD,,,STATEN ISLAND,NY,10301,800,POINT (-74.08694 40.6325)
Kings,747742,Store,JAC,86 ST DELI AND GRILL INC,86 ST DELI AND GRILL,1981,86TH STREET,,,BROOKLYN,NY,11214,2000,POINT (-73.99841 40.6047)
Kings,747686,Store,JAC,BRIYANA ORGANICS DELI 2 CORP,BRIYANA ORGANICS DELI 2,1017,BEDFORD AVENUE,,,BROOKLYN,NY,11205,1500,POINT (-73.95507 40.68916)
Richmond,747684,Store,JAC,BAGELS ON THE LANE CORP,BAGELS ON THE LANE,166,NEW DORP LANE,,,STATEN ISLAND,NY,10306,2500,POINT (-74.11528 40.57342)
Suffolk,747676,Store,JAC,LOVE OF COUNTRY LLC,LOVE OF COUNTRY,333-8,MAIN STREET,,,CENTER MORICHES,NY,11934,1300,POINT (-72.79197 40.80071)
Queens,747652,Store,JAC,LA PLAZITA DELI & GROCERY INC,LA PLAZITA DELI & GROCE,95-14,JAMAICA AVENUE,,,WOODHAVEN,NY,11421,800,POINT (-73.84985 40.69437)
Queens,747642,Store,A,BHAKTI 71 INC,STOP & GO CONVENIENCE,71-31,ROOSEVELT AVENUE,,,JACKSON HEIGHTS,NY,11372,800,POINT (-73.89374 40.74661)
Bronx,747626,Store,JAC,JUAN DIAZ MARTINEZ & MARGARITO CI,DELI TAQUERIA XOCHITLAL,1507,WHITE PLAINS ROAD,,,BRONX,NY,10462,300,POINT (-73.8636 40.83805)
New York,747589,Store,JAC,MARS RETAIL GROUP INC,M & M WORLD NYC,1600,BROADWAY,,,NEW YORK,NY,10019,20000,POINT (-73.98469 40.76035)
Suffolk,747570,Store,JAC,RN786 INC,7-ELEVEN STORE #38533A,733,PARK AVENUE,,,HUNTINGTON,NY,11743,3000,POINT (-73.39821 40.86007)
Delaware,747535,Store,JAC,H+H LLC,ROASTED,36,MAIN STREET,,,SIDNEY,NY,13838,450,POINT (-75.39184 42.31513)
Kings,747462,Store,A,SANOU MB CORP,SANOU MB,2109,CORTELYOU ROAD,,,BROOKLYN,NY,11226,0,POINT (-73.95833 40.64396)
Richmond,747343,Store,JAC,99C AND MORE CORP I,99C AND MORE,225,BROAD STREET,,,STATEN ISLAND,NY,10304,800,POINT (-74.08224 40.62376)
Queens,747331,Store,JAC,7 ELEVEN INC,7 ELEVEN STORE #34439K,59-01,ROOSEVELT AVENUE,,,WOODSIDE,NY,11377,0,POINT (-73.90521 40.74541)
Kings,747329,Store,JAC,509 MEAT CORP,URBAN MARKET PARK SLOPE,509,5TH AVENUE,,,BROOKLYN,NY,11215,7000,POINT (-73.98807 40.66704)
Albany,747274,Store,JAC,COUNTRY STOP N SHOP INC,COUNTRY STOP N' SHOP,200,MAIN STREET,,,ALTAMONT,NY,12009,0,POINT (-74.03363 42.70091)
Ulster,747214,Store,JAC,ROSENDALE FOOD MART INC,ROSENDALE FOOD MART,3490-3492,MAIN STREET,,,STONE RIDGE,NY,12484,0,POINT (-74.13807 41.85407)
Richmond,747201,Store,JAC,Y & R DELI & GROCERY INC,Y & R DELI & GROCERY,345,VICTORY BOULEVARD,,,STATEN ISLAND,NY,10301,1000,POINT (-74.08593 40.63374)
Steuben,747129,Store,JAC,MICHAEL JOHNS MINI MARKET & DELI,MICHAEL JOHN'S MINI MAR,290,MAIN STREET,,,HORNELL,NY,14843,0,POINT (-77.65244 42.32424)
Queens,747102,Store,JAC,ROJAS DELI GROCERY CORP,ROJAS DELI GROCERY,146-10,HILLSIDE AVENUE,,,JAMAICA,NY,11435,2000,POINT (-73.81018 40.70558)
Queens,747067,Store,JAC,MANGO RICO MARKET INC,MANGO RICO,75-28,37TH AVENUE,,,JACKSON HEIGHTS,NY,11372,1500,POINT (-73.89049 40.74909)
Erie,747061,Store,JAC,EXPRESS WAY MART INC,XPRESSWAY MART,1381,MAIN STREET,,,BUFFALO,NY,14209,0,POINT (-78.86598 42.91119)
New York,747050,Store,JAC,1 LA ISLA FOOD CORP,LA ISLA FOOD,1901,LEXINGTON AVENUE,,,NEW YORK,NY,10035,900,POINT (-73.94053 40.80011)
New York,747047,Store,JAC,KHAN ALIYAH,7-ELEVEN STORE 35522D,600,COLUMBUS AVENUE,,,NEW YORK,NY,10024,0,POINT (-73.97073 40.78852)
Queens,747042,Store,JAC,NB DELI & GROCERY INC,NB DELI & GROCERY,118-18,JAMAICA AVENUE,,,RICHMOND HILL,NY,11418,0,POINT (-73.83112 40.69996)
Kings,747039,Store,JAC,WANG LONG 86 SUPERMARKET INC,STAR MARKET,1778,86TH STREET,,,BROOKLYN,NY,11214,0,POINT (-74.0029 40.60742)
Suffolk,747007,Store,A,"ARGUETA, JOSE W & GELVIS N",ENCOMIENDAS Y TIENDITA,206,BROADWAY,,,AMITYVILLE,NY,11701,0,POINT (-73.41724 40.67945)
Queens,747003,Store,JAC,MK FOREST DELI & CONVENIENCE INC,MK FOREST DELI,66-55,FOREST AVENUE,,,RIDGEWOOD,NY,11385,1000,POINT (-73.90255 40.70598)
Kings,746933,Store,JAC,CALZADO Y VARIEDADES TIPICOS JUAN,CALZADO Y VARIEDADES TI,1710,86TH STREET,,,BROOKLYN,NY,11214,1500,POINT (-74.00454 40.60841)
Queens,746915,Store,JAC,79TH MEAT CORP,SUPERFRESH,78-11-15,NORTHERN BOULEVARD,,,JACKSON HEIGHTS,NY,11372,0,POINT (-73.8887 40.7552)
Suffolk,746888,Store,JAC,SUGARED UP INC,SUGARED UP!,522,MAIN STREET,,,ISLIP,NY,11751,1200,POINT (-73.21361 40.72921)
Queens,746845,Store,JAC,US 1 SUPERMARKET INC,US 1 SUPERMARKET,39-12,MAIN STREET,,,FLUSHING,NY,11354,22000,POINT (-73.83026 40.75983)
New York,746837,Store,JAC,ANZ ONE STOP CORP,ANZ ONE STOP,141,LEXINGTON AVENUE,,,NEW YORK,NY,10016,0,POINT (-73.98189 40.74343)
Dutchess,746813,Store,A,DOCS POUGHKEEPSIE INC.,DOCS NUTRITION DEPOT,1054,MAIN STREET,,,FISHKILL,NY,12524,1000,POINT (-73.90421 41.53446)
Rensselaer,746770,Store,JAC,QUDRAT INC,QUDRAT,491,5TH AVENUE,,,TROY,NY,12182,1200,POINT (-73.67507 42.77089)
Kings,746745,Store,JAC,PETRICHOR LLC,HORSERADISH,839,BROADWAY,,,BROOKLYN,NY,11206,0,POINT (-73.93876 40.69896)
Suffolk,746743,Store,JAC,REXER FAMILY FARM LLC,REXER FAMILY FARM,1028,PARK AVENUE,,,HUNTINGTON,NY,11743,0,POINT (-73.3681 40.83992)
New York,746632,Store,JAC,4490 FOOD CORP,SHOP FAIR FRESH,4490,BROADWAY,,,NEW YORK,NY,10040,0,POINT (-73.93199 40.85796)
Dutchess,746545,Store,JAC,DK BREWERY CORP,ZEUS BREWING CO,178,MAIN STREET,,,POUGHKEEPSIE,NY,12601,0,POINT (-73.93205 41.70499)
New York,746541,Store,JAC,ISABELLAS GROCERY CORP,ISABELLAS GROCERY,1729,LEXINGTON AVENUE,,,NEW YORK,NY,10029,1500,POINT (-73.94545 40.79338)
Kings,746533,Store,JAC,LOPEZ DELI GROCERY CORP,LOPEZ DELI GROCERY,4824,7TH AVENUE,,,BROOKLYN,NY,11220,1000,POINT (-74.00522 40.64311)
Queens,746411,Store,JAC,FAMILY MART INC,FAMILY MART,29-15,BROADWAY,,,ASTORIA,NY,11106,0,POINT (-73.92644 40.76247)
Queens,746404,Store,JAC,A&P LOTTERY STORE INC,A&P LOTTERY STORE,73-02,37TH AVENUE,,,JACKSON HEIGHTS,NY,11372,1000,POINT (-73.89257 40.74887)
Bronx,746335,Store,A,EAST 219 GOURMET DELI CORP,EAST 219 GOURMET DELI,3801,WHITE PLAINS ROAD,,,BRONX,NY,10467,1200,POINT (-73.86279 40.88371)
Suffolk,746323,Store,JAC,WORLD BEAUTY WONDERS INC,BACKHOME SUPERMARKET,573,BROADWAY,,,AMITYVILLE,NY,11701,1000,POINT (-73.4221 40.69253)
Richmond,746299,Store,JAC,NEW DORP CENTRAL DELI CORP,NEW DORP CENTRAL DELI,360A,NEW DORP LANE,,,STATEN ISLAND,NY,10306,2000,POINT (-74.11059 40.57092)
Kings,746265,Store,JAC,BETWEEN THE BUNS GOURMET CORP,BETWEEN THE BUNS GOURME,774,BROADWAY,,,BROOKLYN,NY,11206,1100,POINT (-73.9408 40.70012)
Suffolk,746221,Store,JAC,GREEN NUTRITION CORP,CITYLIFE NUTRITION,214,BROADWAY,,,AMITYVILLE,NY,11701,1000,POINT (-73.4172 40.67963)
Schenectady,746215,Store,JAC,LENT HEATHER,BITTERSWEET CANDY,173,JAY STREET,,,SCHENECTADY,NY,12305,0,POINT (-73.94102 42.81295)
Nassau,746184,Store,JAC,MUKTI 239 PETROLEUM INC,EXXON MOBIL,566,FULTON STREET,,,FARMINGDALE,NY,11735,0,POINT (-73.44831 40.72851)
Westchester,746170,Store,JAC,RALEO VALLEY INC,FRIENDS VALLEY BROOK MA,1053,MAIN STREET,,,PEEKSKILL,NY,10566,3950,POINT (-73.91765 41.29185)
Kings,746166,Store,JAC,EL NUEVO TAMARINDO DELI GROCERY C,EL NUEVO TAMARINDO DELI,1729,86TH STREET,,,BROOKLYN,NY,11214,1500,POINT (-74.00377 40.60794)
Ulster,746155,Store,JAC,MEAT THINGS INC,MEAT THINGS,636,BROADWAY,,,KINGSTON,NY,12401,1000,POINT (-74.00598 41.93009)
Bronx,746151,Store,A,DOLLAR ZONE OF BROADWAY LLC,ONE DOLLAR ZONE,5675,BROADWAY,,,BRONX,NY,10463,0,POINT (-73.90305 40.8814)
Westchester,746024,Store,JAC,MIKE SUSHI INC,MIKE SUSHI,777,WHITE PLAINS ROAD,,,SCARSDALE,NY,10583,100,POINT (-73.80426 40.97465)
Kings,745991,Store,JAC,MAMI ELIA AND FAMILY INC,ELIA'S GOURMET DELI,310,86TH STREET,,,BROOKLYN,NY,11209,1500,POINT (-74.03062 40.62336)
Bronx,745839,Store,JAC,MOLINA MINI MARKET CORP,MOLINA MINI MARKET,1266,GRAND CONCOURSE,,,BRONX,NY,10456,0,POINT (-73.91617 40.83586)
Kings,745820,Store,A,MAXIMUM DOLLAR INC,MAXIMUM DOLLAR,252,BROADWAY,,,BROOKLYN,NY,11211,3100,POINT (-73.95957 40.70902)
Kings,745747,Store,JAC,KF ENNIS 86 LLC,FOOD UNIVERSE MARKET PL,1982-84,86TH STREET,,,BROOKLYN,NY,11214,6500,POINT (-73.99842 40.60471)
Nassau,745720,Store,JAC,WA & NC INC,EDIBLE ARRANGEMENTS 313,958,BROADWAY,,,WOODMERE,NY,11598,800,POINT (-73.70821 40.63011)
Kings,745719,Store,JAC,GAJAE SUSHI INC,GAJAE SUSHI,11,BROADWAY,,,BROOKLYN,NY,11249,0,POINT (-73.96828 40.71079)
Richmond,745689,Store,JABC,BAGELS BREAD & BUTTER INC,BAGELS BREAD & BUTTER,732,FOREST AVENUE,,,STATEN ISLAND,NY,10310,2000,POINT (-74.11392 40.62909)
Bronx,745662,Store,A,RISAS TRADING CORP,RISAS BROADWAY DISCOUNT,5657A,BROADWAY,,,BRONX,NY,10463,1000,POINT (-73.90362 40.88066)
New York,745507,Store,JAC,FAMILIA FRUIT MARKET CORP,FAMILIA FRUIT MARKET,3430,BROADWAY,,,NEW YORK,NY,10031,1500,POINT (-73.95286 40.82296)
New York,745422,Store,JAC,PAQUTERIA TULCINGO DIAMINTE 2 INC,PAQUTERIA,3480,BROADWAY,,,NEW YORK,NY,10031,1800,POINT (-73.95162 40.82467)
Kings,745376,Store,JAC,LA IDEAL MEAT MARKET CORP,LA IDEAL MEAT MARKET,4805,5TH AVENUE,,,BROOKLYN,NY,11220,900,POINT (-74.00934 40.64604)
New York,745362,Store,A,HEIGHTS GROCERY INC,HEIGHTS GROCERY,3801,BROADWAY,,,NEW YORK,NY,10032,1800,POINT (-73.94432 40.83497)
Kings,745332,Store,JAC,7 ELEVEN INC,7-ELEVEN STORE #41120H,241,ATLANTIC AVENUE,,,BROOKLYN,NY,11201,0,POINT (-73.99136 40.68935)
Queens,745262,Store,JAC,BHAKTI 42 INC,BHAKTI 42,42-39,MAIN STREET,,,FLUSHING,NY,11355,0,POINT (-73.82777 40.75408)
Bronx,745003,Store,JAC,WESTERN BEEF RETAIL INC,WESTERN BEEF,3629,WHITE PLAINS ROAD,,,BRONX,NY,10467,20000,POINT (-73.86515 40.88017)
Kings,744996,Store,A,GANTT  SIMMIE,DELI & SMOKE SHOP,1922,FULTON STREET,,,BROOKLYN,NY,11233,1000,POINT (-73.92218 40.6789)
Kings,744976,Store,JAC,GOLDEN CITRUS MARKET INC,FLATBUSH MARKET,752,FLATBUSH AVENUE,,,BROOKLYN,NY,11226,0,POINT (-73.95964 40.65452)
Kings,744908,Store,JAC,MONTAUK DELI CORP,MONTAUK DELI,2552,PITKIN AVENUE,,,BROOKLYN,NY,11208,1500,POINT (-73.8782 40.67451)
Queens,744902,Store,JAC,30-14 KINSHIP COFFEE INC,KINSHIP COFFEE,30-14,BROADWAY,,,ASTORIA,NY,11106,0,POINT (-73.92563 40.7621)
Kings,744831,Store,JAC,LUCKY DELI GOURMET CORP,LUCKY DELI GOURMET,932,BROADWAY,,,BROOKLYN,NY,11206,2000,POINT (-73.93567 40.69723)
New York,744792,Store,JAC,AZIZ DELI CORP,AZIZ DELI,3448,BROADWAY,,,NEW YORK,NY,10031,1800,POINT (-73.95249 40.82345)
New York,744790,Store,JAC,BUTTERFIELD MARKET GROUP INC,BUTTERFIELD MARKET MADI,1150,MADISON AVENUE,,,NEW YORK,NY,10028,0,POINT (-73.95908 40.78049)
Bronx,744657,Store,JAC,MOMMY JAMAICAN MARKET 1 CORP,MOMMY JAMAICAN MARKET 1,3508,WHITE PLAINS ROAD,,,BRONX,NY,10467,2000,POINT (-73.86599 40.87767)
Queens,744649,Store,JAC,QUEENS FOOD MARKET INC,QUEENS FOOD MARKET,70-60,BROADWAY,,,JACKSON HEIGHTS,NY,11372,700,POINT (-73.89409 40.74784)
New York,744632,Store,JAC,JALAPENO DELI CORP,JALAPENO DELI,1629,LEXINGTON AVENUE,,,NEW YORK,NY,10029,1500,POINT (-73.94783 40.79012)
New York,744507,Store,JAC,J.W. TRADING INC,J.W. TRADING,205,GRAND STREET,,,NEW YORK,NY,10013,1800,POINT (-73.99635 40.719)
New York,744443,Store,A,BROADWAY FAMILY MARKET INC,BROADWAY FAMILY MARKET,2795,BROADWAY,,,NEW YORK,NY,10025,500,POINT (-73.96778 40.80285)
Bronx,744436,Store,JAC,RIG FISH MARKET CORP,RIG FISH MARKET,4164,WHITE PLAINS ROAD,,,BRONX,NY,10466,0,POINT (-73.85786 40.89252)
Kings,744370,Store,JAC,COLLADO MEAT MARKET INC,COLLADO MEAT MARKET,1274,BROADWAY,,,BROOKLYN,NY,11221,1300,POINT (-73.92473 40.69102)
New York,744367,Store,JAC,BROADWAY GOURMET DELI 1 CORP,BROADWAY GOURMET,3750,BROADWAY,,,NEW YORK,NY,10032,2000,POINT (-73.94533 40.83328)
Bronx,744326,Store,JAC,DBODEGA FOOD CORP,D'BODEGA FOOD,2236,GRAND CONCOURSE,,,BRONX,NY,10457,1234,POINT (-73.90046 40.85626)
Albany,744059,Store,JAC,MADISON DELI GROCERY INC,MADISON DELI GROCERY,130,MADISON AVENUE,,,ALBANY,NY,12202,0,POINT (-73.75588 42.64605)
Bronx,743914,Store,A,SPEEDX GROUP INC,LUK OIL,2173,GRAND CONCOURSE,,,BRONX,NY,10453,500,POINT (-73.90156 40.85524)
Suffolk,743888,Store,JAC,MONSUREZ GUERRERO INC,DULCEMANIA III,210,BROADWAY,,,AMITYVILLE,NY,11701,0,POINT (-73.41722 40.67954)
Kings,743882,Store,JAC,OCEAN EATS LLC,OCEAN EATS,2150,FULTON STREET,,,BROOKLYN,NY,11233,1000,POINT (-73.91098 40.6783)
Queens,743839,Store,JAC,REINA DE LA NUBE DELI GROCERY COR,REINA DE LA NUBE DELI G,109-20,JAMAICA AVENUE,,,RICHMOND HILL,NY,11418,0,POINT (-73.83821 40.69618)
Kings,743804,Store,JAC,WESAM DELI & GROCERY INC II,WESAM DELI & GROCERY,1117,BROADWAY,,,BROOKLYN,NY,11221,1200,POINT (-73.92959 40.69378)
New York,743768,Store,JAC,111 GOURMET DELI CORP,111 GOURMET DELI,1665,MADISON AVENUE,,,NEW YORK,NY,10029,0,POINT (-73.94725 40.7967)
Saratoga,743753,Store,A,JAM16 LLC,BEEF JERKY OUTLET,514,BROADWAY,,,SARATOGA SPRINGS,NY,12866,1500,POINT (-73.78424 43.08453)
Westchester,743722,Store,JAC,CHESTNUT MARTS INC,CHESTNUT MARTS,154,BROADWAY,,,HAWTHORNE,NY,10532,700,POINT (-73.80299 41.10751)
Kings,743662,Store,A,JO TRADING INC,JO TRADING,1245,BROADWAY,,,BROOKLYN,NY,11221,18000,POINT (-73.92537 40.69139)
New York,743583,Store,JAC,IT' SUGAR LLC,IT' SUGAR,665,BROADWAY,,,NEW YORK,NY,10012,0,POINT (-73.99525 40.72722)
Chemung,743534,Store,JAC,M P CLEARY INC,ACES & EIGHTS GEN STR N,1156,BROADWAY,,,ELMIRA,NY,14904,5000,POINT (-76.81959 42.05566)
Ulster,743497,Store,JAC,HUDSON VALLEY CURRENT INC,TILDA'S KITCHEN & CURRE,630,BROADWAY,,,KINGSTON,NY,12401,0,POINT (-74.00524 41.92981)
Kings,743494,Store,JAC,1291 FOOD CORP,FOOD TOWN,1291,BROADWAY,,,BROOKLYN,NY,11221,15000,POINT (-73.92444 40.69085)
Kings,743493,Store,JAC,EVERGREEN MOE INC,EVERGREEN MOE,1291,BROADWAY,,,BROOKLYN,NY,11221,0,POINT (-73.92444 40.69085)
New York,743396,Store,JAC,4138 BROADWAY FOOD LLC,FOOD EMPORIUM,4138,BROADWAY,,,NEW YORK,NY,10033,5000,POINT (-73.9385 40.84599)
Bronx,743367,Store,JAC,SAM 3 DELI GROCERY INC,SAM 3 DELI GROCERY,2039,GRAND CONCOURSE,,,BRONX,NY,10453,1000,POINT (-73.90401 40.85218)
New York,743304,Store,JAC,SUSHILUX CORP,SUSHILUX@FAIRWAY MKT,2131,BROADWAY,,,NEW YORK,NY,10023,0,POINT (-73.98148 40.78079)
Erie,743259,Store,JAC,GRK2 ENTERPRISES INC,SUNOCO A PLUS,13320,BROADWAY,,,ALDEN,NY,14004,2000,POINT (-78.49176 42.90051)
Bronx,743217,Store,A,GR 99 CENT OUTLOOK INC,GR 99 CENT OUTLOOK,2330,GRAND CONCOURSE,,,BRONX,NY,10458,1300,POINT (-73.89934 40.85815)
Bronx,743090,Store,JAC,930-CLARIBEL DELI INC,930-CLARIBEL DELI,6665,BROADWAY,,,BRONX,NY,10471,1000,POINT (-73.89661 40.9104)
Queens,743078,Store,JAC,STOP ONE FOOD MARKET 171 CORP,STOP ONE FOOD MARKET 17,171-03,JAMAICA AVENUE,,,JAMAICA,NY,11432,2200,POINT (-73.7885 40.70751)
Queens,743070,Store,JAC,LEES FAMILY FARM CORP,LEES FAMILY FARM,2901,BROADWAY,,,ASTORIA,NY,11106,0,POINT (-73.92687 40.76267)
Otsego,742977,Store,JAC,SINGH FUELS INC,APPLE EXPRESS,472,MAIN STREET,,,ONEONTA,NY,13820,2000,POINT (-75.04664 42.45712)
New York,742906,Store,JAC,VSM NY HOLDINGS LLC,FAIRWAY MARKET OF 74TH,2131,BROADWAY,,,NEW YORK,NY,10023,25000,POINT (-73.98148 40.78079)
Bronx,742787,Store,JAC,HOSTOS DELI & GROCERY CORP,HOSTOS DELI & GROCERY,430,GRAND CONCOURSE,,,BRONX,NY,10451,0,POINT (-73.92821 40.81652)
Kings,742770,Store,JAC,SHADIN BANGLA GROCERY INC,SHADIN BANGLA GROCERY,509,CORTELYOU ROAD,,,BROOKLYN,NY,11218,1000,POINT (-73.9742 40.6384)
New York,742768,Store,JAC,HB DELI GROCERY CORP,HB DELI GROCERY,3787A,BROADWAY,,,NEW YORK,NY,10032,1800,POINT (-73.94484 40.83427)
Kings,742703,Store,JABCH,LILY BLOOM 86 INC,LILY BLOOM 86,1476-1480,86TH STREET,,,BROOKLYN,NY,11228,9000,POINT (-74.00986 40.61163)
Kings,742689,Store,JAC,OLMECA DELI GROCERY CORP,OLMECA DELI GROCERY,3229,FULTON STREET,,,BROOKLYN,NY,11208,700,POINT (-73.87592 40.68258)
Bronx,742676,Store,JAC,ANTILLANA MARKET FRESH CORP,ANTILLANA MARKET FRESH,13,EAST TREMONT AVENUE,,,BRONX,NY,10453,0,POINT (-73.9087 40.8515)
Queens,742630,Store,JAC,HANS KF CORP,KEY FOOD,148-35,JAMAICA AVENUE,,,JAMAICA,NY,11435,0,POINT (-73.80584 40.70185)
New York,742588,Store,JAC,SILVER MOON DELI INC,SILVER MOON DELI,3840,BROADWAY,,,NEW YORK,NY,10032,1800,POINT (-73.94328 40.83608)
Queens,742566,Store,JABC,BARAKAT HALA MARKET INC,BARAKAT HALA MARKET,7309,MAIN STREET,,,FLUSHING,NY,11367,1750,POINT (-73.82051 40.72438)
Bronx,742477,Store,JAC,CITY LINE FRUIT STORE CORP,CITY LINE FRUIT STORE,4710,WHITE PLAINS ROAD,,,BRONX,NY,10470,1200,POINT (-73.84999 40.90386)
Queens,742470,Store,JAC,MEGALANE FOOD CORP,FOOD EMPORIUM,2910,BROADWAY,,,ASTORIA,NY,11106,0,POINT (-73.92669 40.76258)
Kings,742428,Store,JAC,BROADWAY BIG APPLE DELI CORP,BROADWAY BIG APPLE DELI,1076,BROADWAY,,,BROOKLYN,NY,11221,0,POINT (-73.93099 40.6946)
Queens,742214,Store,JAC,NEW FAMILY FRESH MARKET CORP,NEW FAMILY FRESH MARKET,97-13,37TH AVENUE,,,CORONA,NY,11368,2500,POINT (-73.86945 40.75193)
New York,742083,Store,JAC,2755 DELI CORP,SIX CORNERS MARKETPLACE,2753-2755,BROADWAY,,,NEW YORK,NY,10025,1000,POINT (-73.96802 40.80117)
Kings,742010,Store,JAC,PANE CALDO INC,LE FRENCH TART DELI,306,COURT STREET,,,BROOKLYN,NY,11231,800,POINT (-73.99527 40.68363)
New York,741992,Store,JAC,NY OLIVES DELI AND GRILL INC,NY OLIVES DELI AND GRIL,4183,BROADWAY,,,NEW YORK,NY,10033,0,POINT (-73.93798 40.84772)
Bronx,741872,Store,A,TWIN 99CENTER VARIETY CORP,TWIN 99CENTER VARIETY,4738,WHITE PLAINS ROAD,,,BRONX,NY,10470,1000,POINT (-73.84973 40.9044)
New York,741820,Store,JAC,1424 LEXINGTON AVENUE FOOD CORP,EASTSIDE DELI,1424,LEXINGTON AVENUE,,,NEW YORK,NY,10128,0,POINT (-73.95225 40.78406)
Kings,741811,Store,JAC,2869 MEAT & PRODUCE CORP,C-TOWN SUPERMARKET,2869,FULTON STREET,,,BROOKLYN,NY,11207,5000,POINT (-73.88842 40.67876)
Queens,741688,Store,JAC,JASMINE DELI & GROCERY INC,JASMINE DELI & GROCERY,163-02,HILLSIDE AVENUE,,,JAMAICA,NY,11432,2000,POINT (-73.79915 40.70873)
New York,741584,Store,A,NEW DELI 1 CORP,NEW DELI,3660,BROADWAY,,,NEW YORK,NY,10031,2000,POINT (-73.94745 40.83038)
Queens,741562,Store,JAC,DON GABRIEL CORP,DON GABRIEL,42-05,BROADWAY,,,ASTORIA,NY,11103,900,POINT (-73.91715 40.75811)
Dutchess,741540,Store,JAC,TIVOLI GENERAL LLC,OPEN SECRET BAKERY,63,BROADWAY,,,TIVOLI,NY,12583,1300,POINT (-73.90983 42.05879)
Bronx,741497,Store,A,241 DELI GROCERY CORP,241 DELI GROCERY,4655,WHITE PLAINS ROAD,,,BRONX,NY,10470,450,POINT (-73.85055 40.90325)
New York,741447,Store,JAC,3805 FRESH MARKET CORP,MET FRESH ORGANIC SUPER,3805,BROADWAY,,,NEW YORK,NY,10032,0,POINT (-73.94432 40.83498)
Queens,741442,Store,JAC,LUPE & FEDERICO FOOD CORP,FINE FARE SUPERMARKET,90-01,JAMAICA AVENUE,,,WOODHAVEN,NY,11421,0,POINT (-73.8545 40.69286)
Queens,741400,Store,JAC,ORGANIC TOWN DELI AND GRILL INC,ORGANIC TOWN DELI AND G,5543,MYRTLE AVENUE,,,RIDGEWOOD,NY,11385,2500,POINT (-73.90694 40.70005)
Bronx,741390,Store,JAC,2285 GROCERY & FOOD CORP/ANTILLAN,ANTILLANA SUPERFOOD MAR,2285,GRAND CONCOURSE,,,BRONX,NY,10453,7000,POINT (-73.9003 40.85719)
Bronx,741363,Store,JAC,RSJ DELI GROCERY CORP,RSJ DELI GROCERY,109,EAST TREMONT AVENUE,,,BRONX,NY,10453,0,POINT (-73.90732 40.85065)
Suffolk,741333,Store,JAC,REEL KITCHEN INC,REEL KITCHEN,112A,MAIN STREET,,,KINGS PARK,NY,11754,0,POINT (-73.2576 40.88622)
Westchester,741323,Store,JAC,VPM ACQUISITION CO LLC,VILLAGE PRIME MEATS OF,475,MAIN STREET,,,ARMONK,NY,10504,1500,POINT (-73.71334 41.12863)
Queens,741311,Store,JAC,HILLSIDE HAAT BAZAAR INC,BISMILLAH SUPERMARKET,181-06,HILLSIDE AVENUE,,,JAMAICA,NY,11432,3200,POINT (-73.78149 40.71324)
Bronx,741308,Store,JAC,MAREA FISH MARKET INC,MAREA FISH MARKET,5219,BROADWAY,,,BRONX,NY,10463,0,POINT (-73.90934 40.87488)
Queens,741212,Store,JAC,BROADWAY GROCERY STORE INC,BROADWAY GROCERY STORE,8321,BROADWAY,,,ELMHURST,NY,11373,700,POINT (-73.87943 40.74069)
New York,741124,Store,JAC,FAR EAST ASIA MARKET LLC,FAR EAST ASIA MARKET,115,DELANCEY STREET,,,NEW YORK,NY,10002,0,POINT (-73.98799 40.71839)
Queens,741113,Store,JAC,PREMIUM OF BELLEROSE LLC,PREMIUM SUPERMARKET,256-11,HILLSIDE AVENUE,,,GLEN OAKS,NY,11004,0,POINT (-73.71139 40.73666)
Bronx,741091,Store,JABK,CIBAO BAKERY CORP,CIBAO BAKERY,2546B,WHITE PLAINS ROAD,,,BRONX,NY,10467,1000,POINT (-73.86739 40.86462)
Kings,741040,Store,JAC,DELI BROTHERS GROCERY INC,DELI BROTHERS GROCERY,905,BROADWAY,,,BROOKLYN,NY,11206,1000,POINT (-73.93663 40.69776)
Washington,740970,Store,A,DOLGEN NEW YORK LLC,DOLLAR GENERAL STORE #2,290,BROADWAY,,,FORT EDWARD,NY,12828,0,POINT (-73.58639 43.27917)
Bronx,740923,Store,JAC,FATBOY MARKET AND DELI INC,FATBOY MARKET AND DELI,3200,WHITE PLAINS ROAD,,,BRONX,NY,10467,1200,POINT (-73.86715 40.87167)
Bronx,740891,Store,JAC,POWER MART INC,POWER MART,3925,WHITE PLAINS ROAD,,,BRONX,NY,10466,800,POINT (-73.86123 40.88649)
Bronx,740870,Store,JAC,056 DELI & GROCERY CORP,056 DELI & GROCERY,2075,GRAND CONCOURSE,,,BRONX,NY,10453,0,POINT (-73.90299 40.85346)
Kings,740834,Store,JAC,R&G SEAFOOD CORP,R&G SEAFOOD,1551,BROADWAY,,,BROOKLYN,NY,11221,800,POINT (-73.91618 40.68613)
Dutchess,740815,Store,JACH,HUDSON VALLEY MARSHMALLOW CO LLC,HUDSON VALLEY MARSHMALL,510,MAIN STREET,,,BEACON,NY,12508,1100,POINT (-73.9633 41.50229)
Suffolk,740793,Store,JAC,ROLLS ROLLS INC,ROLLS ROLLS,205,WALL STREET,,,HUNTINGTON,NY,11743,0,POINT (-73.4254 40.87814)
Bronx,740698,Store,JAC,LAYAN INC,BROADWAY 1,5985,BROADWAY,,,BRONX,NY,10471,350,POINT (-73.89812 40.88992)
Orange,740684,Store,JAC,MAKI MARKET INC,MAKI MARKET,188,BROADWAY,,,NEWBURGH,NY,12550,2000,POINT (-74.01575 41.50033)
Westchester,740547,Store,JAC,I & J FRESH MARKET CORP,I & J FRESH MARKET,364,WASHINGTON STREET,,,PEEKSKILL,NY,10566,4000,POINT (-73.92575 41.28333)
Kings,740524,Store,JAC,SUPER GOURMET DELI INC,SUPER GOURMET DELI,7223,5TH AVENUE,,,BROOKLYN,NY,11209,1500,POINT (-74.02199 40.63107)
Queens,740513,Store,JAC,A&D MEXICAN DELI GROCERY CORP,A&D MEXICAN DELI GROCER,63-06,BROADWAY,,,WOODSIDE,NY,11377,0,POINT (-73.89894 40.7499)
New York,740501,Store,JAC,AMAZON RETAIL LLC,AMAZON GO,165,BROADWAY,,,NEW YORK,NY,10006,2780,POINT (-74.01025 40.70948)
Orange,740470,Store,JAC,MOZEB ASHRAF,MANHATTAN DELI,212,BROADWAY,,,NEWBURGH,NY,12550,0,POINT (-74.01692 41.50041)
New York,740408,Store,JAC,BROOKLYN DELI AND GRILL ORGANIC H,BROOKLYN DELI AND GRILL,4996,BROADWAY,,,NEW YORK,NY,10034,0,POINT (-73.91865 40.86843)
Queens,740368,Store,JAC,GAZALI EXPRESS GRILL & DELI CORP,GAZALI EXPRESS GRILL &,19-09,MOTT AVENUE,,,FAR ROCKAWAY,NY,11691,2500,POINT (-73.75195 40.60372)
Bronx,740361,Store,JAC,WHITE PLAINS GOOD FARM INC,WHITE PLAINS GOOD FARM,3754,WHITE PLAINS ROAD,,,BRONX,NY,10467,1300,POINT (-73.86308 40.88306)
New York,740337,Store,A,TARGET CORPORATION,TARGET STORE T-3334,1865,BROADWAY,,,NEW YORK,NY,10023,0,POINT (-73.98224 40.77022)
Bronx,740332,Store,JAC,GREEN GARDEN HEALTH FOOD STORE LL,GREEN GARDEN HEALTH FOO,3543,WHITE PLAINS ROAD,,,BRONX,NY,10467,2500,POINT (-73.86596 40.87858)
Queens,740315,Store,JAC,FRESH POND GOURMET DELI CORP,FRESH POND GOURMET DELI,6620,FRESH POND ROAD,,,RIDGEWOOD,NY,11385,12000,POINT (-73.89809 40.70853)
New York,740310,Store,JAC,SAMI DELI GROCERY & HALAL MEAT MA,SAMI DELI GROCERY & HAL,1630,MADISON AVENUE,,,NEW YORK,NY,10029,0,POINT (-73.94817 40.79545)
New York,740284,Store,JAC,SUSHILUX CORP,SUSHILUX (INSIDE GOURME,366,BROADWAY,,,NEW YORK,NY,10013,500,POINT (-74.00341 40.71755)
Bronx,740209,Store,A,FOREVER YOUNG HEALTH FOOD LLC,FOREVER YOUNG,2391,GRAND CONCOURSE,,,BRONX,NY,10468,700,POINT (-73.89872 40.85988)
Columbia,740207,Store,JAC,JERSEY BAKING LLC,FILLIS DELI & BAKERY,3019,MAIN STREET,,,VALATIE,NY,12184,1930,POINT (-73.67729 42.41338)
Delaware,740202,Store,JAC,EDKINS KELLEY,HONEY BEE HERBS,785,MAIN STREET,,,MARGARETVILLE,NY,12455,1200,POINT (-74.64826 42.14851)
Ulster,740146,Store,JAC,PINE ISLAND HOLDINGS LLC,PINE ISLAND HOLDINGS,131,MAIN STREET,,,NEW PALTZ,NY,12561,2000,POINT (-74.08296 41.74776)
Kings,740132,Store,JAC,TRIO FOOD MARKET INC,TRIO FOOD MARKET,443,KINGS HIGHWAY,,,BROOKLYN,NY,11223,0,POINT (-73.97359 40.60433)
Kings,740126,Store,JAC,SUPER FOOD INC,SUPER FOOD,1314,KINGS HIGHWAY,,,BROOKLYN,NY,11229,2500,POINT (-73.95953 40.60822)
Orange,740098,Store,JAC,BROADWAY GARDEN MART LLC,BROADWAY GARDEN MART,151,BROADWAY,,,NEWBURGH,NY,12550,0,POINT (-74.01379 41.50019)
Ulster,740089,Store,JAC,186 MAIN LLC,DELI/CONVENIENCE STORE,186,MAIN STREET,,,NEW PALTZ,NY,12561,4200,POINT (-74.07834 41.74607)
New York,740055,Store,JAC,J 2 GAO INC,JZ GAO,28,FORSYTH STREET,,,NEW YORK,NY,10002,0,POINT (-73.99445 40.71529)
Kings,740039,Store,JAC,URBAN NATURAL VALLEY MARKET INC,URBAN NATURAL VALLEY MA,1725,BROADWAY,,,BROOKLYN,NY,11207,2000,POINT (-73.9112 40.6833)
New York,740014,Store,JAC,NY HARVEST TRADING INC,EVERFRESH SUSHI,2840,BROADWAY,,,NEW YORK,NY,10025,0,POINT (-73.96637 40.80445)
New York,739972,Store,A,TRADER JOES EAST INC,TRADER JOES #546,436,EAST 14TH STREET,,,NEW YORK,NY,10009,16000,POINT (-73.98096 40.73066)
Richmond,739920,Store,JAC,M & N DELI OF SI INC,M & N DELI OF SI,1346,FOREST AVENUE,,,STATEN ISLAND,NY,10302,2000,POINT (-74.13453 40.62589)
Richmond,739874,Store,JAC,POLISH-EUROPEAN AMERICAN DELI ME,POLISH-EUROPEAN AMERICA,1214,FOREST AVENUE,,,STATEN ISLAND,NY,10310,1200,POINT (-74.13036 40.62639)
Suffolk,739863,Store,JAC,STONY BROOK  CHOCOLATE  LLC,CHOCOLATE WORKS,143,MAIN STREET,,,STONY BROOK,NY,11790,1200,POINT (-73.1473 40.91669)
Nassau,739855,Store,JAC,DOLCE CONFECTIONS INC,DOLCE CONFECTIONS,1319,BROADWAY,,,HEWLETT,NY,11557,2200,POINT (-73.70006 40.63907)
Albany,739839,Store,JAC,GONUR TRAVEL CORP,ISTANBUL INTL MARKET,100,BROADWAY,,,ALBANY,NY,12204,1000,POINT (-73.73189 42.68292)
Kings,739765,Store,JAC,KISNA ENTERPRISES INC,BABAS DELI,599,5TH AVENUE,,,BROOKLYN,NY,11215,1800,POINT (-73.99036 40.66431)
Kings,739725,Store,JAC,728 MEAT MARKET CORP,SAGAL MEAT,728,BROADWAY,,,BROOKLYN,NY,11206,2000,POINT (-73.94254 40.70111)
Queens,739703,Store,JAC,DIAZ GROCERY OF NY INC,DIAZ GROCERY OF NY,106-15,JAMAICA AVENUE,,,RICHMOND HILL,NY,11418,1500,POINT (-73.84059 40.69536)
New York,739696,Store,JAC,ANTILLANA SUPERFOOD MEAT CORP,ANTILLANA SUPERFOOD MAR,3900,BROADWAY,,,NEW YORK,NY,10032,0,POINT (-73.9419 40.83796)
New York,739644,Store,A,HAFEEZ CANDY GROCERY INC,HAFEEZ CANDY STORE,3895,BROADWAY,,,NEW YORK,NY,10032,1000,POINT (-73.94234 40.83767)
Kings,739624,Store,JAC,WILLY DELI GROCERY CORP,WILLY DELI GROCERY,506,COURT STREET,,,BROOKLYN,NY,11231,1500,POINT (-73.99868 40.67658)
Schenectady,739608,Store,A,FLYCITY SMOKESHOP INC,FLYCITY SMOKESHOP,2230,BROADWAY,,,SCHENECTADY,NY,12306,1000,POINT (-73.96889 42.79641)
New York,739576,Store,A,CVS ALBANY LLC,CVS/PHARMACY #11059,1619,BROADWAY,,,NEW YORK,NY,10019,0,POINT (-73.98432 40.76102)
Kings,739574,Store,A,DOLLAR TREE STORES INC,DOLLAR TREE #07595,2612,PITKIN AVENUE,,,BROOKLYN,NY,11208,0,POINT (-73.87557 40.67489)
Suffolk,739533,Store,JAC,66 CONVENIENCE CORP,66 CONVENIENCE,66,BROADWAY,,,GREENLAWN,NY,11740,1500,POINT (-73.36499 40.86888)
Queens,739459,Store,JAC,26-20 JACKSON AVENUE CORP,POM'S GOURMET MARKET,26-20,JACKSON AVENUE,,,LONG ISLAND CITY,NY,11101,2500,POINT (-73.9416 40.74739)
Bronx,739456,Store,JAC,GOLDEN STAR GOURMET CORP,GOLDEN STAR GOURMET,3511,EAST TREMONT AVENUE,,,BRONX,NY,10465,500,POINT (-73.8264 40.8309)
New York,739423,Store,JAC,VSM GOURMET LLC,GOURMET GARAGE,366,BROADWAY,,,NEW YORK,NY,10013,12000,POINT (-74.00341 40.71755)
Dutchess,739327,Store,JAC,LANA MAIN STOP DELI LLC,LANA MAIN STOP DELI,551,MAIN STREET,,,POUGHKEEPSIE,NY,12601,0,POINT (-73.91596 41.69991)
Suffolk,739301,Store,JAC,MI CAMPO DELI CORP,MI CAMPO DELI,1389,FIFTH AVENUE,,,BAY SHORE,NY,11706,0,POINT (-73.26328 40.74097)
New York,739284,Store,A,DRINK RECESS INC,DRINK RECESS,680,BROADWAY,,,NEW YORK,NY,10012,1800,POINT (-73.99489 40.72765)
Kings,739263,Store,A,DODABIKO INC,BABY CITY,6729,5TH AVENUE,,,BROOKLYN,NY,11220,1800,POINT (-74.02046 40.6348)
Kings,739214,Store,JAC,ECONOMIC FOOD MARKET CORP,ECONOMIC FOOD MARKET,9424,KINGS HIGHWAY,,,BROOKLYN,NY,11212,2000,POINT (-73.92048 40.65848)
New York,739193,Store,JAC,NY HARVEST TRADING INC,EVERFRESH SUSHI- WESTSI,2589,BROADWAY,,,NEW YORK,NY,10025,0,POINT (-73.97108 40.79577)
Onondaga,739176,Store,JAC,ROLL WITH IT LLC,FABIUS COUNTRY STORE,7861,MAIN STREET,,,FABIUS,NY,13063,1500,POINT (-75.98246 42.83531)
Ulster,739165,Store,A,DOLGEN NEW YORK LLC,DOLLAR GENERAL STORE #2,1162,BROADWAY,,,ESOPUS,NY,12429,0,POINT (-73.96655 41.82601)
Ulster,739096,Store,A,SALIX ALBA LLC,SASSAFRAS MERCANTILE,37,BROADWAY,,,KINGSTON,NY,12401,600,POINT (-73.98364 41.91903)
Dutchess,739094,Store,A,WASSAIC COMMONS LLC,WASSAIC COMMONS,3,MAIN STREET,,,WASSAIC,NY,12592,0,POINT (-73.5595 41.80414)
Ulster,739078,Store,JAC,GRACE PETROL INC,NEW PALTZ SUNOCO A PLUS,270,MAIN STREET,,,NEW PALTZ,NY,12561,1700,POINT (-74.06767 41.74196)
Queens,739075,Store,JAC,STOP ONE GOURMET DELI INC,STOP ONE GOURMET DELI,109-14,MERRICK BOULEVARD,,,JAMAICA,NY,11433,1250,POINT (-73.78398 40.69687)
Queens,739070,Store,JAC,LUGO MIGUEL&MEREJO EULOGIO,QUISQUEYA GROCERY,94-27,37TH AVENUE,,,JACKSON HEIGHTS,NY,11372,0,POINT (-73.87269 40.751)
Albany,739058,Store,JAC,SHREEJA INC,SHREEJA,616,BROADWAY,,,WATERVLIET,NY,12189,0,POINT (-73.70512 42.71275)
Monroe,739011,Store,JAC,CALABRESELLA ON PARK INC,CALABRESELLA ON PARK,210,PARK AVENUE,,,ROCHESTER,NY,14607,0,POINT (-77.59007 43.15061)
Kings,739004,Store,JAC,EL DESECHO DELI GROCERY CORP,EL DESECHO DELI GROCERY,1874,FULTON STREET,,,BROOKLYN,NY,11233,0,POINT (-73.92441 40.67902)
Chemung,738961,Store,JAC,403 SOUTHSIDE DELI AND GROCERY IN,403 SOUTHSIDE DELI AND,403,BROADWAY,,,ELMIRA,NY,14904,0,POINT (-76.81156 42.07754)
Kings,738920,Store,JABCH,CORTELYOU CAFE CORP,CONECTICUT MUFFIN,1106,CORTELYOU ROAD,,,BROOKLYN,NY,11218,0,POINT (-73.96771 40.63974)
New York,738904,Store,JAC,1902 NEW WAY GOURMET DELI INC,1902 NEW WAY GOURMET DE,1902,7TH AVENUE,,,NEW YORK,NY,10026,1300,POINT (-73.95297 40.80273)
Queens,738893,Store,JAC,ABC MEAT CORP,KEY FOOD # 2468,90-28,JAMAICA AVENUE,,,WOODHAVEN,NY,11421,7500,POINT (-73.85386 40.69304)
New York,738886,Store,JAC,YUMMY FOODS CENTER CORP,YUMMY FOODS CENTER,2240,7TH AVENUE,,,NEW YORK,NY,10027,1000,POINT (-73.94527 40.81332)
Queens,738880,Store,JAC,FRESH POND FARM MARKET INC,FRESH POND FARM MARKET,6638,FRESH POND ROAD,,,RIDGEWOOD,NY,11385,4000,POINT (-73.89767 40.70793)
Ulster,738807,Store,JAC,BARAHONA A RIGORBERTO,DONA MAITE STORE,688,BROADWAY,,,KINGSTON,NY,12401,1200,POINT (-74.00813 41.93091)
Queens,738805,Store,JABC,SSNS EXPRESS LLC,SEASONS,68-18,MAIN STREET,,,FLUSHING,NY,11367,10000,POINT (-73.82497 40.73246)
New York,738801,Store,JAC,PITAYAS FRUIT MARKET INC,PITAYAS FRUIT MARKET,4329,BROADWAY,,,NEW YORK,NY,10033,6000,POINT (-73.93454 40.85252)
Suffolk,738794,Store,JAC,PUPUSSAS OLOCUILTA DELI INC,PUPUSSAS OLOCUILTA DELI,1585,5TH AVENUE,,,BAY SHORE,NY,11706,1200,POINT (-73.26207 40.75527)
Bronx,738787,Store,JAC,SALAH MARKET CORP,SALAH MARKET,700A,GRAND CONCOURSE,,,BRONX,NY,10451,750,POINT (-73.92512 40.82195)
Kings,738744,Store,JAC,PERALTA MINI MARKET CORP,PERALTA MINI MARKET,3210,FULTON STREET,,,BROOKLYN,NY,11208,2200,POINT (-73.87649 40.68241)
Kings,738742,Store,JAC,GOURMET FRESH 2 LLC,GOURMET FRESH 2,530,86TH STREET,,,BROOKLYN,NY,11209,8000,POINT (-74.02522 40.62088)
Schenectady,738700,Store,A,DOLGEN NEW YORK LLC,DOLLAR GENERAL #8749,2001,BROADWAY,,,SCHENECTADY,NY,12306,5000,POINT (-73.96487 42.7984)
New York,738688,Store,JAC,3872 ENG DELI GROCERY LLC,3872 ENG DELI,3872,BROADWAY,,,NEW YORK,NY,10032,2000,POINT (-73.94265 40.83693)
Kings,738651,Store,JAC,CHIEFS BAKEWEL CORP,CHIEFS BAKEWEL,3244,FULTON STREET,,,BROOKLYN,NY,11208,0,POINT (-73.87552 40.68269)
Bronx,738591,Store,JAC,2193 DELI GROCERY MARKET INC,2193 DELI GROCERY MARKE,2193,GRAND CONCOURSE,,,BRONX,NY,10453,0,POINT (-73.90116 40.8558)
Kings,738590,Store,JAC,TACOS CALIFORNIA 1 MEXICAN RESTAU,MEXICAN DELI,6114,5TH AVENUE,,,BROOKLYN,NY,11220,0,POINT (-74.01708 40.63859)
Queens,738566,Store,A,K & F DRUG CORP,STARSIDE DRUGS,41-16,MAIN STREET,,,FLUSHING,NY,11355,15000,POINT (-73.8292 40.75764)
New York,738538,Store,JAC,MS ONE FISH MARKET INC,MS ONE FISH MARKET,2780,BROADWAY,,,NEW YORK,NY,10025,200,POINT (-73.96765 40.80236)
Nassau,738501,Store,JAC,FANTINO DELI GROCERY CORP,FANTINO DELI GROCERY 04,149,MAIN STREET,,,HEMPSTEAD,NY,11550,0,POINT (-73.62611 40.71151)
Kings,738494,Store,JAC,BAY RIDGE KINGS MARKET INC,BAY RIDGE KINGS MARKET,8118,5TH AVENUE,,,BROOKLYN,NY,11209,1000,POINT (-74.02463 40.62463)
New York,738439,Store,JAC,SMS CS LLC,7 ELEVEN STORE #35702C,813,BROADWAY,,,NEW YORK,NY,10003,1800,POINT (-73.99116 40.73294)
Kings,738400,Store,JAC,RIWEI MINI MARKET INC,RIWEI MINI MARKET,6418,7TH AVENUE,,,BROOKLYN,NY,11220,2000,POINT (-73.97493 40.67526)
Westchester,738363,Store,JAC,PORTABLE CHEF LLC,PORTABLE CHEF,1698,MAIN STREET,,,PEEKSKILL,NY,10566,3500,POINT (-73.90722 41.29375)
Kings,738362,Store,A,A&J GROCERY INC,A&J GROCERY,1910,86TH STREET,,,BROOKLYN,NY,11214,0,POINT (-74.00009 40.60571)
Bronx,738325,Store,JAC,BM SEAFOOD INC,BM SEAFOOD,3535,WHITE PLAINS ROAD,,,BRONX,NY,10467,500,POINT (-73.86611 40.87845)
Kings,738316,Store,JAC,BROS BEST PRODUCE CORP,BROS BEST PRODUCE,7808,5TH AVENUE,,,BROOKLYN,NY,11209,1400,POINT (-74.02363 40.62706)
Kings,738311,Store,JAC,BAMA FOOD CORP,BRAVO SUPERMARKET,785,GRAND STREET,,,BROOKLYN,NY,11211,0,POINT (-73.94171 40.71183)
Kings,738262,Store,JAC,COSTA DEL SUR DELI CORP,COSTA DEL SUR DELI,2952,FULTON STREET,,,BROOKLYN,NY,11207,800,POINT (-73.88586 40.67957)
New York,738258,Store,JAC,1411 SAVORY DELI CORP,1411 SAVORY DELI,1411,5TH AVENUE,,,NEW YORK,NY,10029,0,POINT (-73.94666 40.80039)
Suffolk,738110,Store,A,KARAMELA INC,PREMIERE PASTRY SHOP,117,MAIN STREET,,,STONY BROOK,NY,11790,1000,POINT (-73.1472 40.91634)
Kings,738007,Store,JAC,METRO & GRAHAM LLC,WHOLESOME BASKET,344,GRAHAM AVENUE,,,BROOKLYN,NY,11211,1000,POINT (-73.94441 40.71469)
New York,737994,Store,A,BEST CANDY STORE INC,BEST CANDY STORE,3430,BROADWAY,,,NEW YORK,NY,10031,0,POINT (-73.95286 40.82296)
Kings,737986,Store,JAC,YH FISH HOOK INC,YH FISH HOOK,359,COURT STREET,,,BROOKLYN,NY,11231,2100,POINT (-73.99612 40.68187)
Bronx,737958,Store,JAC,EL TROPICO GROCERY DELI CORP,EL TROPICO GROCERY DELI,1841,GRAND CONCOURSE,,,BRONX,NY,10453,0,POINT (-73.90747 40.84812)
Kings,737917,Store,JAC,SANCHEZ DELI & FRUIT STORE CORP,SANCHEZ DELI & FRUIT ST,816,BROADWAY,,,BROOKLYN,NY,11206,250,POINT (-73.93963 40.69946)
Kings,737893,Store,JAC,MI PARCELA FRUITS & VEGS CORP,MI PARCELA FRUITS & VEG,3400,FULTON STREET,,,BROOKLYN,NY,11208,1200,POINT (-73.87011 40.68423)
Madison,737880,Store,JAC,FAMCO CONVENIENT STORES,FAMCO 5,5261,MAIN STREET,,,MUNNSVILLE,NY,13409,2500,POINT (-75.58904 42.97697)
New York,737852,Store,JAC,523 DELI & GRILL CORP,523 DELI & GRILL,523,GRAND STREET,,,NEW YORK,NY,10002,2000,POINT (-73.9817 40.71447)
Bronx,737822,Store,JAC,ZIADI BROTHERS DELI & GRILL LLC,ZIADI BROTHERS DELI & G,2326,GRAND CONCOURSE,,,BRONX,NY,10458,1000,POINT (-73.89942 40.85801)
Kings,737777,Store,JAC,BROOKLYN WHISKERS BAKERY LLC,BROOKLYN WHISKERS,1037,BROADWAY,,,BROOKLYN,NY,11221,0,POINT (-73.93226 40.6953)
Suffolk,737691,Store,JAC,SUSTENANCE LLC,CHEESE SHOPPE,11,MAIN STREET,,,SOUTHAMPTON,NY,11968,3000,POINT (-72.38945 40.88459)
New York,737650,Store,JAC,BEN MEAT MARKET INC,BEN MEAT MARKET,288,GRAND STREET,,,NEW YORK,NY,10002,1800,POINT (-73.99235 40.7177)
New York,737629,Store,A,WEJDAN CANDY & GROCERY INC,WEJDAN CANDY & GROCERY,3890,BROADWAY,,,NEW YORK,NY,10032,1600,POINT (-73.94219 40.83757)
New York,737616,Store,JAC,GENTILES FINE FOODS SINCE 1927 IN,GENTILES FINE FOODS,1118,MADISON AVENUE,,,NEW YORK,NY,10028,1800,POINT (-73.96001 40.77921)
New York,737593,Store,JAC,QMART GROCERY INC,QMART GROCERY,4311,BROADWAY,,,NEW YORK,NY,10033,0,POINT (-73.93485 40.85194)
Bronx,737492,Store,JAC,MILO FISH & VEGETABLES CORP,MILO FISH & VEGETABLES,3618,WHITE PLAINS ROAD,,,BRONX,NY,10467,0,POINT (-73.8649 40.87967)
Queens,737472,Store,JAC,RI SHENG GROCERY INC,RI SHENG GROCERY,60-02,MAIN STREET,,,FLUSHING,NY,11355,1000,POINT (-73.82554 40.74307)
Queens,737366,Store,JAC,MAMAS HALAL MEAT & FISH INC,MAMAS HALAL MEAT & FISH,72-20,37TH AVENUE,,,JACKSON HEIGHTS,NY,11372,0,POINT (-73.89301 40.74883)
Queens,737315,Store,JAC,BPP PARKER TOWER PROPERTY OWNER L,PARKER PANTRY,104-20,QUEENS BOULEVARD,,,FOREST HILLS,NY,11375,0,POINT (-73.84917 40.72366)
Kings,737293,Store,A,MEDCARE HEALTH INC,MEDCARE PHARMACY,260,KINGS HIGHWAY,,,BROOKLYN,NY,11223,1200,POINT (-73.98091 40.60526)
Kings,737215,Store,JAC,AAYM  CORP,GREEK  BAKALIKO,7615,5TH AVENUE,,,BROOKLYN,NY,11209,1000,POINT (-74.02314 40.62827)
Kings,737191,Store,JAC,ROYAL DELI 1 CORP,ROYAL DELI 1,2059,FULTON STREET,,,BROOKLYN,NY,11233,1200,POINT (-73.9107 40.67828)
Kings,737173,Store,JAC,DEMU FISH & MEAT LLC,DEMU FISH & MEAT,763,FULTON STREET,,,BROOKLYN,NY,11217,3000,POINT (-73.97417 40.68617)
Queens,737101,Store,A,NEW PARADISE GROCERY INC,NEW PARADISE GROCERY,81-38,BROADWAY,,,ELMHURST,NY,11373,1000,POINT (-73.88302 40.743)
Queens,737077,Store,JAC,MARUTINANDAN 77 CORP,CORNER 77 DELI,76-17,BROADWAY,,,ELMHURST,NY,11373,1500,POINT (-73.88897 40.74564)
Livingston,737072,Store,JAC,ALI CHAUDHARY B,DANSVILLE EXPRESS MART,119,MAIN STREET,,,DANSVILLE,NY,14437,2300,POINT (-77.69443 42.55906)
New York,737036,Store,JAC,VILLA TRINA MEAT MARKET INC,VILLA TRINA MEAT MARKET,4077,BROADWAY,,,NEW YORK,NY,10032,2000,POINT (-73.93906 40.84377)
Ulster,737016,Store,JAC,NAVJOT MART INC,FOOD MART,675,BROADWAY,,,KINGSTON,NY,12401,1500,POINT (-74.00761 41.93068)
Bronx,737009,Store,JAC,390 JACKSON DELI GROCERY CORP,390 JACKSON DELI GROCER,390,JACKSON AVENUE,,,BRONX,NY,10454,0,POINT (-73.91063 40.80894)
Kings,736875,Store,JAC,JAY STREET FOOD CORP,WHOLESOME FARMS MARKET,108,JAY STREET,,,BROOKLYN,NY,11201,2900,POINT (-73.98675 40.70164)
Bronx,736870,Store,JAC,MOON LIGHT AFRICAN MARKET INC,MOON LIGHT AFRICAN MARK,3648,WHITE PLAINS ROAD,,,BRONX,NY,10467,1000,POINT (-73.86458 40.88034)
Livingston,736806,Store,A,HEMLOCK'S FARM AND GARDEN INC,HEMLOCK'S FARM AND GARD,4638,MAIN STREET,,,HEMLOCK,NY,14466,1000,POINT (-77.60728 42.79542)
Kings,736789,Store,JAC,LA SIRENA SUPERMARKET INC,LA SIRENA SUPERMARKET,3334,FULTON STREET,,,BROOKLYN,NY,11208,0,POINT (-73.8726 40.68352)
Kings,736776,Store,JAC,PROSPECT PARK SOUTH DELI GROCERY,PROSPECT PARK SOUTH DEL,1201,CHURCH AVENUE,,,BROOKLYN,NY,11218,800,POINT (-73.96824 40.6474)
Kings,736757,Store,JAC,BAY GOURMET CORP,BAY GOURMET,2279,86TH STREET,,,BROOKLYN,NY,11214,1500,POINT (-73.99182 40.60069)
Queens,736732,Store,JAC,ELZAHRAA CANDY STORE INC,ELZAHRAA CANDY STORE,24-31,STEINWAY STREET,,,ASTORIA,NY,11103,1000,POINT (-73.91144 40.76825)
Kings,736723,Store,JAC,SANTY & L GROCERY CORP,SANTY & L GROCERY,3397,FULTON STREET,,,BROOKLYN,NY,11208,0,POINT (-73.87013 40.68422)
Kings,736665,Store,JAC,BAY 31 SUPERMARKET INC,BAY 31 SUPERMARKET,2222,86TH STREET,,,BROOKLYN,NY,11214,3000,POINT (-73.99322 40.60154)
Queens,736614,Store,A,GOOD NEIGHBORS SUPERMARKET INC,GOOD NEIGHBORS SUPERMAR,59-29,MYRTLE AVENUE,,,RIDGEWOOD,NY,11385,2000,POINT (-73.89891 40.70051)
Rockland,736605,Store,JAC,LOS PRIMOS GROCERY STORE #2 CORP,LOS PRIMOS GROCERY STOR,72,MAIN STREET,,,HAVERSTRAW,NY,10927,0,POINT (-73.96175 41.19645)
Kings,736587,Store,A,SWEET CHELSEA GROCERY INC,SWEET CHELSEA GROCERY,4708,7TH AVENUE,,,BROOKLYN,NY,11220,0,POINT (-74.00431 40.64397)
Kings,736584,Store,A,AMP USA INC,DUALS NATURAL,321,BROADWAY,,,BROOKLYN,NY,11211,1600,POINT (-73.95686 40.70805)
Kings,736522,Store,JAC,DON MILO MEAT MARKET CORP,DON MILO MEAT MARKET,3317,FULTON STREET,,,BROOKLYN,NY,11208,2500,POINT (-73.87303 40.68338)
Broome,736504,Store,JAC,WILLIAMS JUANITA,FAMILY DELIGHTS,153,MAIN STREET,,,BINGHAMTON,NY,13905,0,POINT (-75.92973 42.10297)
New York,736433,Store,JAC,SANTIAGO 2 ORGANIC FOOD CORP,SANTIAGO 2 ORGANIC FOOD,4380,BROADWAY,,,NEW YORK,NY,10040,1800,POINT (-73.93363 40.85436)
Kings,736396,Store,JAC,L&E DELI GROCERY CORP,L&E DELI GROCERY,820,5TH AVENUE,,,BROOKLYN,NY,11232,1000,POINT (-74.00083 40.6542)
Bronx,736304,Store,A,PAPA 99 CENTS INC,PAPA 99 CENTS,2474,GRAND CONCOURSE,,,BRONX,NY,10458,0,POINT (-73.89735 40.86171)
Delaware,736269,Store,JAC,MAIN STREET GENERAL LLC,ANDES GENERAL STORE,103,MAIN STREET,,,ANDES,NY,13731,2500,POINT (-74.78411 42.18972)
Queens,736210,Store,A,JI LI GROCERY INC,JI LI GROCERY,43-29,MAIN STREET,,,FLUSHING,NY,11355,1000,POINT (-73.82626 40.75174)
Bronx,736193,Store,JAC,MUNCHIES DELI GROCERY CORP,MUNCHIES DELI GROCERY,1215,GRAND CONCOURSE,,,BRONX,NY,10452,1500,POINT (-73.91779 40.83464)
Kings,736127,Store,JAC,BUSHWICK MARKET INC,MET FRESH SUPERMARKET,1381,MYRTLE AVENUE,,,BROOKLYN,NY,11237,5500,POINT (-73.92093 40.69854)
Kings,736092,Store,JAC,HENA 350 INC,HENA 350,350,JAY STREET,,,BROOKLYN,NY,11201,0,POINT (-73.98723 40.69366)
Sullivan,736026,Store,A,WALGREEN EASTERN CO INC,WALGREENS #17736,381,BROADWAY,,,MONTICELLO,NY,12701,11000,POINT (-74.68227 41.65386)
Orange,736017,Store,JAC,ALGOHIM AMRO A,GOLDBACK 3 DELI & GROCE,240,BROADWAY,,,NEWBURGH,NY,12550,1500,POINT (-74.01837 41.5005)
Ulster,736002,Store,JAC,YAZI PETROLEUM INC,YAZI PETROLEUM,447,BROADWAY,,,ULSTER PARK,NY,12487,2000,POINT (-73.97585 41.88573)
Kings,735964,Store,A,MAMA QUEEN INC,MAMA QUEEN,585,FLATBUSH AVENUE,,,BROOKLYN,NY,11225,1000,POINT (-73.96054 40.65924)
Kings,735960,Store,JAC,NUT HOUSE INC,NUT HOUSE,1117,BRIGHTON BEACH AVENUE,,,BROOKLYN,NY,11235,1200,POINT (-73.95626 40.57782)
Nassau,735936,Store,A,D&H GAS CO INC,D&H GAS,1009,FULTON STREET,,,FARMINGDALE,NY,11735,0,POINT (-73.43201 40.72462)
Kings,735823,Store,JAC,LUCKY 7S DELI ON 5TH CORP,LUCKY 7S DELI ON 5TH,7626,5TH AVENUE,,,BROOKLYN,NY,11209,1500,POINT (-74.02321 40.62813)
Ulster,735782,Store,JAC,DOUBLE A GROCERIES INC,DOUBLE A GROCERIES,3,MAIN STREET,,,HIGHLAND,NY,12528,800,POINT (-73.96428 41.71934)
Queens,735689,Store,A,BHAKTI 70 INC,AUSTIN STOP & GO CONVEN,7009,AUSTIN STREET,,,FOREST HILLS,NY,11375,1000,POINT (-73.84666 40.72085)
New York,735661,Store,A,142 GROCERY AND TOBACCO INC,142 GROCERY AND TOBACCO,3475,BROADWAY,,,NEW YORK,NY,10031,0,POINT (-73.95205 40.82438)
Kings,735568,Store,JAC,FULTON 3104 MEAT CORP,SHOP FARE,3104,FULTON STREET,,,BROOKLYN,NY,11208,4000,POINT (-73.88043 40.6813)
Bronx,735537,Store,JAC,PENA DELI GROCERY CORP,PENA DELI GROCERY,2337,GRAND CONCOURSE,,,BRONX,NY,10468,1400,POINT (-73.89944 40.85862)
Kings,735523,Store,JABC,GRISMAN BAKERY INC,GRISMAN BAKERY,1684,86TH STREET,,,BROOKLYN,NY,11214,3000,POINT (-74.00525 40.60885)
Kings,735520,Store,JAC,LUNA MARKET INC,LUNA MARKET,4010,5TH AVENUE,,,BROOKLYN,NY,11232,1700,POINT (-74.00476 40.65044)
Kings,735519,Store,JAC,CLEVELAND DELI & ORGANIC CORP,CLEVELAND DELI & ORGANI,2959,FULTON STREET,,,BROOKLYN,NY,11208,1000,POINT (-73.88539 40.67972)
New York,735465,Store,JAC,GOURMET REVOLUTION INC,GOURMET REVOLUTION,2090,7TH AVENUE,,,NEW YORK,NY,10027,2000,POINT (-73.94865 40.80865)
Broome,735346,Store,JAC,AARAV PETROLEUM CORP,WINDSOR COUNTRY MART,225,MAIN STREET,,,WINDSOR,NY,13865,3000,POINT (-75.64193 42.08451)
Bronx,735261,Store,JAC,WHITE PLAINS BROTHERS MEAT MARKET,WHITE PLAINS BROTHERS M,4384,WHITE PLAINS ROAD,,,BRONX,NY,10466,1500,POINT (-73.85464 40.89805)
Kings,735229,Store,JAC,LA PLACITA OLVERA GROCERY INC,LA PLACITA OLVERA GROCE,832,BROADWAY,,,BROOKLYN,NY,11206,0,POINT (-73.93924 40.69924)
New York,735024,Store,A,CVS ALBANY LLC,CVS/PHARMACY #10827,3536,BROADWAY,,,NEW YORK,NY,10031,0,POINT (-73.95054 40.82615)
Kings,735022,Store,A,CVS ALBANY LLC,CVS/PHARMACY #10291,1601,KINGS HIGHWAY,,,BROOKLYN,NY,11229,10000,POINT (-73.95719 40.60924)
Kings,734922,Store,JAC,CARNICERIA LA GRANJA INC,CARNICERIA LA GRANJA,5704,5TH AVENUE,,,BROOKLYN,NY,11220,600,POINT (-74.01453 40.64105)
Monroe,734806,Store,JAC,SAHER ELHAM CORP,7 ELEVEN STORE #35185A,622,PARK AVENUE,,,ROCHESTER,NY,14607,0,POINT (-77.57896 43.14867)
Kings,734651,Store,JAC,HIGH CLASS DELI CORP,HIGH CLASS DELI,1173,BROADWAY,,,BROOKLYN,NY,11221,2000,POINT (-73.9277 40.69271)
Kings,734644,Store,JAC,JMZ BROADWAY DELI INC,JMZ BROADWAY DELI,296,BROADWAY,,,BROOKLYN,NY,11211,700,POINT (-73.95817 40.70851)
Putnam,734616,Store,JAC,COLD SPRING CHEESE SHOP CORP,COLD SPRING CHEESE SHOP,104,MAIN STREET,,,COLD SPRING,NY,10516,1400,POINT (-73.9576 41.41828)
Queens,734563,Store,JAC,KIARIS DELI & GROCERY CORP,KIARIS DELI & GROCERY,185-11,JAMAICA AVENUE,,,HOLLIS,NY,11423,1250,POINT (-73.77359 40.70982)
Suffolk,734509,Store,JAC,AKRA HAITIAN DELI CORP,AKRA HAITIAN DELI,137,BROADWAY,,,HUNTINGTON STATION,NY,11746,0,POINT (-73.40717 40.85451)
Bronx,734458,Store,JAC,R-K DELI GROCERY CORP,R-K DELI GROCERY,919,EAST TREMONT AVENUE,,,BRONX,NY,10460,2000,POINT (-73.88405 40.84193)
Queens,734454,Store,JAC,JAMAICA DELI INC,JAMAICA DELI,179-46,HILLSIDE AVENUE,,,JAMAICA,NY,11432,400,POINT (-73.78323 40.71278)
Westchester,734444,Store,JAC,RANCHERITOS MINI MARKET CORP,RANCHERITOS MINI MARKET,693,MAIN STREET,,,NEW ROCHELLE,NY,10801,1100,POINT (-73.78805 40.90444)
New York,734415,Store,JAC,EL PATIO DELI CORP,EL PATIO DELI,2082,MADISON AVENUE,,,NEW YORK,NY,10037,800,POINT (-73.9378 40.80963)
Dutchess,734410,Store,JAC,MAYA SNACKS & DELI LLC,MAYA SNACKS & DELI,469,MAIN STREET,,,POUGHKEEPSIE,NY,12601,600,POINT (-73.92065 41.70159)
Westchester,734336,Store,JAC,MOUSA MART INC,MOUSA MART ARMONK,360,MAIN STREET,,,ARMONK,NY,10504,500,POINT (-73.71445 41.12428)
New York,734263,Store,JAC,FINESE TREATS INC,PENNYS PASTRIES,1580,PARK AVENUE,,,NEW YORK,NY,10029,0,POINT (-73.94476 40.79741)
Bronx,734249,Store,JAC,MASOHNA DELI AND GROCERY INC,MASOHNA DELI AND GROCER,4052,WHITE PLAINS ROAD,,,BRONX,NY,10466,1000,POINT (-73.85917 40.89014)
Kings,734242,Store,A,NEW FU XING MARKET III CORP,NEW FU XING MARKET III,5710,5TH AVENUE,,,BROOKLYN,NY,11220,3000,POINT (-74.01463 40.64095)
Sullivan,734216,Store,JAC,STAR FOOD SUPERMARKET CORP,STAR FOOD SUPERMARKET,78,MAIN STREET,,,BLOOMINGBURG,NY,12721,1000,POINT (-74.43983 41.55443)
Kings,734157,Store,JAC,FRESH TO GO DELI CORP,FRESH TO GO DELI,957,FULTON STREET,,,BROOKLYN,NY,11238,1000,POINT (-73.96469 40.68301)
Queens,734123,Store,JAC,SUGAR BY PATA CORP,PATA MARKET,81-16,BROADWAY,,,ELMHURST,NY,11373,0,POINT (-73.88341 40.74318)
New York,734087,Store,JAC,CLUB DELI GROCERY CORP,CLUB DELI GROCERY,4672,BROADWAY,,,NEW YORK,NY,10040,1500,POINT (-73.93003 40.86315)
New York,734079,Store,JAC,GALLARDO MINIMARKET CORP,GALLARDO MINIMARKET,3478,BROADWAY,,,NEW YORK,NY,10031,1800,POINT (-73.95184 40.82438)
Queens,734048,Store,JAC,3 IN 1 DELI GROCERY INC,3 IN 1 DELI GROCERY,131-11,JAMAICA AVENUE,,,RICHMOND HILL,NY,11418,1200,POINT (-73.82072 40.70209)
Bronx,733944,Store,A,SNACKS & CONVENIENCE STORE INC,SNACKS & CONVENIENCE ST,3826,WHITE PLAINS ROAD,,,BRONX,NY,10467,800,POINT (-73.86235 40.88441)
Suffolk,733889,Store,JABC,AMBER WAVES FARM INC,AMBER WAVES FARM,367,MAIN STREET,,,AMAGANSETT,NY,11930,1200,POINT (-72.13703 40.97757)
Kings,733860,Store,JAC,BRIGHTON FOOD GROUP INC,GOLD LABEL,281-285,BRIGHTON BEACH AVENUE,,,BROOKLYN,NY,11235,4000,POINT (-73.96461 40.57694)
Kings,733823,Store,JAC,AMY GROCERY MINI MARKET INC,AMY GROCERY MINI MARKET,5724,5TH AVENUE,,,BROOKLYN,NY,11220,1800,POINT (-74.01489 40.64071)
Kings,733801,Store,A,REMAS DELI AND GROCERY GOURMET CO,REMAS DELI AND GROCERY,3341,FULTON STREET,,,BROOKLYN,NY,11208,1600,POINT (-73.87232 40.68361)
Bronx,733666,Store,JAC,LOTUS JACKSON AVE GAS CORP,CITGO,250,JACKSON AVENUE,,,BRONX,NY,10454,1000,POINT (-73.91265 40.80511)
Kings,733516,Store,JAC,ASAAD DELI & GRILL CORP,ASAAD DELI & GRILL,111,CHURCH AVENUE,,,BROOKLYN,NY,11218,1700,POINT (-73.97905 40.64295)
Kings,733500,Store,JAC,19TH AVENUE CONVENIENCE INC.,19TH AVE DELI & GROCERY,1880,86TH STREET,,,BROOKLYN,NY,11214,2000,POINT (-74.00063 40.60604)
Kings,733490,Store,JAC,ADAMS DELI ON KINGS HIGHWAY CORP,ADAMS DELI,922,KINGS HIGHWAY,,,BROOKLYN,NY,11223,2000,POINT (-73.9631 40.60695)
Kings,733489,Store,JAC,EL SAZON DELI GROCERY INC,EL SAZON DELI GROCERY,2096,FULTON STREET,,,BROOKLYN,NY,11233,1000,POINT (-73.91328 40.67841)
Kings,733273,Store,JAC,AMERICAN CHOICE GOURMET DELI INC,AMERICAN CHOICE GOURMET,218,BROADWAY,,,BROOKLYN,NY,11211,600,POINT (-73.96095 40.70948)
Queens,733252,Store,JAC,SUPER STAR FARM INC,SUPER STAR FARM,88-01,37TH AVENUE,,,JACKSON HEIGHTS,NY,11372,0,POINT (-73.87827 40.75038)
New York,733220,Store,JAC,SAM GOURMET DELI & GROCERY CORP,SAM GOURMET DELI & GROC,3459,BROADWAY,,,NEW YORK,NY,10031,0,POINT (-73.95253 40.82373)
New York,733197,Store,JAC,BROADWAY FINEST DELI CORP,BROADWAY FINEST DELI,3620,BROADWAY,,,NEW YORK,NY,10031,0,POINT (-73.94843 40.82903)
Steuben,733162,Store,JAC,CANISTEO SHURFINE LLC,ARKPORT SHURFINE,21,MAIN STREET,,,ARKPORT,NY,14807,14000,POINT (-77.69558 42.39349)
Westchester,733160,Store,JAC,PIT STOP 819 INC,PIT STOP 819,819,MAIN STREET,,,NEW ROCHELLE,NY,10801,1500,POINT (-73.79254 40.90158)
Kings,733159,Store,JAC,MAHI 624 INC,SOUTH SLOPE'S SUBS N ST,624,5TH AVENUE,,,BROOKLYN,NY,11215,1200,POINT (-73.99139 40.66327)
Queens,733136,Store,JAC,JALPA 117 INC,METRO DELI & GROCERY,11701,HILLSIDE AVENUE,,,RICHMOND HILL,NY,11418,1000,POINT (-73.83265 40.70019)
Queens,733104,Store,A,WALGREEN EASTERN CO INC,WALGREENS #19615,47-07,BROADWAY,,,ASTORIA,NY,11103,9700,POINT (-73.9133 40.7563)
Queens,733100,Store,A,WALGREEN EASTERN CO INC,WALGREENS #19035,162-19,HILLSIDE AVENUE,,,JAMAICA,NY,11432,3500,POINT (-73.79955 40.70862)
Queens,733080,Store,A,WALGREEN EASTERN CO INC,WALGREENS #19694,110-88,QUEENS BOULEVARD,,,FOREST HILLS,NY,11375,7000,POINT (-73.83799 40.71857)
Queens,733064,Store,A,WALGREEN EASTERN CO INC,WALGREENS #19923,9108,ROOSEVELT AVENUE,,,JACKSON HEIGHTS,NY,11372,0,POINT (-73.8747 40.7486)
Queens,732977,Store,JABC,7915 PRODUCE & MEAT INC,KEY FOOD,79-15,MAIN STREET,,,FLUSHING,NY,11367,15000,POINT (-73.81753 40.71854)
New York,732919,Store,JAC,ANGELES GROCERY CORP,ANGELES GROCERY,1626,PARK AVENUE,,,NEW YORK,NY,10029,2000,POINT (-73.94374 40.79884)
New York,732893,Store,A,CVS ALBANY LLC,CVS PHARMACY # 11075,2833,BROADWAY,,,NEW YORK,NY,10025,5000,POINT (-73.96696 40.80398)
New York,732757,Store,JAC,HANA MART COLUMBIA CORP,H MART,2828,BROADWAY,,,NEW YORK,NY,10025,6500,POINT (-73.96681 40.80385)
New York,732712,Store,JAC,LALU GROCERY 594 NY INC,LALU DELI GROCERY,594,COLUMBUS AVENUE,,,NEW YORK,NY,10024,800,POINT (-73.97089 40.7883)
Kings,732688,Store,JAC,LA UNION DELI GROCERY CORP,LA UNION DELI GROCERY,4011,5TH AVENUE,,,BROOKLYN,NY,11232,2000,POINT (-74.00475 40.65045)
Suffolk,732619,Store,JAC,ASIAN FARMER INC,ASIAN FARMER,213,BROADWAY,,,AMITYVILLE,NY,11701,1500,POINT (-73.41691 40.67856)
Queens,732579,Store,A,TE QUIERO BEBE AND 99C UP STORE I,TE QUIERO BEBE AND 99C,48-04,BROADWAY,,,ASTORIA,NY,11103,1200,POINT (-73.91243 40.75589)
Delaware,732549,Store,A,WALGREEN EASTERN CO INC,WALGREENS #19333,10,MAIN STREET,,,SIDNEY,NY,13838,13000,POINT (-75.39237 42.31561)
Tioga,732548,Store,A,WALGREEN EASTERN CO INC,WALGREENS #19777,153,MAIN STREET,,,OWEGO,NY,13827,0,POINT (-76.26335 42.10312)
Kings,732434,Store,A,7721 SM DELI & GROCERY INC,7721 SM DELI & GROCERY,4902,CHURCH AVENUE,,,BROOKLYN,NY,11203,0,POINT (-73.93124 40.65169)
Warren,732420,Store,A,WALGREEN EASTERN CO INC,WALGREENS #19689,3864,MAIN STREET,,,WARRENSBURG,NY,12885,0,POINT (-73.77545 43.49642)
Saratoga,732414,Store,A,WALGREEN EASTERN CO INC,WALGREENS #17860,94,MAIN STREET,,,SOUTH GLENS FALLS,NY,12803,9600,POINT (-73.63694 43.3004)
Rensselaer,732408,Store,A,WALGREEN EASTERN CO INC,WALGREENS #19764,22,MAIN STREET,,,HOOSICK FALLS,NY,12090,0,POINT (-73.35065 42.9012)
Rensselaer,732401,Store,A,WALGREEN EASTERN CO INC,WALGREENS #19732,4,MAIN STREET,,,SCHAGHTICOKE,NY,12154,0,POINT (-73.58505 42.90643)
Washington,732378,Store,A,WALGREEN EASTERN CO INC,WALGREENS #19494,92,MAIN STREET,,,HUDSON FALLS,NY,12839,0,POINT (-73.5851 43.29855)
Rensselaer,732192,Store,JAC,SNACK SHOP 2 INC,SNACK SHOP 2,166,MAIN STREET,,,SCHAGHTICOKE,NY,12154,800,POINT (-73.5867 42.89654)
Kings,732186,Store,JAC,1961 FULTON DELI CORP,1961 FULTON DELI,1961,FULTON STREET,,,BROOKLYN,NY,11233,1000,POINT (-73.91662 40.67859)
Queens,732183,Store,JAC,SKYLIGHT HOLDINGS 4 INC,FOOD UNIVERSE MARKETPLA,3414,STEINWAY STREET,,,LONG ISLAND CITY,NY,11101,0,POINT (-73.92128 40.75617)
Kings,732114,Store,JAC,JAE HEON GROUP CORP,ORANGE TREE NATURALS 03,517,GRAND STREET,,,BROOKLYN,NY,11211,2000,POINT (-73.9505 40.71102)
Erie,731999,Store,JAC,AUREUS ENTERPRISE LLC,MAIN TRANSIT MART,6875,MAIN STREET,,,BUFFALO,NY,14221,2500,POINT (-78.69731 42.96529)
Kings,731995,Store,JAC,M&S SMOKE SHOP&GROCERY CORP,M&S SMOKE SHOP&GROCERY,1137,FLATBUSH AVENUE,,,BROOKLYN,NY,11226,1000,POINT (-73.95752 40.64245)
Bronx,731981,Store,JAC,STOP & GO MINI MARKET CORP,ZOOM ZOOM,4702,WHITE PLAINS ROAD,,,BRONX,NY,10470,2500,POINT (-73.85006 40.90377)
Monroe,731971,Store,JAC,EAST FOOD MART INC,OIL DEPOT,501,MAIN STREET,,,EAST ROCHESTER,NY,14445,1200,POINT (-77.48632 43.11141)
Kings,731943,Store,JAC,OCEAN ORGANIC DELI CORP,OCEAN ORGANIC DELI,1803,BROADWAY,,,BROOKLYN,NY,11207,1000,POINT (-73.90865 40.68186)
Queens,731894,Store,JAC,HONG KONG SUPERMARKET OF FLUSHING,HONG KONG SUPERMARKET,37-11,MAIN STREET,,,FLUSHING,NY,11354,16000,POINT (-73.83094 40.76119)
New York,731842,Store,A,3635 SILVER SADDLE DELI GROCERY I,3635 SILVER SADDLE DELI,3635,BROADWAY,,,NEW YORK,NY,10031,0,POINT (-73.9484 40.82939)
New York,731801,Store,JAC,KARENS GOODNESS LLC,KARENS GOODNESS,1580,PARK AVENUE,,,NEW YORK,NY,10029,0,POINT (-73.94476 40.79741)
Kings,731744,Store,JAC,1925 CHURCH AVE LLC,1925 CHURCH AVE,1925,CHURCH AVENUE,,,BROOKLYN,NY,11226,0,POINT (-73.96142 40.65)
Kings,731741,Store,JAC,M&N DELI & ORGANIC INC,M&N DELI & ORGANIC,186,BROADWAY,,,BROOKLYN,NY,11211,1000,POINT (-73.96206 40.70984)
Dutchess,731718,Store,JAC,LA POBLANA MEAT MARKET CORP,LA POBLANA MEAT MARKET,424,MAIN STREET,,,POUGHKEEPSIE,NY,12601,3000,POINT (-73.92255 41.70193)
New York,731696,Store,JAC,LUNA DELI INC,LUNA DELI,3494,BROADWAY,,,NEW YORK,NY,10031,0,POINT (-73.95141 40.82495)
Queens,731654,Store,JAC,MAZAL GLATT SUPERMARKET INC,MAZAL GLATT SUPERMARKET,7202,MAIN STREET,,,FLUSHING,NY,11367,3750,POINT (-73.82179 40.72636)
Kings,731639,Store,A,BROADWAY FOOD UNIVERSE INC,DOLLAR DEALS,1295,BROADWAY,,,BROOKLYN,NY,11221,5000,POINT (-73.92385 40.69052)
Rensselaer,731615,Store,JAC,MOHALK INC,FULTON MINI MART,471,FULTON STREET,,,TROY,NY,12180,1800,POINT (-73.68766 42.73227)
Bronx,731578,Store,JAC,RIVERA DELI CORP,RIVERA DELI,4301,WHITE PLAINS ROAD,,,BRONX,NY,10466,0,POINT (-73.85615 40.89569)
Ulster,731572,Store,JAC,NEW PALTZ SNACK SHOP INC,NEW PALTZ SNACK SHOP,160,MAIN STREET,,,NEW PALTZ,NY,12561,1000,POINT (-74.08057 41.74697)
New York,731549,Store,A,JACKS 40 WEST NYC CORP,JACKS 99,223,WEST 40TH STREET,,,NEW YORK,NY,10018,6000,POINT (-73.98877 40.75513)
Kings,731502,Store,JAC,KUIS FISH MARKET INC,NEW ANDREW FISH MARKET,1228,FULTON STREET,,,BROOKLYN,NY,11216,1200,POINT (-73.95141 40.6805)
Queens,731492,Store,JAC,37 MEAT CORP,COMPARE & SAVE,99-14,37TH AVENUE,,,CORONA,NY,11368,3000,POINT (-73.86761 40.75242)
Queens,731459,Store,JAC,EL DON PONCE CORP,EL DON PONCE,53-24,ROOSEVELT AVENUE,,,WOODSIDE,NY,11377,800,POINT (-73.91085 40.74466)
Kings,731429,Store,JAC,5TH AVE GOURMET DELI GRILL INC,5TH AVE GOURMET DELI GR,6902,5TH AVENUE,,,BROOKLYN,NY,11209,1000,POINT (-74.02103 40.63338)
Kings,731418,Store,JAC,SALS GOURMET MARKET INC,SALS GOURMET MARKET,1741,FULTON STREET,,,BROOKLYN,NY,11233,2500,POINT (-73.9288 40.67926)
Kings,731311,Store,JAC,EVERGREEN GOURMET DELI INC,EVERGREEN GOURMET DELI,1549,PITKIN AVENUE,,,BROOKLYN,NY,11212,1600,POINT (-73.91621 40.66888)
Orange,731265,Store,JAC,3 BROTHERS MARKET INC,3 BROTHERS MARKET,166,BROADWAY,,,NEWBURGH,NY,12550,1200,POINT (-74.01435 41.50024)
Kings,731251,Store,JAC,GRAND FREEDOM MARKET CORP,GRAND FREEDOM MARKET,805,GRAND STREET,,,BROOKLYN,NY,11211,1300,POINT (-73.94112 40.71189)
Suffolk,731200,Store,JAC,GATTI KIMBERLY,THE MONTAUK GENERAL STO,669,MAIN STREET,,,MONTAUK,NY,11954,0,
Nassau,731199,Store,JAC,DOMINICAN CANELAS DELI CORP,DOMINICAN CANELAS DELI,100,BROADWAY,,,FREEPORT,NY,11520,1000,POINT (-73.58025 40.65973)
Kings,731142,Store,JAC,MY FAVORITE DELI INC,MY FAVORITE DELI,1978,86TH STREET,,,BROOKLYN,NY,11214,1500,POINT (-73.99852 40.60477)
New York,731128,Store,JAC,URBAN GOURMET DELI CORP,URBAN GOURMET DELI,1917,7TH AVENUE,,,NEW YORK,NY,10026,1000,POINT (-73.95253 40.80304)
Queens,731004,Store,JAC,RUSS INDIAN FOOD INC,REAL USHA SWEETS AND SN,259-15,HILLSIDE AVENUE,,,GLEN OAKS,NY,11004,5000,POINT (-73.70863 40.73726)
Bronx,730975,Store,JAC,EL MANDO DELI INC,EL MANDO DELI,611,GRAND CONCOURSE,,,BRONX,NY,10451,0,POINT (-73.92643 40.8204)
Bronx,730963,Store,A,DEE GROCERY CORP,DEE GROCERY,3201C,WHITE PLAINS ROAD,,,BRONX,NY,10467,900,POINT (-73.86715 40.87145)
Kings,730861,Store,JAC,BROADWAY ORGANIC DELI INC,BROADWAY ORGANIC DELI,799,BROADWAY,,,BROOKLYN,NY,11206,0,POINT (-73.94023 40.69979)
Queens,730844,Store,JAC,FOREST GOURMET DELI INC,FOREST GOURMET DELI,66-35,FOREST AVENUE,,,RIDGEWOOD,NY,11385,1000,POINT (-73.90294 40.70663)
Bronx,730835,Store,A,CONCOURSE GROCERY CORP,CONCOURSE GROCERY,2356,GRAND CONCOURSE,,,BRONX,NY,10458,0,POINT (-73.899039 40.85862)
Queens,730832,Store,JAC,CARNICERIA CESINA YENCHILADA INC,CARNICERIA CESINA YENCH,108-06,37TH AVENUE,,,CORONA,NY,11368,800,POINT (-73.85988 40.75395)
Queens,730817,Store,JAC,AJ COMMUNITY STORE INC,AJ COMMUNITY STORE,100-23,37TH AVENUE,,,CORONA,NY,11368,2500,POINT (-73.86642 40.75274)
Bronx,730686,Store,JAC,SJW SUSHI CORP,SJW SUSHI,5555,BROADWAY,,,BRONX,NY,10463,500,POINT (-73.90509 40.87855)
Queens,730623,Store,JAC,ROKSANA GOURMET DELI INC,ROKSANA GOURMET DELI,6678,FRESH POND ROAD,,,RIDGEWOOD,NY,11385,1500,POINT (-73.89686 40.70637)
Queens,730452,Store,JAC,SOPHIA GROCERY CORP,SOPHIA GROCERY,57-01,MAIN STREET,,,FLUSHING,NY,11355,1500,POINT (-73.82615 40.74629)
Kings,730353,Store,JAC,CARIBBEAN & TROPICAL FISH MARKET,CARIBBEAN & TROPICAL FI,5302,CHURCH AVENUE,,,BROOKLYN,NY,11203,1000,POINT (-73.92734 40.65233)
Cattaraugus,730297,Store,JAC,9682MAINSTLLC,LILS DELI,9682,MAIN STREET,,,MACHIAS,NY,14101,2800,POINT (-78.49429 42.419)
Queens,730270,Store,JAC,SHAHS DELI INC,SHAHS DELI,74-03,37TH AVENUE,,,JACKSON HEIGHTS,NY,11372,1400,POINT (-73.89155 40.74898)
Orange,730216,Store,A,MAIN ST & CHESTNUT MINI MART INC,THE NEWBURGH OASIS,367,BROADWAY,,,NEWBURGH,NY,12550,1500,POINT (-74.02444 41.50067)
New York,730197,Store,A,ANP PHARMACEUTICALS LLC,ROYAL PHARMACY,5030,BROADWAY,,,NEW YORK,NY,10034,1800,POINT (-73.91716 40.86909)
Nassau,730100,Store,JAC,R & D DELI GROCERY NY INC,R & D DELI GROCERY NY,129,BROADWAY,,,FREEPORT,NY,11520,1000,POINT (-73.57927 40.66038)
Suffolk,730007,Store,JAC,ISLIP MEAT MARKET CORP,ISLIP MEAT MARKET,551,MAIN STREET,,,ISLIP,NY,11751,1400,POINT (-73.21287 40.7294)
Ulster,730002,Store,JAC,K & V FOOD INC,K & V FOOD,162,BROADWAY,,,PORT EWEN,NY,12466,1100,POINT (-73.97684 41.9077)
Kings,729952,Store,JAC,W AND L KINGS HIGHWAY MINI MARKET,W AND L KINGS HIGHWAY M,216,KINGS HIGHWAY,,,BROOKLYN,NY,11223,2000,POINT (-73.98272 40.60546)
Columbia,729548,Store,JAC,215 MAIN VENTURES LLC,OTTOS MARKET,215,MAIN STREET,,,GERMANTOWN,NY,12526,2500,POINT (-73.8811 42.1325)
New York,729281,Store,JAC,SANTIAGO FOOD CENTER INC,SANTIAGO FOOD CENTER,3680,BROADWAY,,,NEW YORK,NY,10031,650,POINT (-73.94707 40.8309)
Orange,729277,Store,JAC,MIKES DELI GROCERY STORE,MIKES DELI GROCERY STOR,382,BROADWAY,,,NEWBURGH,NY,12550,1400,POINT (-74.02517 41.50096)
St. Lawrence,729223,Store,JAC,164 MAIN STREET MARKET INC.,164 MAIN STREET MARKET,164,MAIN STREET,,,EDWARDS,NY,13635,1200,POINT (-75.25118 44.3248)
Rockland,729220,Store,JAC,LA AZTLAN GROCERY BAKERY & DELI I,LA AZTLAN GROCERY BAKER,8,BROADWAY,,,HAVERSTRAW,NY,10927,1000,POINT (-73.96444 41.19687)
New York,729217,Store,JAC,579 BREAD & BUTTER MARKET CORP,579 BREAD & BUTTER MARK,579,MAIN STREET,,,NEW YORK,NY,10044,1500,POINT (-73.94937 40.7626)
New York,729139,Store,JAC,MANHATTAN SEAFOOD INC,MANHATTAN SEAFOOD,3344,BROADWAY,,,NEW YORK,NY,10031,0,POINT (-73.95478 40.82035)
Queens,729039,Store,JAC,FUXING MINI MARKET INC,FUXING MINI MARKET,41-36,MAIN STREET,,,FLUSHING,NY,11355,800,POINT (-73.82899 40.75715)
New York,728953,Store,JAC,LOS VECINOS MINI MARKET INC,LOS VECINOS MINI MARKET,3518,BROADWAY,,,NEW YORK,NY,10031,0,POINT (-73.95093 40.8256)
Queens,728938,Store,JAC,WATANY MEAT AND FRUITS INC,WATANY MEAT AND FRUITS,25-76,STEINWAY STREET,,,ASTORIA,NY,11103,3000,POINT (-73.9132 40.7661)
Schoharie,728900,Store,A,DOLGEN NEW YORK LLC,DOLLAR GENERAL #16110,393,MAIN STREET,,,RICHMONDVILLE,NY,12149,9000,POINT (-74.55296 42.63617)
Kings,728849,Store,JAC,GOURMET DELI & GROCERY CORP,GOURMET DELI & GROCERY,1060,FULTON STREET,,,BROOKLYN,NY,11238,1000,POINT (-73.95829 40.68167)
Kings,728771,Store,JAC,CORTELYOU GOURMET DELI INC`,CORTELYOU GOURMET DELI,1626,CORTELYOU ROAD,,,BROOKLYN,NY,11226,0,POINT (-73.96288 40.64191)
Suffolk,728727,Store,JAC,OK 2 LLC,ORGANIC KRUSH,207,MAIN STREET,,,AMAGANSETT,NY,11930,0,POINT (-72.14122 40.97524)
Kings,728717,Store,JAC,BIK MARKET INC,SPROUT MARKET,984,BROADWAY,,,BROOKLYN,NY,11221,3000,POINT (-73.93409 40.69633)
Kings,728650,Store,JAC,2665 MINI MARKET JR CORP,2665 MINI MARKET JR,2665,PITKIN AVENUE,,,BROOKLYN,NY,11208,1500,POINT (-73.8737 40.67514)
Queens,728646,Store,JAC,MSNY MARKET INC,GW SUPERMARKET,41-79,MAIN STREET,,,FLUSHING,NY,11355,21000,POINT (-73.82849 40.75584)
New York,728641,Store,JAC,KATAGIRI & CO INCORPORATED,KATAGIRI & CO,370,LEXINGTON AVENUE,,,NEW YORK,NY,10017,3500,POINT (-73.97672 40.75053)
Ulster,728637,Store,JAC,ILLESCAS-COLIBRI JENNY,EXPRESS LATINOS,686,BROADWAY,,,KINGSTON,NY,12401,1400,POINT (-74.00804 41.93087)
New York,728607,Store,JAC,"BULGER JASMIN, BULGER APRIL",SWEET SUGA MAMA'S 05/15,1580,PARK AVENUE,,,NEW YORK,NY,10029,0,POINT (-73.94476 40.79741)
Suffolk,728605,Store,JAC,HAMPTON CHOCOLATE FACTORY,HAMPTON CHOCOLATE,117,MAIN STREET,,,GREENPORT,NY,11944,0,POINT (-72.35889 41.10197)
New York,728569,Store,JAC,A.L. BROADWAY GROCERY CORP,A.L. BROADWAY GROCERY,3770,BROADWAY,,,NEW YORK,NY,10032,0,POINT (-73.94493 40.83383)
Queens,728561,Store,JAC,NEW JACKSON ENTERPRISE INC,NEW JACKSON ENTERPRISE,35-54,STEINWAY STREET,,,LONG ISLAND CITY,NY,11101,2500,POINT (-73.92327 40.75372)
New York,728547,Store,JAC,NATY FOOD CORP,NATY FOOD,7,HILLSIDE AVENUE,,,NEW YORK,NY,10040,2200,POINT (-73.93072 40.85898)
Westchester,728538,Store,JAC,GOLDENS FRESH MARKET INC,GOLDENS FRESH MARKET,477,MAIN STREET,,,NEW ROCHELLE,NY,10801,2500,POINT (-73.78077 40.90942)
Queens,728409,Store,JAC,KING DAVID BAKERY INC,KING DAVID BAKERY,67-03,MAIN STREET,,,FLUSHING,NY,11367,1700,POINT (-73.82527 40.73398)
Broome,728352,Store,JAC,JAYS ONE STOP INC,JAYS ONE STOP,77,MAIN STREET,,,BINGHAMTON,NY,13905,2500,POINT (-75.9231 42.09988)
Kings,728349,Store,A,CAREWAY RX INC,CAREWAY PHARMACY,1174,FLATBUSH AVENUE,,,BROOKLYN,NY,11226,2000,POINT (-73.9567 40.64158)
Kings,728320,Store,JAC,907 YAFA DELI & GROCERY CORP,YAFA DELI & GROCERY,907,FULTON STREET,,,BROOKLYN,NY,11238,1500,POINT (-73.96717 40.68353)
New York,728301,Store,A,CVS ALBANY LLC,CVS/PHARMACY #10826,1440,BROADWAY,,,NEW YORK,NY,10018,20000,POINT (-73.98679 40.75455)
Sullivan,728262,Store,JAC,MORNING DOVE LLC,NARROWSBURG PROPER,44,MAIN STREET,,,NARROWSBURG,NY,12764,850,POINT (-75.06128 41.60832)
Erie,728256,Store,JAC,AMANA MULTI TRADE INC,AMANA PLAZA,1054,BROADWAY,,,BUFFALO,NY,14212,1000,POINT (-78.83575 42.89377)
Kings,728240,Store,A,CIGAR SMOKE SHOP 1 CORP,CIGAR SMOKE SHOP 1,1158,FULTON STREET,,,BROOKLYN,NY,11216,900,POINT (-73.95461 40.68091)
Bronx,728237,Store,JAC,1454 MC DELI GROCERY CORP,1454 MC DELI GROCERY,1454,GRAND CONCOURSE,,,BRONX,NY,10457,1400,POINT (-73.91293 40.83984)
Orange,727975,Store,JAC,HAMOOD M AL HARBI,STOP & BUY DELI MARKET,120,BROADWAY,,,NEWBURGH,NY,12550,2000,POINT (-74.01213 41.50008)
Bronx,727973,Store,JAC,BBC DELI GROCERY CORP,BBC DELI GROCERY,51,EAST TREMONT AVENUE,,,BRONX,NY,10453,1800,POINT (-73.9083 40.85128)
Kings,727789,Store,JAC,MONG KOK SUPERMARKET INC,MONG KOK SUPERMARKET,1815,86TH STREET,,,BROOKLYN,NY,11214,5000,POINT (-74.00217 40.60697)
Kings,727761,Store,JAC,L&C FISH MARKET INC,L&C FISH MARKET,1910,CHURCH AVENUE,,,BROOKLYN,NY,11226,1800,POINT (-73.9618 40.6499)
Schenectady,727758,Store,JAC,VIJSEE CORP,VIJSEE,3060,BROADWAY,,,SCHENECTADY,NY,12306,1000,POINT (-73.97935 42.79006)
Westchester,727748,Store,A,PEEKSKILL FOOD MART CORP,PEEKSKILL FOOD MART,925,WASHINGTON STREET,,,PEEKSKILL,NY,10566,900,POINT (-73.92937 41.27402)
Bronx,727691,Store,JAC,SUPERSTAR 1 DELI AND & GROCERY CO,SUPERSTAR 1 DELI AND &,2801,WHITE PLAINS ROAD,,,BRONX,NY,10467,1600,POINT (-73.86728 40.86667)
Rensselaer,727661,Store,JAC,TITANIC MARKETS INC,TITANIC MARKET,107,5TH AVENUE,,,TROY,NY,12180,2000,POINT (-73.68098 42.75646)
Suffolk,727629,Store,JAC,MAHANT 247 INC,7 ELEVEN STORE #33607B,247,BROADWAY,,,HUNTINGTON,NY,11743,1500,POINT (-73.36576 40.85123)
Queens,727565,Store,JAC,ELMHURST FOOD BAZAR INC,ELMHURST FOOD BAZAR,81-08,BROADWAY,,,ELMHURST,NY,11373,2000,POINT (-73.88365 40.74329)
Bronx,727526,Store,JAC,178 GOURMET DELI CORP,178 GOURMET DELI,1930,GRAND CONCOURSE,,,BRONX,NY,10457,1100,POINT (-73.90523 40.85012)
Kings,727472,Store,JAC,BORHAN FOOD MART CORP,BORHAN FOOD MART,1559,BROADWAY,,,BROOKLYN,NY,11207,1800,POINT (-73.91595 40.686)
New York,727442,Store,JAC,JUICE PRESS LLC THE,JUICE PRESS EQ20,897,BROADWAY,,,NEW YORK,NY,10005,0,POINT (-73.98983 40.73894)
Kings,727411,Store,A,1356 CONVENIENCE CORP,1356 CONVENIENCE,1356,BROADWAY,,,BROOKLYN,NY,11221,600,POINT (-73.92245 40.6897)
Livingston,727399,Store,JAC,POSPESEL-ALLEN WENDY,WENDY'S PANTRY AND THE,82-84,MAIN STREET,,,MOUNT MORRIS,NY,14510,0,POINT (-77.8736 42.7249)
Suffolk,727348,Store,JAC,JAY VISYA CORP,TAG BEVERAGE,960,MAIN STREET,,,HOLBROOK,NY,11741,1500,POINT (-73.07401 40.80721)
Suffolk,727303,Store,A,VILLAGE COFFEE MARKET LLC,VILLAGE COFFEE MARKET,131,MAIN STREET,,,STONY BROOK,NY,11790,800,POINT (-73.14726 40.91655)
Kings,727302,Store,A,RAJA BROTHERS INC,786 FOOD MART,2010,CHURCH AVENUE,,,BROOKLYN,NY,11226,3000,POINT (-73.96057 40.65013)
Kings,727293,Store,JAC,CHAVO DELI-GROCERY CORP,CHAVO DELI-GROCERY,721,5TH AVENUE,,,BROOKLYN,NY,11215,1200,POINT (-73.99443 40.66037)
Queens,727239,Store,JAC,CHENG HUI GROCERY INC,THE LEMON FARM,77-19,37TH AVENUE,,,JACKSON HEIGHTS,NY,11372,1500,POINT (-73.88855 40.7493)
New York,727236,Store,JAC,SEAFOOD KING FISH MARKET INC,SEAFOOD KING FISH MARKE,3903-3905,BROADWAY,,,NEW YORK,NY,10032,0,POINT (-73.94209 40.83802)
Richmond,727235,Store,JAC,WEST BRIGHTON FOOD CENTER CORP,WEST BRIGHTON FOOD CENT,171,BROADWAY,,,STATEN ISLAND,NY,10310,1000,POINT (-74.11758 40.63731)
Queens,727225,Store,JAC,STEVES DELI & GRILL INC,STEVE'S DELI & GRILL,144-01,JAMAICA AVENUE,,,JAMAICA,NY,11435,1500,POINT (-73.81112 40.70221)
Westchester,727192,Store,JAC,LA PLACITA MEAT & PRODUCE INC,LA PLACITA MEAT & PRODU,1,PARK AVENUE,,,MOUNT VERNON,NY,10550,7000,POINT (-73.83398 40.91282)
Kings,727120,Store,JAC,86 GREEN CORP,GREEN BAZZAR & DISCOUNT,86,CHURCH AVENUE,,,BROOKLYN,NY,11218,1800,POINT (-73.98005 40.64254)
Rockland,727091,Store,JAC,MARTINEZ OSCAR A,GOOD FRIEND MEAT MARKET,33,MAIN STREET,,,HAVERSTRAW,NY,10927,900,POINT (-73.96298 41.19653)
Bronx,727058,Store,JAC,SADEQ GOURMET DELI INC,SADEQ GOURMET DELI,2664,GRAND CONCOURSE,,,BRONX,NY,10458,0,POINT (-73.893919 40.8664)
Otsego,726900,Store,JAC,DATLA II INC,EZ FOOD MART,387,MAIN STREET,,,ONEONTA,NY,13820,2000,POINT (-75.05396 42.4581)
Richmond,726886,Store,A,NEW WAY CONVENIENCE STORE CORP,NEW WAY CONVENIENCE STO,171,BROAD STREET,,,STATEN ISLAND,NY,10304,1500,POINT (-74.08043 40.62433)
Queens,726856,Store,JABH,AVRAHAMS BAKERY INC,AVRAHAMS BAKERY,73-15,MAIN STREET,,,FLUSHING,NY,11367,1750,POINT (-73.8205 40.72436)
Nassau,726846,Store,A,CVS ALBANY LLC,CVS/PHARMACY #1073,450,MAIN STREET,,,FARMINGDALE,NY,11735,30000,POINT (-73.44507 40.72957)
Kings,726704,Store,JAC,LAVILLITA DELI GROCERY CORP,LAVILLITA DELI GROCERY,310,KINGS HIGHWAY,,,BROOKLYN,NY,11223,1200,POINT (-73.97879 40.60501)
Queens,726494,Store,JAC,NEW LUCKY STAR DELI INC,NEW LUCKY STAR DELI,6502,FOREST AVENUE,,,RIDGEWOOD,NY,11385,1000,POINT (-73.90403 40.70845)
Nassau,726110,Store,JAC,VICKY'S LOCAL DELI INC,VICKY'S LOCAL DELI,284,BROADWAY,,,LYNBROOK,NY,11563,1500,POINT (-73.67902 40.65273)
Kings,726096,Store,JAC,MAHANT 404 INC,APPLE GOURMET FARM,404,ATLANTIC AVENUE,,,BROOKLYN,NY,11217,1400,POINT (-73.98473 40.68688)
Bronx,726084,Store,A,T & S DELI GROCERY CORP,T & S DELI GROCERY,2355,GRAND CONCOURSE,,,BRONX,NY,10468,800,POINT (-73.89922 40.85899)
New York,726077,Store,A,MINI STAR CONVENIENCE CORP,MINI STAR,3611,BROADWAY,,,NEW YORK,NY,10031,1600,POINT (-73.94877 40.82887)
Westchester,725984,Store,JAC,WATER FRONT ON THE GO INC,WATER FRONT ON THE GO,37,MAIN STREET,,,YONKERS,NY,10701,700,POINT (-73.90004 40.93444)
New York,725960,Store,JAC,PLATON RICARDO CHINO,RICKY FRUITS VEGETABLES,3804,BROADWAY,,,NEW YORK,NY,10032,1200,POINT (-73.94414 40.8349)
New York,725872,Store,A,METRO LOBBY NEWSSTAND VII INC,METRO LOBBY NEWSSTAND,1585,BROADWAY,,,NEW YORK,NY,10036,500,POINT (-73.98488 40.75996)
Bronx,725869,Store,JAC,GREENVILLAGE MEAT CORP,GREENVILLAGE MEAT,3758,WHITE PLAINS ROAD,,,BRONX,NY,10467,1500,POINT (-73.86302 40.88317)
Greene,725868,Store,JAC,ALZANAM ASSAMET,NYC DELI GROCERY,296,MAIN STREET,,,CATSKILL,NY,12414,1200,POINT (-73.86437 42.21629)
Schenectady,725817,Store,JAC,STEWARTS SHOPS CORP,STEWARTS SHOP #269,2150,BROADWAY,,,SCHENECTADY,NY,12306,1500,POINT (-73.96699 42.79717)
Kings,725785,Store,JAC,TIO MINIMARKET & DELI CORP,TIO MINIMARKET & DELI,2737,FULTON STREET,,,BROOKLYN,NY,11207,1200,POINT (-73.89363 40.67774)
Sullivan,725747,Store,JAC,HURLEYVILLE MOBIL MART INC,HURLEYVILLE MOBIL MART,213,MAIN STREET,,,HURLEYVILLE,NY,12747,1000,POINT (-74.67415 41.73587)
Washington,725705,Store,JAC,PRICE CHOPPER OPERATING CO INC,MARKET 32 BY PRICE CHOP,354,BROADWAY,,,FORT EDWARD,NY,12828,41000,POINT (-73.58654 43.28383)
Orange,725512,Store,A,STS2 INC,STS2,352,BROADWAY,,,NEWBURGH,NY,12550,600,POINT (-74.02376 41.50086)
Queens,725505,Store,JAC,R & M MAIN SUPERMARKET INC,R & M MAIN SUPERMARKET,76-05,MAIN STREET,,,FLUSHING,NY,11367,3000,POINT (-73.81952 40.72244)
Suffolk,725400,Store,JAC,RAMKALAWAN VASHTI & HUSSAIN DILAW,7 ELEVEN STORE #39794A,1320,FIFTH AVENUE,,,BAY SHORE,NY,11706,1500,POINT (-73.26239 40.73523)
Ulster,725382,Store,JAC,KANWAR GAS INC,KANWAR GAS,29,MAIN STREET,,,PINE BUSH,NY,12566,1400,POINT (-74.29927 41.60845)
Suffolk,725364,Store,JAC,SETAUKET SEAFOOD INC,SETAUKET SEAFOOD,230,MAIN STREET,,,EAST SETAUKET,NY,11733,1200,POINT (-73.10376 40.9425)
New York,725353,Store,JAC,BIG APPLE SMOKE SHOP & ORGANIC CO,BIG APPLE SMOKE SHOP,3542,BROADWAY,,,NEW YORK,NY,10031,1500,POINT (-73.9502 40.82663)
Niagara,725346,Store,A,RIDDHI INC,RIDDHI,502,MAIN STREET,,,NIAGARA FALLS,NY,14301,1400,POINT (-79.06011 43.0913)
New York,725306,Store,A,97 TOBACCO SHOP INC,97TOBACCO SHOP,2578,BROADWAY,,,NEW YORK,NY,10025,300,POINT (-73.97107 40.79549)
New York,725281,Store,A,ABC MART NC,ABC MART,3505,BROADWAY,,,NEW YORK,NY,10031,2000,POINT (-73.95131 40.82539)
Queens,725274,Store,JAC,BROADWAY DELI & GRILL INC,BREAD & BUTTER DELI & G,48-02,BROADWAY,,,ASTORIA,NY,11103,0,POINT (-73.91249 40.75592)
New York,725246,Store,JACH,THE PICKLE GUYS INC,THE PICKLE GUYS,357,GRAND STREET,,,NEW YORK,NY,10002,3000,POINT (-73.98773 40.71534)
Kings,725193,Store,JAC,COUNTRY COCO INC,COUNTRY COCO,3112-3114,CHURCH AVENUE,,,BROOKLYN,NY,11226,3800,POINT (-73.94814 40.65086)
New York,725126,Store,A,JUICE PRESS LLC THE,JUICE PRESS EQ21,670,BROADWAY,,,NEW YORK,NY,10012,0,POINT (-73.99517 40.72732)
Suffolk,725084,Store,JAC,GSAHUJA LLC,7 ELEVEN STR #37201A,827,BROADWAY,,,AMITYVILLE,NY,11701,0,POINT (-73.42712 40.7044)
Suffolk,725064,Store,JAC,AMITYVILLE DELI & GROCERY CORP,AMITYVILLE DELI & GROCE,579,BROADWAY,,,AMITYVILLE,NY,11701,0,POINT (-73.42281 40.69337)
New York,724956,Store,A,101 SMOKE SHOP CORP,101 SMOKE SHOP,2660,BROADWAY,,,NEW YORK,NY,10025,850,POINT (-73.96925 40.79795)
Kings,724936,Store,JAC,LIBERTY DELI & GRILL INC,LIBERTY DELI & GRILL,1184,BROADWAY,,,BROOKLYN,NY,11221,1500,POINT (-73.9275 40.69259)
New York,724814,Store,JAC,YAYA TEA GRAND CORP,YAYA TEA,206,GRAND STREET,,,NEW YORK,NY,10013,0,POINT (-73.99638 40.71901)
Erie,724623,Store,JACH,BABCIAS PIEROGI LLC,BABCIAS PIEROGI,999,BROADWAY,,,BUFFALO,NY,14212,495,POINT (-78.8375 42.89339)
Rockland,724621,Store,JAC,AZTECA GROCERY INC,AZTECA GROCERY,56,BROADWAY,,,HAVERSTRAW,NY,10927,1000,POINT (-73.96485 41.1985)
Queens,724477,Store,JAC,DI MARCOS BUTCHER SHOPPE LLC,DI MARCOS BUTCHER SHOPP,66-03,MYRTLE AVENUE,,,RIDGEWOOD,NY,11385,1500,POINT (-73.88817 40.70133)
Jefferson,724381,Store,JAC,GSG MINI MARTS INC,SUNOCO GAS STATION,1222,WASHINGTON STREET,,,WATERTOWN,NY,13601,0,POINT (-75.91367 43.96016)
Kings,724348,Store,JAC,KING OF FULTON DELI AND TOBACCO 1,KING OF FULTON DELI AND,2057,FULTON STREET,,,BROOKLYN,NY,11233,1000,POINT (-73.91103 40.6783)
Bronx,724308,Store,JAC,BROADWAY CONVENIENCE DELI GROCERY,BROADWAY CONVENIENCE DE,5219,BROADWAY,,,BRONX,NY,10463,0,POINT (-73.90934 40.87488)
Queens,724220,Store,JAC,107 GROCERY DELI CORP,107 GROCERY DELI,107-01,37TH AVENUE,,,CORONA,NY,11368,1500,POINT (-73.86105 40.75393)
New York,724218,Store,A,M & S CANDY & SMOKE SHOP INC,M & S CANDY & SMOKE SHO,1261,PARK AVENUE,,,NEW YORK,NY,10029,1500,POINT (-73.95172 40.78745)
Kings,724152,Store,JAC,HONG DA SUPERMARKET INC,HONG DA SUPERMARKET,2319,86TH STREET,,,BROOKLYN,NY,11214,1500,POINT (-73.99101 40.60021)
Queens,724119,Store,JAC,4 STAR DELI & GRILL CORP,4 STAR DELI & GRILL,218-30,MERRICK BOULEVARD,,,SPRINGFIELD GARDEN,NY,11413,1200,POINT (-73.75044 40.67933)
Orange,724029,Store,JAC,BROADWAY MEAT & PRODUCE INC,LA MARQUETA MEAT & PROD,223,BROADWAY,,,NEWBURGH,NY,12550,0,POINT (-74.01749 41.50003)
Kings,724023,Store,JAC,YEMEN DELI CORP,YEMEN DELI,561,GRAND STREET,,,BROOKLYN,NY,11211,1000,POINT (-73.94912 40.71114)
Bronx,724012,Store,JAC,LC GROCERY STORE CORP,LC GROCERY STORE,2155,GRAND CONCOURSE,,,BRONX,NY,10453,900,POINT (-73.90185 40.85487)
Queens,723894,Store,JAC,102-01 LUCKY STAR DELI & GROCERY,102-01 LUCKY STAR DELI,102-01,JAMAICA AVENUE,,,RICHMOND HILL,NY,11418,1000,POINT (-73.84531 40.69516)
Kings,723852,Store,JAC,GOLDEN CITY SUPERMARKET 1 INC,GOLDEN CITY SUPERMARKET,2217,86TH STREET,,,BROOKLYN,NY,11214,5000,POINT (-73.99329 40.60158)
Kings,723805,Store,JAC,JUICE PRESS LLC THE,JUICE PRESS 22,124,MONTAGUE STREET,,,BROOKLYN,NY,11201,600,POINT (-73.99442 40.69483)
Albany,723798,Store,JAC,K AND K ALBANY INC,K AND K ALBANY,607,BROADWAY,,,WATERVLIET,NY,12189,1000,POINT (-73.70519 42.71261)
Ulster,723434,Store,JAC,NAVJOT MART INC,FOOD MART,327,BROADWAY,,,KINGSTON,NY,12401,1200,POINT (-73.99245 41.92568)
Kings,723391,Store,JAC,XIANGFU GROCERY INC,XIANGFU GROCERY,5111,7TH AVENUE,,,BROOKLYN,NY,11220,1000,POINT (-74.00674 40.64163)
Dutchess,723382,Store,JAC,MYNG INC,HADDADS MIDDLE EASTERN,782,MAIN STREET,,,POUGHKEEPSIE,NY,12603,1500,POINT (-73.90205 41.69624)
Kings,723365,Store,JAC,AWESOME DELI 1 INC,AWESOME DELI 1,60,BROADWAY,,,BROOKLYN,NY,11249,800,POINT (-73.96624 40.71056)
New York,723261,Store,JAC,59-5 FRUIT & VEGETABLE CORP,MERCI MARKET,59,5TH AVENUE,,,NEW YORK,NY,10003,50000,POINT (-73.99423 40.73515)
Nassau,722851,Store,A,PRAMUKH 204 INC,KEVINS KORNER SMOKE & V,204,BROADWAY,,,BETHPAGE,NY,11714,2500,POINT (-73.47921 40.73778)
Chemung,722844,Store,A,DOLGEN NEW YORK LLC,DOLLAR GENERAL#16566,656,MAIN STREET,,,BREESPORT,NY,14816,0,POINT (-76.73537 42.17356)
Kings,722759,Store,JAC,STOP ONE EXPRESS DELI INC,STOP ONE EXPRESS DELI,2208,FULTON STREET,,,BROOKLYN,NY,11233,1000,POINT (-73.90814 40.67814)
Kings,722742,Store,JAC,AL SALAM HALAL MEAT & GROCERY INC,AL SALAM HALAL MEAT & G,7206,5TH AVENUE,,,BROOKLYN,NY,11209,2000,POINT (-74.02181 40.6315)
Bronx,722692,Store,JAC,MICHAELS DELI CORP,XPRESS MART,745,WHITE PLAINS ROAD,,,BRONX,NY,10473,800,POINT (-73.85814 40.82145)
Queens,722676,Store,JAC,WHITE COFFEE CORP,WHITE COFFEE CORP,19-35,STEINWAY STREET,,,ASTORIA,NY,11105,0,POINT (-73.90068 40.77725)
New York,722672,Store,JAC,CARIBBEAN FRIEND FOOD CORP,CARIBBEAN FRIEND FOOD C,3462,BROADWAY,,,NEW YORK,NY,10031,0,POINT (-73.95203 40.82411)
Orange,722553,Store,JAC,LETS GET FARMING LLC,RISE & ROOT FARM,94-96,MAIN STREET,,,CHESTER,NY,10918,800,POINT (-74.27725 41.35694)
Otsego,722552,Store,JAC,TIN BIN ALLEY,TIN BIN ALLEY,114,MAIN STREET,,,COOPERSTOWN,NY,13326,2500,POINT (-74.92535 42.70074)
Queens,722513,Store,A,MA NEWS GROCERY INC,MA NEWS GROCERY,79-23,NORTHERN BOULEVARD,,,JACKSON HEIGHTS,NY,11372,0,POINT (-73.88739 40.75532)
Delaware,722482,Store,JAC,BEBERTS MOROCCAN CONDIMENTS,BEBERTS CONDIMENTS CAFE,1164,MAIN STREET,,,FLEISCHMANNS,NY,12430,800,POINT (-74.52623 42.15598)
New York,722481,Store,JAC,CHERRY GOURMET DELI &GRCY 1 INC,CHERRY GOURMET DELI,1575,LEXINGTON AVENUE,,,NEW YORK,NY,10029,1800,POINT (-73.94869 40.78893)
New York,722450,Store,JAC,SHRI KRUSHNA CORP,SOHO NEW INTERNATIONAL,186,PRINCE STREET,,,NEW YORK,NY,10013,500,POINT (-74.0022 40.72642)
Kings,722434,Store,JAC,LEMON TREE FOOD MARKET CORP,LEMON TREE NATURAL MARK,387,GRAHAM AVENUE,,,BROOKLYN,NY,11211,1300,POINT (-73.94469 40.71639)
New York,722324,Store,A,PRESSED JUICERY NEW YORK LLC,PRESSED JUICERY,369,LEXINGTON AVENUE,,,NEW YORK,NY,10017,800,POINT (-73.97678 40.75044)
Kings,722302,Store,JAC,RINCON DELI GROCERY CORP,RINCON DELI GROCERY,2101,CORTELYOU ROAD,,,BROOKLYN,NY,11226,0,POINT (-73.95845 40.64391)
Kings,722295,Store,JAC,M&L FAMILY DELI GROCERY CORP,M&L FAMILY DELI GROCERY,4524,7TH AVENUE,,,BROOKLYN,NY,11220,1600,POINT (-74.00348 40.64477)
Montgomery,722290,Store,A,PRAMUKH TABACCO INC,VILLAGE SMOKE SHOP,84,MAIN STREET,,,FORT PLAIN,NY,13339,1500,POINT (-74.62437 42.93038)
New York,722276,Store,JAC,GHANSHYAM 2 DELI & GROCERY INC,BROADWAY WHOLESOME FOOD,3578,BROADWAY,,,NEW YORK,NY,10031,0,POINT (-73.94956 40.82749)
Queens,722201,Store,JAC,SUMUKH INC,DELI LICIOUS DELICATESS,7102,MYRTLE AVENUE,,,RIDGEWOOD,NY,11385,1200,POINT (-73.87982 40.70202)
Sullivan,722161,Store,JAC,KRISH FOOD MART INC,CITGO FOOD MART,5,MAIN STREET,,,LIVINGSTON MANOR,NY,12758,3000,POINT (-74.8246 41.90287)
Queens,721996,Store,A,ASTORIA QUEENS ENTERPRISES LLC,DEALS & DISCOUNTS,36-11,BROADWAY,,,ASTORIA,NY,11106,2500,POINT (-73.92093 40.75988)
New York,721913,Store,JAC,THIS & THAT PATISSERIE INC,CECI-CELA,14,DELANCEY STREET,,,NEW YORK,NY,10002,1800,POINT (-73.99321 40.72016)
Kings,721879,Store,JAC,KINGS MART LTD,KINGS MART,58,GRAHAM AVENUE,,,BROOKLYN,NY,11206,2400,POINT (-73.94245 40.7028)
New York,721849,Store,JAC,64 FULTON ST FOOD CORP,SEAPORT DELI,64,FULTON STREET,,,NEW YORK,NY,10038,2500,POINT (-74.0052 40.70889)
New York,721767,Store,JAC,GOLDEN DELI CORP,GOLDEN DELI,3377,BROADWAY,,,NEW YORK,NY,10031,0,POINT (-73.95423 40.82141)
Richmond,721736,Store,A,ISMAEEL C PHARMACY INC,ISMAEEL PHARM,280,BROADWAY,,,STATEN ISLAND,NY,10310,1000,POINT (-74.11715 40.6344)
Kings,721693,Store,JAC,DON POLI MEAT MARKET CORP,DON POLI MEAT MARKET,3143,FULTON STREET,,,BROOKLYN,NY,11208,1000,POINT (-73.87885 40.68177)
Kings,721667,Store,A,5TH AVE DISCOUNT STORE INC,5TH AVE DISCOUNT STORE,3918,5TH AVENUE,,,BROOKLYN,NY,11232,1800,POINT (-74.00435 40.65083)
Bronx,721644,Store,JAC,TOP CHOICE MEAT MARKET CORP,TOP CHOICE MEAT MARKET,3600,WHITE PLAINS ROAD,,,BRONX,NY,10467,2200,POINT (-73.86509 40.87929)
New York,721538,Store,JAC,JOES GOURMET DELI INC,JOES GOURMET DELI,920,COLUMBUS AVENUE,,,NEW YORK,NY,10025,600,POINT (-73.9633 40.79867)
Kings,721517,Store,JAC,FOOD U DESIRE 2 CORP,FOOD U DESIRE 2,423,7TH AVENUE,,,BROOKLYN,NY,11215,2000,POINT (-73.98416 40.66378)
New York,721378,Store,A,MERCADITO DEL CIBAO CORP,MERCADITO DEL CIBAO,3814,BROADWAY,,,NEW YORK,NY,10032,1500,POINT (-73.94399 40.83512)
Kings,721336,Store,A,KHALID MOATH,FAMILY DELI & GROCERY I,1485,FLATBUSH AVENUE,,,BROOKLYN,NY,11210,0,POINT (-73.94912 40.63421)
Kings,721328,Store,JAC,CHABELITA S PLACE CORP,CHABELITA S PLACE,3240,FULTON STREET,,,BROOKLYN,NY,11208,1200,POINT (-73.87565 40.68265)
Albany,721147,Store,A,FAMILY DOLLAR OF NY INC,FAMILY DOLLAR STORE #23,28,BROADWAY,,,ALBANY,NY,12204,5000,POINT (-73.73456 42.67852)
New York,721123,Store,JAC,PELAEZ PRODUCE CORP,PELAEZ PRODUCE,3557,BROADWAY,,,NEW YORK,NY,10031,1500,POINT (-73.9502 40.82693)
Kings,721100,Store,JAC,DIANA INTERNATIONAL INC,DIANA INTERNATIONAL,308,KINGS HIGHWAY,,,BROOKLYN,NY,11223,1000,POINT (-73.97883 40.60502)
Suffolk,721074,Store,JAC,BROADWAY BAY RESTAURANT INC,SALTAIRE MARKET,100,BROADWAY,,,SALT AIRE,NY,11706,0,POINT (-73.19829 40.64028)
Rensselaer,721040,Store,JAC,DUNCO INC,FARM TO MARKET COUNTRY,2,MAIN STREET,,,POESTENKILL,NY,12140,1500,POINT (-73.56463 42.6903)
New York,720987,Store,JAC,EASY 602 FOOD CORP,EASY 602 FOOD,3371,BROADWAY,,,NEW YORK,NY,10031,0,POINT (-73.95425 40.82138)
Bronx,720951,Store,A,JAMBO GROCERY AND CANDY CORP,JAMBO GROCERY AND CANDY,2233A,GRAND CONCOURSE,,,BRONX,NY,10453,800,POINT (-73.90085 40.85627)
Bronx,720908,Store,JAC,EMPIRE GOURMET DELI LLC,EMPIRE GOURMET DELI,3764-64A,WHITE PLAINS ROAD,,,BRONX,NY,10467,1500,POINT (-73.86291 40.88337)
Kings,720837,Store,JAC,POMEGRANAT DELI INC,POMEGRANAT DELI,1064,BROADWAY,,,BROOKLYN,NY,11221,1000,POINT (-73.93143 40.69473)
Ulster,720745,Store,JAC,SPEEDWAY LLC,SPEEDWAY #07875,307,BROADWAY,,,KINGSTON,NY,12401,1800,POINT (-73.99146 41.92547)
Bronx,720371,Store,JAC,4185 ENTERPRISE CORP,4185 ENTERPRISE,4185,WHITE PLAINS ROAD,,,BRONX,NY,10466,1500,POINT (-73.85751 40.89323)
Kings,720166,Store,A,A&B BUSINESS CORP,A&B BUSINESS,2781,86TH STREET,,,BROOKLYN,NY,11223,4000,POINT (-73.97964 40.59337)
Queens,720076,Store,JAC,TOKYO MARKET INC,TOKYO MARKET,33-15,BROADWAY,,,ASTORIA,NY,11106,0,POINT (-73.9232 40.76095)
Kings,720040,Store,JAC,KEITA WEST AFRICAN MARKET INC,KEITA WEST AFRICAN MARK,1225,BROADWAY,,,BROOKLYN,NY,11221,800,POINT (-73.92613 40.69182)
Kings,719767,Store,JAC,ALYAMANI 99 CENTS PLUS INC,ALYAMANI 99 CENTS PLUS,1703,BROADWAY,,,BROOKLYN,NY,11207,1000,POINT (-73.91191 40.6837)
Dutchess,719722,Store,JAC,ALEX FOOD AND GROCERY INC,ALEX FOOD AND GROCERY,421,MAIN STREET,,,POUGHKEEPSIE,NY,12601,0,POINT (-73.9226 41.70193)
Bronx,719651,Store,A,CHEN JIAN DONG,DC DISCOUNT STORE INC,559,EAST TREMONT AVENUE,,,BRONX,NY,10457,1300,POINT (-73.8949 40.84647)
Kings,719499,Store,A,BROADWAY FOOD MART INC,DOLLAR JUNCTION,1550,BROADWAY,,,BROOKLYN,NY,11221,12000,POINT (-73.91611 40.68609)
Kings,719425,Store,JAC,TIO DELI GROCERY CORP,TIO DELI GROCERY,3002,FULTON STREET,,,BROOKLYN,NY,11208,0,POINT (-73.88397 40.68018)
Kings,719300,Store,A,KCAID PHARMACY INC,PREFERRED PHARMACY,1771,BROADWAY,,,BROOKLYN,NY,11207,0,POINT (-73.90973 40.68248)
New York,719221,Store,JAC,STOP 1 KING GOURMET DELI INC,STOP 1 KING GOURMET DEL,1775,LEXINGTON AVENUE,,,NEW YORK,NY,10029,0,POINT (-73.94434 40.79491)
Rockland,719177,Store,JAC,LUNA SERGIO DOMINGUEZ,LUPITA PRODUCTOS MEXICA,43,BROADWAY,,,HAVERSTRAW,NY,10927,0,POINT (-73.96478 41.19818)
New York,719152,Store,A,MILLENNIUM SMOKE & NEWS INC,MILLENNIUM SMOKE & NEWS,2345,BROADWAY,,,NEW YORK,NY,10024,600,POINT (-73.9769 40.78797)
Kings,719143,Store,JAC,CHAUNCEY 1763 DELI GROCERY INC,CHAUNCEY 1763 DELI GROC,1763,BROADWAY,,,BROOKLYN,NY,11207,1200,POINT (-73.9102 40.68275)
Albany,719028,Store,A,DOLLAR TREE STORES INC,DOLLAR TREE #05680,1619,BROADWAY,,,WATERVLIET,NY,12189,0,POINT (-73.70021 42.72876)
New York,719006,Store,JAC,DM CHAUDHARI LLC,7 ELEVEN STORE #35710A,311,BROADWAY,,,NEW YORK,NY,10007,2000,POINT (-74.00517 40.7155)
Bronx,718972,Store,JAC,245 BROADWAY MARKET CORP,245 BROADWAY MARKET,6029,BROADWAY,,,BRONX,NY,10471,1200,POINT (-73.8974 40.89155)
Queens,718870,Store,JAC,7 BAGELS CORP,7 BAGELS,85-15,MAIN STREET,,,JAMAICA,NY,11435,0,POINT (-73.81907 40.70971)
Queens,718862,Store,A,RUBYS CANDY & GROCERY INC,RUBYS CANDY & GROCERY,25-44,BROADWAY,,,ASTORIA,NY,11106,0,POINT (-73.92711 40.76278)
Suffolk,718848,Store,JAC,ZRK CORP,ZRK,490,BROADWAY,,,AMITYVILLE,NY,11701,0,POINT (-73.42019 40.68893)
Queens,718818,Store,JAC,MERRICK MEAT MARKET INC.,FINE FARE,108-30,MERRICK BOULEVARD,,,JAMAICA,NY,11433,0,POINT (-73.786 40.69772)
New York,718791,Store,JAC,BROADWAY FAMOUS DELI CORP,BROADWAY FAMOUS DELI,4879,BROADWAY,,,NEW YORK,NY,10034,0,POINT (-73.92365 40.86682)
New York,718744,Store,JAC,117 LEXINGTON INC,TASTY PICK DELI AND GRI,1878,LEXINGTON AVENUE,,,NEW YORK,NY,10035,500,POINT (-73.94127 40.79911)
New York,718687,Store,JAC,JENNY FOOD CORP,JENNY FOOD,2026,7TH AVENUE,,,NEW YORK,NY,10027,0,POINT (-73.9501 40.80666)
Queens,718621,Store,A,FRIENDLY DISCOUNT STORE INC,FRIENDLY DISCOUNT STORE,42-16,BROADWAY,,,ASTORIA,NY,11103,1800,POINT (-73.91687 40.75797)
Kings,718365,Store,JAC,DEVI GROCERY DELI INC,DEVI GROCERY DELI,4023,5TH AVENUE,,,BROOKLYN,NY,11232,1500,POINT (-74.00498 40.65022)
New York,718193,Store,JAC,COLUMBIA GOURMET DELI CORP,COULUMBIA GOURMET DELI,3905,BROADWAY,,,NEW YORK,NY,10032,1800,POINT (-73.94203 40.8381)
New York,718176,Store,A,VITAMIN SHOPPE INC,VITAMIN SHOPPE #2,2086A,BROADWAY,,,NEW YORK,NY,10023,1000,POINT (-73.9818 40.77838)
Nassau,718075,Store,JAC,SWEET PEA 1 CORP,SWEET PEA,1483,BROADWAY,,,HEWLETT,NY,11557,2000,POINT (-73.6957 40.64333)
Bronx,718022,Store,A,AGYEMAN NANA A,OBAAPA AFRICAN & CARIBE,2347,GRAND CONCOURSE,,,BRONX,NY,10468,450,POINT (-73.89928 40.8589)
Suffolk,717946,Store,JAC,MR BROADWAY DELI CORP,MR BROADWAY DELI,53A,BROADWAY,,,ROCKY POINT,NY,11778,0,POINT (-72.9239 40.94931)
Queens,717916,Store,JAC,126 FOOD CORP,126 FOOD,126-04,JAMAICA AVENUE,,,RICHMOND HILL,NY,11418,500,POINT (-73.82458 40.70124)
Orange,717877,Store,JAC,BROADWAY MART CORP,BROADWAY MART,828,BROADWAY,,,NEWBURGH,NY,12550,1500,POINT (-74.04676 41.50261)
New York,717864,Store,JAC,BROAD FISH MARKET INC,BROAD FISH MARKET,3519,BROADWAY,,,NEW YORK,NY,10031,1600,POINT (-73.95091 40.82595)
Kings,717703,Store,JAC,PRINCE BROADWAY DELI CORP,PRINCE BROADWAY,1432,BROADWAY,,,BROOKLYN,NY,11221,1200,POINT (-73.91984 40.6882)
Nassau,717696,Store,JAC,R & E BUTCHER SHOP INC,R & E BUTCHER SHOP,13,MAIN STREET,,,HEMPSTEAD,NY,11550,1000,POINT (-73.62373 40.70656)
New York,717468,Store,JAC,LINDO AMANECER GROCERY CORP,LINDO AMANECER GROCERY,4099,BROADWAY,,,NEW YORK,NY,10032,3000,POINT (-73.93888 40.8445)
New York,717156,Store,JAC,GALAXY GOURMET INC,GALAXY GOURMET,3778,BROADWAY,,,NEW YORK,NY,10032,2000,POINT (-73.94486 40.83392)
Queens,717070,Store,JAC,GREENBAY ESSENTIALS INC,GREENBAY ESSENTIALS,32-19,BROADWAY,,,ASTORIA,NY,11106,1500,POINT (-73.92394 40.7613)
Orange,716858,Store,JAC,RHITA GROCERY & DELI INC,RHITA GROCERY & DELI,193,BROADWAY,,,NEWBURGH,NY,12550,1000,POINT (-74.01592 41.50034)
Bronx,716813,Store,A,BIMBO BAKERIES USA INC,ENTENMANN BAKERY OUTLET,5625,BROADWAY,,,BRONX,NY,10463,1500,POINT (-73.90417 40.87987)
Kings,716803,Store,JAC,SUBWAY DELI CORP,SUBWAY DELI,1717,BROADWAY,,,BROOKLYN,NY,11207,2000,POINT (-73.91142 40.68342)
Kings,716705,Store,JAC,1165 FRESH PRODUCE CORP,PREMIER FOOD FRESH MARK,1165,BROADWAY,,,BROOKLYN,NY,11221,5500,POINT (-73.92815 40.69297)
Saratoga,716695,Store,JAC,SARATOGA TEA & BEE CO LLC,SARATOGA TEA & HONEY CO,348,BROADWAY,,,SARATOGA SPRINGS,NY,12866,1600,POINT (-73.78517 43.08024)
New York,716689,Store,A,LOT LESS NYC INC,LOT LESS CLOSEOUTS,299,BROADWAY,,,NEW YORK,NY,10007,4000,POINT (-74.00559 40.71503)
New York,716001,Store,A,BED BATH & BEYOND INC,BED BATH & BEYOND #565,1932,BROADWAY,,,NEW YORK,NY,10023,60000,POINT (-73.98207 40.77265)
Rensselaer,715958,Store,JAC,MYANMAR ASIAN INC,CAPITAL VIEW DELI,1100,BROADWAY,,,RENSSELAER,NY,12144,2500,POINT (-73.73796 42.64966)
New York,715934,Store,A,155TH STREET AUTO CENTER INC,155TH STREET AUTO CENTE,3740,BROADWAY,,,NEW YORK,NY,10032,1800,POINT (-73.94552 40.83301)
Orange,715842,Store,JAC,MAIN STREET GROCERY CORP,MAIN STREET GROCERY,327,MAIN STREET,,,HIGHLAND FALLS,NY,10928,0,POINT (-73.96466 41.37118)
Bronx,715818,Store,JAC,KARINA ENTERPRISES INC,AFRICAN MARKET,2075,GRAND CONCOURSE,,,BRONX,NY,10453,1000,POINT (-73.90299 40.85346)
Westchester,715802,Store,JAC,TWISTED BRANCH LLC THE,THE TWISTED BRANCH,24,BROADWAY,,,VALHALLA,NY,10595,550,POINT (-73.77267 41.07364)
New York,715766,Store,JAC,LAI LAI MINI MART & DISCOUNT INC,LAI LAI MINI MART & DIS,4520,BROADWAY,,,NEW YORK,NY,10040,0,POINT (-73.93169 40.85851)
Ulster,715711,Store,JAC,ALZANAM ASSAMET,NY GROCERY DELI,702,BROADWAY,,,KINGSTON,NY,12401,1500,POINT (-74.00885 41.93117)
Erie,715592,Store,A,DOLLAR TREE STORES INC,DOLLAR TREE,12775,BROADWAY,,,ALDEN,NY,14004,8000,POINT (-78.51079 42.895)
Ulster,715499,Store,JAC,595 KINGSTON MEAT MARKET CORP,595 KINGSTON MEAT MARKE,595,BROADWAY,,,KINGSTON,NY,12401,8000,POINT (-74.00406 41.92939)
Cattaraugus,715176,Store,JABC,PARKVIEW MARKETS LLC,SANDERS PARKVIEW,545,BROAD STREET,,,SALAMANCA,NY,14779,23000,POINT (-78.73554 42.1582)
Rockland,714789,Store,JAC,RD GROCERY INC,RD GROCERY,21,BROADWAY,,,HAVERSTRAW,NY,10927,1600,POINT (-73.96464 41.19752)
Chemung,714746,Store,JAC,JAMQSB INC,QUICK STOP BEVERAGE AND,900,BROADWAY,,,ELMIRA,NY,14904,0,POINT (-76.81687 42.0631)
Kings,714426,Store,JAC,CATHYS GREEN GOLD INC,CATHYS GREEN GOLD,1569,BROADWAY,,,BROOKLYN,NY,11207,2200,POINT (-73.91559 40.68579)
Suffolk,714415,Store,JAC,H&V GAS INC,H&V GAS,624,BROADWAY,,,AMITYVILLE,NY,11701,1400,POINT (-73.42485 40.69658)
Bronx,714053,Store,JAC,LOS HIJOS DE CHORRO DELI GROCERY,LOS HIJOS DE CHORRO DEL,1278,GRAND CONCOURSE,,,BRONX,NY,10456,2000,POINT (-73.91586 40.83617)
Erie,713899,Store,JAC,WNY ENERGY INC,CORNER MARKET,2323,BROADWAY,,,BUFFALO,NY,14212,1700,POINT (-78.78905 42.89999)
Bronx,713695,Store,A,ALDI INC (NEW YORK),ALDI 5,5532,BROADWAY,,,BRONX,NY,10463,0,POINT (-73.90563 40.8778)
Queens,713571,Store,JAC,A & N DELI & GROCERY INC,A & N DELI & GROCERY,34-26,STEINWAY STREET,,,LONG ISLAND CITY,NY,11101,800,POINT (-73.92144 40.75597)
Queens,713547,Store,JAC,5 DE MAYO FOOD MARKET CORP,5 DE MAYO FOOD MARKET,81-06,ROOSEVELT AVENUE,,,JACKSON HEIGHTS,NY,11372,0,POINT (-73.8845 40.74757)
Saratoga,713385,Store,A,PS FOODS INC,SAVORY PANTRY THE,486,BROADWAY,,,SARATOGA SPRINGS,NY,12866,1100,POINT (-73.78408 43.08399)
New York,713300,Store,A,ADNAN ISMAIL,HEIGHTS CONVENIENCE STO,4243,BROADWAY,,,NEW YORK,NY,10033,1200,POINT (-73.9363 40.84961)
Kings,713125,Store,JAC,GOLD STAR DELI & GRILL CORP,GOLD STAR DELI & GRILL,1565,BROADWAY,,,BROOKLYN,NY,11207,0,POINT (-73.91573 40.68587)
Queens,712774,Store,A,KYAN NYO INC,99 CENT PLUS,48-04,BROADWAY,,,ASTORIA,NY,11103,1000,POINT (-73.91243 40.75589)
Kings,712718,Store,JAC,MYRTLE GOURMET DELI INC,MYRTLE GOURMET DELI,954,BROADWAY,,,BROOKLYN,NY,11221,1200,POINT (-73.93492 40.69679)
New York,712206,Store,A,LIA DELI GROCERY CORP,LIA DELI GROCERY,4648,BROADWAY,,,NEW YORK,NY,10040,2000,POINT (-73.93008 40.86186)
Queens,712090,Store,JAC,FRESH FRUIT & CAFE ORGANIC INC,FRESH FRUITS&CAFE,33-03,BROADWAY,,,ASTORIA,NY,11106,1000,POINT (-73.92355 40.76111)
Erie,711962,Store,A,BIG LOTS STORES LLC,BIG LOTS #391,5165,BROADWAY,,,DEPEW,NY,14043,19000,POINT (-78.68335 42.90133)
Queens,711912,Store,JAC,AYESHA R CORP,BROADWAY CAFE,41-09,BROADWAY,,,ASTORIA,NY,11103,800,POINT (-73.91785 40.75845)
Schenectady,711802,Store,JAC,KASSEM ARREF H,M&D CONVENIENCE,2635,BROADWAY,,,SCHENECTADY,NY,12306,1500,POINT (-73.974 42.79425)
Bronx,711719,Store,JAC,AF RIVERDALE MEAT MARKET CORP,AF RIVERDALE MEAT MARKE,5587,BROADWAY,,,BRONX,NY,10463,1600,POINT (-73.90467 40.87918)
Ulster,711108,Store,JAC,CRUZ DAVID & ERIKA,EL MERCADITO GROCERY,344,BROADWAY,,,KINGSTON,NY,12401,2000,POINT (-73.99315 41.92583)
New York,710946,Store,A,CVS ALBANY LLC,CVS PHARMACY #4014,2182,BROADWAY,,,NEW YORK,NY,10024,12000,POINT (-73.98063 40.78263)
Westchester,710934,Store,JAC,778 MAIN STREET DELI CORP,778 MAIN STREET DELI,778,MAIN STREET,,,NEW ROCHELLE,NY,10805,800,POINT (-73.79067 40.90242)
New York,710917,Store,JAC,CHELSEA MARKET INC 1,CHELSEA MARKET,259,7TH AVENUE,,,NEW YORK,NY,10001,1300,POINT (-73.99482 40.74522)
Bronx,710759,Store,JAC,ESPERANZA GROCERY CORP,ESPERANZA GROCERY,1665,GRAND CONCOURSE,,,BRONX,NY,10452,1000,POINT (-73.91184 40.84414)
Kings,710737,Store,JAC,J+L GROCERY AND DELI CORP,J+L GROCERY AND DELI,915,BROADWAY,,,BROOKLYN,NY,11206,1200,POINT (-73.93633 40.6976)
Queens,710673,Store,JAC,85TH STREET DELI INC,85TH STREET DELI INC,85-01,JAMAICA AVENUE,,,WOODHAVEN,NY,11421,0,POINT (-73.85901 40.69253)
Suffolk,710578,Store,JAC,CANDIED ANCHOR LLC THE,THE CANDIED ANCHOR,721,MAIN STREET,,,MONTAUK,NY,11954,225,POINT (-72.36256 41.10885)
New York,710567,Store,JAC,LA FAMILIA MINI GROCERY INC,LA FAMILIA MINI GROCERY,4844,BROADWAY,,,NEW YORK,NY,10034,500,POINT (-73.92467 40.86645)
Kings,710078,Store,JAC,11 UM FOOD CORP,CITY ACRES MARKET,11,BROADWAY,,,BROOKLYN,NY,11249,15000,POINT (-73.96828 40.71079)
Queens,709996,Store,JAC,ASTORIA BIER AND CHEESE INC,ASTORIA BIER AND CHEESE,34-14,BROADWAY,,,ASTORIA,NY,11106,2500,POINT (-73.92247 40.76061)
Queens,709822,Store,JAC,ADRIATIC TRADING INC,ADRIATIC MEATS,44-10,BROADWAY,,,ASTORIA,NY,11103,800,POINT (-73.91545 40.7573)
Queens,709256,Store,A,MADHU GROCERY INC,MADHU GROCERY,34-04,BROADWAY,,,ASTORIA,NY,11106,500,POINT (-73.92278 40.76075)
Suffolk,709000,Store,A,GREENLAWN DAIRY MART INC,GREENLAWN DAIRY MART,100,BROADWAY,,,GREENLAWN,NY,11740,500,POINT (-73.36437 40.86669)
New York,708796,Store,JAC,KING MEAT CORP,SHOP FAIR,3871,BROADWAY,,,NEW YORK,NY,10032,15000,POINT (-73.94291 40.83689)
Kings,707481,Store,JAC,ALJANOUB NATURAL DELI CORP,ALJANOUB NATURAL DELI,740,BROADWAY,,,BROOKLYN,NY,11206,1400,POINT (-73.94224 40.70092)
Bronx,707475,Store,JAC,OSEI KROM AFRICAN CARRIBEAN MARKE,EYE ADOM,2255,GRAND CONCOURSE,,,BRONX,NY,10453,850,POINT (-73.9007 40.85649)
New York,706986,Store,JAC,RSJ  GROUP CORP,TENBAKU,2135,BROADWAY,,,NEW YORK,NY,10023,300,POINT (-73.98143 40.78098)
Kings,706858,Store,JAC,MAGIC GROCERY CORP,MAGIC GROCERY,301,CHURCH AVENUE,,,BROOKLYN,NY,11218,1200,POINT (-73.97724 40.64373)
Bronx,706621,Store,A,NY 99 CENTS AND MORE CORP,NY 99 CENTS AND MORE,5213,BROADWAY,,,BRONX,NY,10463,1100,POINT (-73.90949 40.87477)
Queens,706615,Store,A,LUCKY HUANG GROCERY STORE INC,LUCKY HUANG GROCERY,82-61,BROADWAY,,,ELMHURST,NY,11373,500,POINT (-73.88123 40.74201)
New York,706422,Store,A,R B MART INC,DOLLAR MART,3848,BROADWAY,,,NEW YORK,NY,10032,1500,POINT (-73.94323 40.83616)
New York,706405,Store,JAC,SPACE 86 CORP,SPACE MARKET,524,COLUMBUS AVENUE,,,NEW YORK,NY,10024,2100,POINT (-73.97255 40.78605)
Kings,706209,Store,JAC,AVNER KOSHER FISH MARKET INC,AVNER KOSHER FISH MARKE,521,KINGS HIGHWAY,,,BROOKLYN,NY,11223,15000,POINT (-73.97022 40.60441)
Kings,706198,Store,JAC,J&E MEAT & PRODUCE CORP,SHOP FAIR,385,BROADWAY,,,BROOKLYN,NY,11211,7000,POINT (-73.95447 40.70723)
Orange,705960,Store,JAC,ZACARIAS GREGORIO MANUEL,JHOSTIN GROCERY & DELI,408,BROADWAY,,,NEWBURGH,NY,12550,2000,POINT (-74.02634 41.50105)
New York,705810,Store,A,COMMUNITY CANDY CORP,COMMUNITY CANDY,3513,BROADWAY,,,NEW YORK,NY,10031,1200,POINT (-73.95121 40.82554)
Queens,705737,Store,JAC,US SUPERMARKET INC,US SUPERMARKET,82-66,BROADWAY,,,ELMHURST,NY,11373,7000,POINT (-73.8811 40.74141)
Albany,705714,Store,A,HASTINGS JOHN,JOHNS LAST STAND,625,BROADWAY,,,ALBANY,NY,12207,800,POINT (-73.74932 42.65249)
New York,705693,Store,JAC,ABC FOOD CENTER INC,PAPASITOS FOOD MARKET,3605,BROADWAY,,,NEW YORK,NY,10031,3000,POINT (-73.94893 40.82866)
Rockland,705562,Store,JAC,LA BODEGA GROCERY CORP,LA BODEGA,31,BROADWAY,,,HAVERSTRAW,NY,10927,0,POINT (-73.96472 41.19791)
Queens,705498,Store,A,GREEN GROCERY & CONVENIENCE LLC,GREEN GROCERY & CONVENI,82-81,BROADWAY,,,ELMHURST,NY,11373,2000,POINT (-73.88047 40.74144)
Queens,705490,Store,JAC,HIMALAYAN DELI INC,MID WOOD DELI & GROCERY,86-31,BROADWAY,,,ELMHURST,NY,11373,0,POINT (-73.87721 40.73762)
New York,705488,Store,JAC,CARREON GROCERY DELI INC,CARREON GROCERY DELI,4975,BROADWAY,,,NEW YORK,NY,10034,0,POINT (-73.91938 40.86821)
Queens,705355,Store,JAC,48 BODEGA INC,48 BODEGA,47-20A,BROADWAY,,,ASTORIA,NY,11103,1000,POINT (-73.91275 40.75604)
Queens,705203,Store,A,BROADWAY CORNER STORE CORP,BROADWAY CORNER STORE,38-02A,BROADWAY,,,ASTORIA,NY,11103,800,POINT (-73.91966 40.75929)
Albany,704964,Store,JAC,PEACOCK INC,PEACOCK,795,BROADWAY,,,ALBANY,NY,12207,2000,POINT (-73.74791 42.65787)
Bronx,704877,Store,JAC,GRACE SEAFORD CORP,GRACE SEAFOOD,4363,WHITE PLAINS ROAD,,,BRONX,NY,10466,800,POINT (-73.85514 40.8975)
Westchester,704646,Store,JAC,CHESTNUT MART INC,CHESTNUT MART INC - 430,430,BROADWAY,,,DOBBS FERRY,NY,10522,1200,POINT (-73.86917 41.01586)
Nassau,704242,Store,JAC,1700 BROADWAY MANAGEMENT LTD,7 ELEVEN STORE #34757A,1700,BROADWAY,,,HEWLETT,NY,11557,2100,POINT (-73.69008 40.6475)
Bronx,704098,Store,JAC,320 FAIR FARM FOOD CORP,FINE FARE,320,EAST GUN HILL ROAD,,,BRONX,NY,10467,3000,POINT (-73.87375 40.87891)
Queens,704018,Store,JAC,G C SALUMERIA INC,D&F ITALIAN DELI,35-17,BROADWAY,,,ASTORIA,NY,11106,1500,POINT (-73.92153 40.76017)
Nassau,703708,Store,A,TUTAL CONVENIENCE INC,TUTAL CONVENIENCE,567A,BROADWAY,,,MASSAPEQUA,NY,11758,600,POINT (-73.46888 40.68195)
Kings,703559,Store,JAC,STAY FRESH DELI & GRILL CORP,STAY FRESH DELI & GRILL,1695A,BROADWAY,,,BROOKLYN,NY,11207,1500,POINT (-73.9122 40.68387)
Kings,702966,Store,JAC,B & K FISH MINI MARKET INC,B&K FISH MINI MARKET,1161,BROADWAY,,,BROOKLYN,NY,11221,1500,POINT (-73.92819 40.69299)
Bronx,702833,Store,JAC,AD 2096 GRAND CORP,CONCOURSE FOOD PLAZA,2096,GRAND CONCOURSE,,,BRONX,NY,10457,9000,POINT (-73.90212 40.85402)
New York,702721,Store,JAC,GLORY EXPRESS INC,GLORY EXPRESS @ ZABARS,2245,BROADWAY,,,NEW YORK,NY,10024,60,POINT (-73.97939 40.78478)
New York,702684,Store,JAC,BAHAMAS DELI CORP,BAHAMAS DELI,3137,BROADWAY,,,NEW YORK,NY,10027,1500,POINT (-73.95991 40.8137)
Queens,702566,Store,JAC,YS FOOD CORP,VITELIOS MARKET PLACE,71-76,YELLOWSTONE BOULEVARD,,,FOREST HILLS,NY,11375,15000,POINT (-73.85531 40.72082)
Rockland,702540,Store,JAC,FERNANDEZ ROJAS GROUP LLC,FERNANDEZ ROJAS GROUP,41,MAIN STREET,,,HAVERSTRAW,NY,10927,0,POINT (-73.9627 41.19651)
Bronx,702445,Store,JAC,JOY'S DELI GROCERY CORP,JOY'S DELI GROCERY,1400,GRAND CONCOURSE,,,BRONX,NY,10456,1200,POINT (-73.91349 40.83885)
New York,702409,Store,JAC,DUANE READE ET AL PTRS,DUANE READE #14497,100,BROADWAY,,,NEW YORK,NY,10005,0,POINT (-74.01151 40.70798)
Orange,702306,Store,JAC,JGAJ PETROLEUM INC,JGAJ PETROLEUM,310,BROADWAY,,,NEWBURGH,NY,12550,2000,POINT (-74.02164 41.50073)
Rockland,702299,Store,JAC,WATSON JACQUELINE,CESPEDES GROCERY & MEAT,64,BROADWAY,,,HAVERSTRAW,NY,10927,1500,POINT (-73.96504 41.19887)
New York,702290,Store,A,IT' SUGAR LLC,ITS SUGAR,1870,BROADWAY,,,NEW YORK,NY,10023,1000,POINT (-73.98202 40.7701)
Queens,702193,Store,JAC,JC SUSHI USA INC,JC SUSHI USA,3206,BROADWAY,,,ASTORIA,NY,11106,300,POINT (-73.92433 40.76148)
Ulster,701993,Store,JAC,SUN CONURE PETROLEUM INC,MOBIL CORNER STORE,3577,MAIN STREET,,,STONE RIDGE,NY,12484,1800,POINT (-74.14033 41.85175)
Queens,701965,Store,JAC,VALERY GROCERY CORP,VALERY GROCERY,191-02,JAMAICA AVENUE,,,HOLLIS,NY,11423,1200,POINT (-73.76851 40.7126)
Kings,672236,Store,A,GL STAR GROUP INC,GL STAR GROUP,819,BROADWAY,,,BROOKLYN,NY,11206,4000,POINT (-73.93945 40.69936)
Kings,672218,Store,JAC,293 BROADWAY DELI&GROCERY CORP,293 BROADWAY DELI&GRCRY,293,BROADWAY,,,BROOKLYN,NY,11211,1000,POINT (-73.9582 40.70852)
Kings,671961,Store,JAC,LORIMER EXPRESS FOOD INC,LORIMER EXPRESS FOOD,574,BROADWAY,,,BROOKLYN,NY,11206,1000,POINT (-73.94767 40.704)
Queens,671889,Store,JAC,GREENBAY MARKETPLACE CORP,GREENBAY MARKETPLACE,32-06,BROADWAY,,,ASTORIA,NY,11106,2500,POINT (-73.92433 40.76148)
Kings,671116,Store,JAC,J VASQUEZ MEAT CORP,METROPOLITAN CITYMARKET,1142,BEDFORD AVENUE,,,BROOKLYN,NY,11216,7000,POINT (-73.95428 40.68527)
Kings,670929,Store,JAC,ROCKY DELI GROCERY INC,ROCKY DELI GROCERY,590,BROADWAY,,,BROOKLYN,NY,11206,1200,POINT (-73.94722 40.70375)
Kings,670758,Store,JAC,COVERT SUPERMARKET LLC,SUPER PIONEER SUPERMARK,1657,BROADWAY,,,BROOKLYN,NY,11207,10000,POINT (-73.91324 40.68447)
Kings,670550,Store,JAC,STAY FRESH GRILL II CORP,STAY FRESH GRILL,889,BROADWAY,,,BROOKLYN,NY,11206,2500,POINT (-73.93711 40.69804)
Queens,670393,Store,JAC,1BOSSRK MINI MART INC,1BOSSRK MINI MART,95-13,JAMAICA AVENUE,,,WOODHAVEN,NY,11421,0,POINT (-73.84983 40.69437)
Richmond,641548,Store,JAC,JUQUILITA LAUNDRY & DELI CORP,JUQUILITA LAUNDRY DELI,343,BROADWAY,,,STATEN ISLAND,NY,10310,4000,POINT (-74.11686 40.63283)
Richmond,641241,Store,JAC,ABBAS MAHAR A,NEW KING FOOD,281,BROADWAY,,,STATEN ISLAND,NY,10310,1500,POINT (-74.11716 40.63446)
Queens,639276,Store,JAC,GINSENG 1668 & HERBS INC,GINSENG 1668 & HERBS,8110A,BROADWAY,,,ELMHURST,NY,11373,1000,
Queens,639191,Store,JAC,ELMHURST MEXICAN GROCERY CORP,ELMHURST MEXICAN GROCRY,80-03,BROADWAY,,,ELMHURST,NY,11373,1000,POINT (-73.88494 40.74389)
Queens,639145,Store,JAC,NEW GOLDEN SPARKLING SUPERMKT INC,NEW GOLDEN SPRKLNG MRKT,86-18,BROADWAY,,,ELMHURST,NY,11373,5000,POINT (-73.87721 40.73809)
Queens,638924,Store,JAC,WOODSIDE FOOD CENTER CORP,WOODSIDE FOOD CENTER,51-15,BROADWAY,,,WOODSIDE,NY,11377,3000,POINT (-73.90845 40.75402)
Queens,638905,Store,JAC,BROADWAY STOP N GO GROCERY INC,BROADWAY STOP N GO GRCY,53-11,BROADWAY,,,WOODSIDE,NY,11377,800,POINT (-73.90747 40.75355)
Queens,638870,Store,JAC,GINSENG PALACE TRADING INC,GINSENG PALACE TRADING,82-35,BROADWAY,,,ELMHURST,NY,11373,2500,POINT (-73.88167 40.74228)
Queens,637807,Store,A,2502 BROADWAY GROCERY CORP,2502 BROADWAY GROCERY,25-02,BROADWAY,,,ASTORIA,NY,11106,800,POINT (-73.9283 40.76335)
Queens,637291,Store,JAC,CHOCOLATE DELI&GROCERY INC,CHOCOLATE DELI&GROCERY,82-73,BROADWAY,,,ELMHURST,NY,11373,1500,POINT (-73.88069 40.74162)
Queens,637212,Store,JAC,JAMAICA AVENUE MEATS INC,MEAT BARN,146-18,JAMAICA AVENUE,,,JAMAICA,NY,11435,3500,POINT (-73.80825 40.70177)
Queens,636664,Store,A,GENOVESE DRUG STORES INC,RITE AID 10568,21-25,BROADWAY,,,LONG ISLAND CITY,NY,11106,0,POINT (-73.93115 40.76492)
Queens,636415,Store,A,WALGREEN EASTERN CO INC,WALGREENS 4319,8420,BROADWAY,,,ELMHURST,NY,11373,0,POINT (-73.87811 40.7396)
Queens,636362,Store,JAC,ME-ME SUPERMARKET INC,CITY FRESH MARKET,21-15,BROADWAY,,,ASTORIA,NY,11106,11000,POINT (-73.93106 40.76488)
Queens,635881,Store,JAC,CRESCENT FOOD CORP,TRADE FAIR SUPERMARKETS,23-55,BROADWAY,,,ASTORIA,NY,11106,20000,POINT (-73.92864 40.76353)
Queens,635753,Store,JAC,MUNCAN FOOD CORP,MUNCAN FOODS,43-09,BROADWAY,,,GRAND STATION,NY,11103,1800,POINT (-73.91621 40.75765)
Queens,633994,Store,JABC,A & V BAKING INC,PARISI BAKERY,30-17,BROADWAY,,,LONG ISLAND CITY,NY,11106,1870,POINT (-73.93226 40.75486)
Queens,633916,Store,JAC,GLOBER MARKET INC,GLOBER MARKET,82-33,BROADWAY,,,ELMHURST,NY,11373,2000,POINT (-73.88173 40.74232)
Queens,632952,Store,JAC,SAIBAL GROCERY&HALAL MEAT INC,SAIBAL GROCERY,81-28,BROADWAY,,,ELMHURST,NY,11373,1200,POINT (-73.88325 40.74311)
Queens,632741,Store,JAC,CARNICERIA COLOMBIA INC,CARNICERIA COLOMBIA,84-08,BROADWAY,,,ELMHURST,NY,11373,1500,POINT (-73.87842 40.73987)
Queens,632738,Store,JAC,K&T PROVISIONS INC,K&T MEATS,37-11,BROADWAY,,,ASTORIA,NY,11103,2500,POINT (-73.92014 40.75951)
Queens,632432,Store,JAC,NEW YORK MART ELMHURST INC,NEW YORK MART,75-01,BROADWAY,,,ELMHURST,NY,11373,14000,POINT (-73.89011 40.74612)
Queens,631491,Store,JAC,TOP LINE MEAT MARKET INC,TOP LINE MEAT MARKET,81-37,BROADWAY,,,ELMHURST,NY,11373,6000,POINT (-73.88282 40.74291)
Queens,630850,Store,A,DUANE READE ET AL PRTS,DUANE READE 14423,35-06,BROADWAY,,,ASTORIA,NY,11106,2000,POINT (-73.92201 40.76039)
Queens,630719,Store,A,WALGREEN EASTERN CO INC,WALGREENS #1616,82-77,BROADWAY,,,ELMHURST,NY,11373,17000,POINT (-73.88049 40.74147)
Queens,630038,Store,JABHK,IB BAKING CORP,ISLAND BAKERY,42-17,BROADWAY,,,ASTORIA,NY,11103,4000,POINT (-73.91675 40.75791)
New York,629990,Store,JAC,CITARELLA WEST LLC,CITARELLA,2135,BROADWAY,,,NEW YORK,NY,10023,3000,POINT (-73.98143 40.78098)
New York,629713,Store,JAC,JBV ENTERPRISES INC,LA BLANDA MEAT MARKET,3824,BROADWAY,,,NEW YORK,NY,10032,1500,POINT (-73.94376 40.83543)
New York,629683,Store,JAC,HANS FAMILY FRUIT&VEG INC,HANS FAMILY FRT&VEGTBLS,2501,BROADWAY,,,NEW YORK,NY,10025,1500,POINT (-73.9732 40.79286)
New York,629399,Store,A,DUANE READE LLP,WALGREENS #14489,3387,BROADWAY,,,NEW YORK,NY,10031,0,POINT (-73.95408 40.82162)
New York,629375,Store,JAC,GOALS SERVICE STATION INC,SHELL GAS,3260,BROADWAY,,,NEW YORK,NY,10027,750,POINT (-73.95671 40.81769)
New York,629305,Store,JAC,DUANE READE ET AL PTRS,DUANE READE #14486,2069,BROADWAY,,,NEW YORK,NY,10023,17000,POINT (-73.9821 40.7784)
New York,629279,Store,JAC,2589 WESTSIDE MARKETS LLC,WESTSIDE MARKET,2589,BROADWAY,,,NEW YORK,NY,10025,10000,POINT (-73.97108 40.79577)
New York,629249,Store,JAC,BAKED BY MELISSA LLC,BAKED BY MELISSA,2325,BROADWAY,,,NEW YORK,NY,10024,1000,POINT (-73.97749 40.78728)
New York,629224,Store,JAC,NATURAL PARADISE INC THE,HEALTH NUTS THE,2611,BROADWAY,,,NEW YORK,NY,10025,2500,POINT (-73.97064 40.7964)
New York,629198,Store,A,DOLLAR TREE STORES INC,DOLLAR TREE # 4695,4469,BROADWAY,,,NEW YORK,NY,10040,0,POINT (-73.93226 40.85744)
New York,629196,Store,JAC,3875 MH DELI GROCERY INC,3875 MH DELI GROCERY,3875,BROADWAY,,,NEW YORK,NY,10032,1200,POINT (-73.94286 40.83696)
New York,629156,Store,JAC,5069 MEAT&PRODUCE CORP,FOOD UNIVERSE MARKET PL,5069,BROADWAY,,,NEW YORK,NY,10034,4000,POINT (-73.91506 40.87049)
New York,629013,Store,JAC,PRIME ESSENTIALS LLC,PRIME ESSENTIALS,345,BROADWAY,,,NEW YORK,NY,10013,6000,POINT (-74.00419 40.71669)
New York,628914,Store,JAC,KING WASHINGTON GROCERY CORP,KING BROADWAY GROCERY,4225,BROADWAY,,,NEW YORK,NY,10033,400,POINT (-73.93691 40.84908)
New York,628834,Store,JAC,JOES GOURMET HEALTH DELI INC,JOES GOURMET HEALTH DEL,3161,BROADWAY,,,NEW YORK,NY,10027,1200,POINT (-73.95909 40.8148)
New York,628824,Store,JAC,SANTIAGO DELI FOOD CORP,SANTIAGO DELI FOOD,3415,BROADWAY,,,NEW YORK,NY,10031,1600,POINT (-73.95346 40.82246)
New York,628809,Store,JAC,207 INC I,207,4930A,BROADWAY,,,NEW YORK,NY,10034,375,POINT (-73.92146 40.8676)
New York,628784,Store,A,TRADER JOES EAST INC,TRADER JOES #542,2073,BROADWAY,,,NEW YORK,NY,10023,14000,POINT (-73.98208 40.77852)
New York,628759,Store,JAC,FRUTERA EL BUEN CAMINO CORP,FRUTERA EL BUEN CAMINO,3888,BROADWAY,,,NEW YORK,NY,10032,300,POINT (-73.9423 40.83742)
New York,628749,Store,JAC,MEXICAN DELI INC,MEXICAN DELI,2711,BROADWAY,,,NEW YORK,NY,10025,0,POINT (-73.96843 40.79957)
New York,628656,Store,A,CITY FUELS LLC,BP,4353,BROADWAY,,,NEW YORK,NY,10033,2300,POINT (-73.93408 40.85343)
New York,628594,Store,JAC,2732 CONVENIENCE GROCERY CORP,2732 CONVENIENCE GROCER,2732,BROADWAY,,,NEW YORK,NY,10025,525,POINT (-73.96796 40.80017)
New York,628536,Store,JAC,M&V INTERNATIONAL FOOD INC,FOOD PALACE,4453,BROADWAY,,,NEW YORK,NY,10040,2000,POINT (-73.93246 40.85703)
New York,628495,Store,A,99 CENT WORLD & VARIETY CORP,99 CENT WORLD & VARIETY,4242,BROADWAY,,,NEW YORK,NY,10033,2500,POINT (-73.9362 40.8497)
New York,628449,Store,A,DUANE READE ET AL PTRS,DUANE READE #14430,1350,BROADWAY,,,NEW YORK,NY,10018,14000,POINT (-73.9877 40.75108)
New York,628269,Store,A,CVS ALBANY LLC,CVS PHARMACY #6066,2495,BROADWAY,,,NEW YORK,NY,10025,10500,POINT (-73.97338 40.7926)
New York,628133,Store,JAC,KAY MARKET INC,KAY MARKET,645,BROADWAY,,,NEW YORK,NY,10012,10000,POINT (-73.99571 40.72669)
New York,627990,Store,A,DUANE READE ETAL PTRS,DUANE READE 14408,459,BROADWAY,,,NEW YORK,NY,10013,0,POINT (-74.00071 40.72073)
New York,627949,Store,JAC,BELLO DELI FOOD CORP,BELLO DELI FOOD,5009,BROADWAY,,,NEW YORK,NY,10034,1500,POINT (-73.91699 40.86919)
New York,627739,Store,JAC,BEST NY DELI GROCERY INC,BEST NY DELI GROCERY,4133,BROADWAY,,,NEW YORK,NY,10033,600,POINT (-73.93851 40.84596)
New York,627691,Store,JAC,DUANE READE ETAL PTRS,DUANE READE #14404,1657,BROADWAY,,,NEW YORK,NY,10019,18000,POINT (-73.98335 40.7625)
New York,627661,Store,JAC,PARAMOUNT NEWS LLC,GATE WAY NEWS,1633,BROADWAY,,,NEW YORK,NY,10019,900,POINT (-73.9838 40.76182)
New York,627578,Store,JAC,THRIFTY DELI SUPERMARKET CORP,THRIFTY DELI SPRMKT,3149,BROADWAY,,,NEW YORK,NY,10027,3500,POINT (-73.95946 40.8143)
New York,627530,Store,JABC,WS MARKETS LLC,WEST SIDE SUPERMARKETS,2840,BROADWAY,,,NEW YORK,NY,10025,20000,POINT (-73.96637 40.80445)
New York,627514,Store,A,ME QUICK STOP GROCERY & CANDY STO,ME QUICK STOP GRCY&CNDY,4314,BROADWAY,,,NEW YORK,NY,10033,500,POINT (-73.93488 40.85187)
New York,627401,Store,JAC,DUANE READE ETAL PTRS,DUANE READE #14389,1889,BROADWAY,,,NEW YORK,NY,10023,3600,POINT (-73.98226 40.77126)
New York,627308,Store,A,MD WEST SIDE GOURMET CORP,MD WEST SIDE GOURMET,2528,BROADWAY,,,NEW YORK,NY,10025,300,POINT (-73.97241 40.79363)
New York,626903,Store,JAC,SANO HEALTH FOOD CENTER INC,SANO HEALTH FOOD CENTER,4069,BROADWAY,,,NEW YORK,NY,10032,2000,POINT (-73.93908 40.84368)
New York,626649,Store,JAC,3060 BROADWAY CORP,OLIVE TREE DELI,3060,BROADWAY,,,NEW YORK,NY,10027,1500,POINT (-73.96133 40.81135)
New York,626562,Store,A,DUANE READE ETAL PTRS,DUANE READE 14276,1270,BROADWAY,,,NEW YORK,NY,10001,10560,POINT (-73.98806 40.74889)
New York,626558,Store,A,DUANE READE ETAL PTRS,DUANE READE 14225,2864,BROADWAY,,,NEW YORK,NY,10025,6760,POINT (-73.96592 40.80508)
New York,626553,Store,A,DUANE READE ETAL PTRS,DUANE READE 14118,305,BROADWAY,,,NEW YORK,NY,10007,3000,POINT (-74.00528 40.71538)
New York,626550,Store,A,DUANE READE ETAL PTRS,DUANE READE,1430,BROADWAY,,,NEW YORK,NY,10018,12000,POINT (-73.98693 40.75411)
New York,626549,Store,A,DUANE READE ETAL PTRS,DUANE READE 14101,37,BROADWAY,,,NEW YORK,NY,10006,7500,POINT (-74.01302 40.70615)
New York,626499,Store,JAC,CREATIVE HEALTH FOOD STORE INC,CREATIVE HEALTH,2801,BROADWAY,,,NEW YORK,NY,10025,500,POINT (-73.96763 40.80307)
New York,626498,Store,A,RITE AID OF NEW YORK INC,RITE AID 7808,4188,BROADWAY,,,NEW YORK,NY,10033,5000,POINT (-73.93778 40.84818)
New York,626461,Store,JAC,DUANE READE ETAL PTRS,DUANE READE #14524,1627-1629,BROADWAY,,,NEW YORK,NY,10019,2000,POINT (-73.98414 40.76131)
New York,626447,Store,A,DUANE READE ETAL PTRS,DUANE READE 14146,2520-2526,BROADWAY,,,NEW YORK,NY,10025,8900,POINT (-73.9725 40.7935)
New York,626382,Store,JAC,LA ROSA FOODS INC,LA ROSA,4161,BROADWAY,,,NEW YORK,NY,10033,1500,POINT (-73.93822 40.84702)
New York,626141,Store,A,HILLSIDE GREETINGS CARDS INS,HILLSIDE GREETINGS CARD,4534,BROADWAY,,,NEW YORK,NY,10040,500,POINT (-73.93153 40.85885)
New York,625936,Store,JABC,NAMDOR INC,GRISTEDES 601,2704,BROADWAY,,,NEW YORK,NY,10025,17000,POINT (-73.96835 40.79926)
New York,625809,Store,A,ADIL ENTERPRISES INC,SMOKE & NEWS,3189,BROADWAY,,,NEW YORK,NY,10027,2200,POINT (-73.95858 40.8155)
New York,625757,Store,JAC,BROADWAY SPECIALTY FOODS INC,GARDEN OF EDEN,2780,BROADWAY,,,NEW YORK,NY,10025,4300,POINT (-73.96765 40.80236)
New York,625709,Store,JAC,2451 BROADWAY MARKET INC,BARZINIS,2451,BROADWAY,,,NEW YORK,NY,10024,16000,POINT (-73.97432 40.79132)
New York,625351,Store,A,UNIQUE NEWS INC,UNIQUE NEWS,2218,BROADWAY,,,NEW YORK,NY,10024,600,POINT (-73.98001 40.78363)
New York,625298,Store,JAC,LAMICH CORP,MONDEL CHOCOLATES,2913,BROADWAY,,,NEW YORK,NY,10025,1000,POINT (-73.96509 40.80656)
New York,625236,Store,JABC,WESTSIDE SUPERMARKET LLC,WESTSIDE SUPERMARKET,77,7TH AVENUE,,,NEW YORK,NY,10011,25000,POINT (-73.99941 40.73892)
New York,625186,Store,JAC,BLUE AND WHITE MARKETS INC,MORTON WILLIAMS UNIVERS,2941,BROADWAY,,,NEW YORK,NY,10025,4000,POINT (-73.96435 40.80757)
New York,625124,Store,A,RITE AID OF NEW YORK INC,RITE AID PHARMACY 04887,4910,BROADWAY,,,NEW YORK,NY,10034,8000,POINT (-73.92211 40.86737)
New York,625119,Store,A,RITE AID OF NEW YORK INC,RITE AID PHARMACY 04185,3539,BROADWAY,,,NEW YORK,NY,10031,6000,POINT (-73.95062 40.82635)
New York,625012,Store,JAC,ARIMERBEN CO INC,MURRAYS STURGEON SHOP,2429,BROADWAY,,,NEW YORK,NY,10024,1200,POINT (-73.9749 40.79052)
New York,624928,Store,JAC,LUNA BROTHERS INC,C TOWN,3632,BROADWAY,,,NEW YORK,NY,10031,18000,POINT (-73.9482 40.82937)
New York,624461,Store,JAC,FARE FARM FOOD CORP,FINE FARE SUPERMARKET,4776,BROADWAY,,,NEW YORK,NY,10034,15000,POINT (-73.92654 40.8658)
New York,624421,Store,JAC,BROADWAY FRUIT MARKET LLC,BROADWAY FARM,2341,BROADWAY,,,NEW YORK,NY,10024,4300,POINT (-73.97703 40.78782)
New York,624394,Store,JAC,MILANO MARKET INC,MILANO MARKET,2892,BROADWAY,,,NEW YORK,NY,10025,3000,POINT (-73.96531 40.8059)
New York,624129,Store,JAC,MELISSA IS FOOD CORP,MELISSAS GOURMET DELI,1879,BROADWAY,,,NEW YORK,NY,10023,1400,POINT (-73.98225 40.77061)
New York,624034,Store,A,RITE AID OF NEW YORK INC,RITE AID 2010,4046,BROADWAY,,,NEW YORK,NY,10032,5000,POINT (-73.9392 40.8429)
New York,623934,Store,A,DUANE READE ET AL PTRS,DUANE READE 14102,250,BROADWAY,,,NEW YORK,NY,10007,5000,POINT (-74.00742 40.71281)
New York,623535,Store,A,DUANE READE ET AL PTRS,DUANE READE 14194,2681-7,BROADWAY,,,NEW YORK,NY,10025,15000,POINT (-73.96896 40.7987)
New York,623468,Store,JAC,ORGANIC PARADISE HEALTH FOODS INC,ORGANIC PARADISE HEALTH,4532,BROADWAY,,,NEW YORK,NY,10040,800,POINT (-73.93154 40.85883)
New York,623190,Store,JAC,RIVERSIDE GOURMET MARKET INC,RIVERSIDE GOURMET MKT,3779,BROADWAY,,,NEW YORK,NY,10032,2000,POINT (-73.94497 40.83409)
New York,622587,Store,JAC,LINA FOOD CORP,C TOWN,4918-26,BROADWAY,,,NEW YORK,NY,10034,25000,POINT (-73.92175 40.8675)
New York,622503,Store,JAC,3550 FOOD CORP,KEY FOOD SUPERMARKET,3550,BROADWAY,,,NEW YORK,NY,10031,15000,POINT (-73.95002 40.82687)
New York,622370,Store,JAC,KOSHER MARKET PLACE INC THE,KOSHER MARKET PLACE,2442,BROADWAY,,,NEW YORK,NY,10024,3000,POINT (-73.97429 40.79106)
New York,622221,Store,JAC,MID ATLANTIC INC,MID ATLANTIC,4250,BROADWAY,,,NEW YORK,NY,10033,1500,POINT (-73.9359 40.84997)
New York,621526,Store,JAC,3484 BROADWAY MINI MARKET INC,3484 BROADWAY MINI MKT,3484,BROADWAY,,,NEW YORK,NY,10031,1800,POINT (-73.95161 40.82469)
New York,621480,Store,JAC,REYES JUAN MANUEL,MANUELS GROCERY,3675,BROADWAY,,,NEW YORK,NY,10031,2100,POINT (-73.94721 40.831)
New York,621143,Store,JAC,GREAT WAY FOODS INC,KEY FOOD 790,4365,BROADWAY,,,NEW YORK,NY,10033,15000,POINT (-73.9338 40.85396)
New York,621015,Store,JAC,3011 GROCERY INC,C TOWN,3320,BROADWAY,,,NEW YORK,NY,10031,20000,POINT (-73.95524 40.81968)
New York,620617,Store,JAC,SAMADS GOURMET INC,SAMADS GOURMET,2867,BROADWAY,,,NEW YORK,NY,10025,2500,POINT (-73.96614 40.80509)
New York,620382,Store,JABC,ZABARS & CO INC,ZABARS,2245,BROADWAY,,,NEW YORK,NY,10024,15000,POINT (-73.97939 40.78478)
New York,620217,Store,JAC,GENERAL NUTRITION CORP,GENERAL NUTRITION 2916,2,BROADWAY,,,NEW YORK,NY,10004,2000,POINT (-74.01327 40.70455)
New York,620216,Store,A,GENERAL NUTRITION CORP,GENERAL NUTRITION 2930,299,BROADWAY,,,NEW YORK,NY,10007,1500,POINT (-74.00559 40.71503)
Kings,619984,Store,JAC,786 FLATBUSH FOOD CORP,KEY FOOD,786,FLATBUSH AVENUE,,,BROOKLYN,NY,11226,7000,POINT (-73.95947 40.65365)
Kings,618516,Store,A,WALGREEN EASTERN CO INC,WALGREENS #11141,1366,BROADWAY,,,BROOKLYN,NY,11221,5775,POINT (-73.92209 40.6895)
Kings,618039,Store,A,FAMILY DOLLAR STORES OF NY INC,FAMILY DOLLAR #5751,1317,BROADWAY,,,BROOKLYN,NY,11221,5000,POINT (-73.92352 40.69034)
Kings,618006,Store,A,FAMILY DOLLAR STORES OF NY INC,FAMILY DOLLAR #7069,1165A,BROADWAY,,,BROOKLYN,NY,11221,6000,POINT (-73.92815 40.69297)
Kings,617840,Store,JAC,SY ORGANIC FARM INC,SY ORGANIC FARM,724,BROADWAY,,,BROOKLYN,NY,11206,1400,POINT (-73.94264 40.70117)
Kings,616529,Store,A,WALGREENS EASTERN CO INC,WALGREENS #01918,755,BROADWAY,,,BROOKLYN,NY,11206,5000,POINT (-73.94165 40.70057)
Kings,615287,Store,JAC,GRASS FED INC,MARLOW & DAUGHTERS,95,BROADWAY,,,BROOKLYN,NY,11249,1200,POINT (-73.96509 40.71042)
Kings,614737,Store,JABC,JOSEF KORN BAKE SHOP INC,KORNS BAKERY,914,KINGS HIGHWAY,,,BROOKLYN,NY,11223,1000,POINT (-73.96335 40.60687)
Kings,614588,Store,JAC,KICOPI 957 INC,MR KIWI,957,BROADWAY,,,BROOKLYN,NY,11221,2000,POINT (-73.93483 40.69673)
Kings,614067,Store,JAC,TRIANGLE DELI CORP,HAUTER GROCERY STORE,1334,BROADWAY,,,BROOKLYN,NY,11221,2500,POINT (-73.92312 40.6901)
Kings,613628,Store,A,ECHO DRUGS INC,ECHO DRUGS,260,BROADWAY,,,BROOKLYN,NY,11211,4000,POINT (-73.95945 40.70898)
Kings,612611,Store,A,GENERAL NUTRITION CORP,GNC 9093,608,BRIGHTON BEACH AVENUE,,,BROOKLYN,NY,11235,1000,POINT (-73.96116 40.57768)
Kings,612392,Store,JAC,BROADWAY MINI MARKET DELI INC,BROADWAY MINI MARKET,403,BROADWAY,,,BROOKLYN,NY,11211,1500,POINT (-73.95391 40.70704)
Kings,611183,Store,JAC,CHI GU KIM,ANGEL FISH MARKET,1255,BROADWAY,,,BROOKLYN,NY,11221,2400,POINT (-73.92519 40.69129)
Kings,610798,Store,JAC,HB & SON MEAT CORP,MARKETPLACE OF BUSHWICK,1781-1783,BROADWAY,,,BROOKLYN,NY,11207,15000,POINT (-73.9094 40.68229)
Kings,610496,Store,JAC,BROADWAY MEATS INC,BROADWAY MEATS,1259,BROADWAY,,,BROOKLYN,NY,11221,2500,POINT (-73.92509 40.69123)
Kings,610113,Store,JAC,1533 SUPERMARKET INC,KEY FOOD,1533,BROADWAY,,,BROOKLYN,NY,11221,9000,POINT (-73.91659 40.68636)
Bronx,609502,Store,JAC,AMEER FOOD GROCERY CORP,AMEER FOOD GROCERY,1964,GRAND CONCOURSE,,,BRONX,NY,10457,700,POINT (-73.9046 40.85092)
Bronx,609457,Store,JAC,GREEN EARTH FOOD CORP,GREEN EARTH GRCY STORE,1420,GRAND CONCOURSE,,,BRONX,NY,10456,1500,POINT (-73.91314 40.83944)
Bronx,609423,Store,JAC,TAVERAS FOOD CENTER CORP,TAVERAS FOOD CENTER,5193,BROADWAY,,,BRONX,NY,10463,0,POINT (-73.90999 40.87442)
Bronx,609332,Store,JAC,YOUSEF MEILAD & MASOUED FATHY,CITY LINE GROCERY,6655,BROADWAY,,,BRONX,NY,10471,1000,POINT (-73.89659 40.91008)
Bronx,609329,Store,JAC,NEW BEST SUSHI WORLD INC,NEW BEST SUSHI WORLD,5665,BROADWAY,,,BRONX,NY,10463,0,POINT (-73.9033 40.88106)
Bronx,609259,Store,JAC,RIVERDALE DELI & GROCERY INC,RIVERDALE DELI & GROCER,5991,BROADWAY,,,BRONX,NY,10471,600,POINT (-73.89802 40.89014)
Bronx,608908,Store,JAC,NADAL 3 DELI CONVENIENCE INC,NADAL 3 DELI CONVNIENCE,888A,GRAND CONCOURSE,,,BRONX,NY,10451,1800,POINT (-73.92285 40.82651)
Bronx,608643,Store,JAC,156 FOOD MARKET INC,156 FOOD MARKET,760,GRAND CONCOURSE,,,BRONX,NY,10451,1800,POINT (-73.924386 40.823696)
Bronx,607834,Store,A,DOLOMA CONVENIENCE STORE INC,DOLOMA CONVENIENCE STRE,5565,BROADWAY,,,BRONX,NY,10463,1800,POINT (-73.90499 40.87871)
Bronx,607800,Store,JAC,N&I VENTURE CORP,CITGO MINI MART,6571,BROADWAY,,,BRONX,NY,10471,700,POINT (-73.89653 40.90774)
Bronx,606690,Store,JAC,F&K FOOD CENTER CORP,F&K FOOD CENTER,2837-2839,GRAND CONCOURSE,,,BRONX,NY,10468,2000,POINT (-73.89133 40.87009)
Bronx,605984,Store,JAC,JIN SUN PRODUCE CORP,JIN SUN PRODUCE,5590,BROADWAY,,,BRONX,NY,10463,2000,POINT (-73.90457 40.87931)
Bronx,605982,Store,A,JD CONVENIENCE STORE LLC,JD CONVENIENCE STORE,5595,BROADWAY,,,BRONX,NY,10463,1800,POINT (-73.90454 40.87935)
Bronx,605866,Store,JABC,KINGSBRIDGE MARKETPLACE CORP,FOODTOWN,5555,BROADWAY,,,BRONX,NY,10463,20000,POINT (-73.90509 40.87855)
Bronx,605091,Store,A,UMK INC,TE AMO-CONVENIENCE STOR,5582,BROADWAY,,,BRONX,NY,10463,1000,POINT (-73.9047 40.87913)
Bronx,604994,Store,A,RITE AID OF NEW YORK INC,RITE AID PHARMACY 03429,1540,GRAND CONCOURSE,,,BRONX,NY,10457,3000,POINT (-73.91218 40.84187)
Bronx,604381,Store,A,GENOVESE DRUG STORES INC,RITE AID 10541,5825-35,BROADWAY,,,BRONX,NY,10463,10000,POINT (-73.90057 40.88538)
Bronx,603904,Store,JAC,RIVERDALE MEAT&PRODUCE CORP,C TOWN,5249,BROADWAY,,,BRONX,NY,10463,8000,POINT (-73.9084 40.87559)
Bronx,603794,Store,JAC,VILLAS MARKET PLACE INC,GARDEN GOURMET,5665,BROADWAY,,,BRONX,NY,10463,5000,POINT (-73.9033 40.88106)
Bronx,603400,Store,JAC,VARGAS&RODRIGUEZ SUPERMARKET INC,FINE FARE SUPERMARKET,3131,GRAND CONCOURSE,,,BRONX,NY,10468,5000,POINT (-73.88648 40.8751)
Bronx,602442,Store,JAC,ALANIS DELI GROCERY CORP,YENIDE DELI GROCERY,2563-2565,GRAND CONCOURSE,,,BRONX,NY,10468,1500,POINT (-73.89612 40.86404)
Bronx,601572,Store,A,BHAGDATTS SPICES&SAREE CENTER LTD,BHAGDATTS SPICES & SARE,2081,GRAND CONCOURSE,,,BRONX,NY,10453,1800,POINT (-73.90274 40.85377)
Bronx,601477,Store,JABC,STOP&SHOP SUPERMARKET CO LLC THE,STOP&SHOP 503,5716,BROADWAY,,,BRONX,NY,10463,27000,POINT (-73.90201 40.88187)
Bronx,601470,Store,JABCHK,LLOYDS CARROT CAKE INC,LLOYDS CARROT CAKE,6087,BROADWAY,,,BRONX,NY,10471,800,POINT (-73.89648 40.89401)
Bronx,600307,Store,A,WALGREEN EASTERN CO INC,WALGREENS 1013,5564,BROADWAY,,,BRONX,NY,10463,20000,POINT (-73.90504 40.87863)
Westchester,552716,Store,JABCH,PALISADES FUEL INC,OLD VILLAGE PANTRY,1,BROADWAY,,,PLEASANTVILLE,NY,10570,900,POINT (-73.77863 41.14011)
Westchester,551321,Store,JAC,SHOP-RITE SUPERMARKETS INC,SHOPRITE #276 THORNWOOD,960,BROADWAY,,,THORNWOOD,NY,10594,40000,POINT (-73.78012 41.12609)
Westchester,551083,Store,JAC,STOP&SHOP SUPERMARKET CO LLC THE,STOP&SHOP 0530,390,BROADWAY,,,DOBBS FERRY,NY,10522,18000,POINT (-73.87132 41.01472)
Washington,535201,Store,JAC,PUTORTI FRANCIS&CHERYL,PUTORTI BROADWAY MARKET,155,BROADWAY,,,WHITEHALL,NY,12887,2000,POINT (-73.40456 43.55028)
Washington,535125,Store,JAC,CUMBERLAND FARMS INC,CUMBERLAND FARMS 1603,196,BROADWAY,,,WHITEHALL,NY,12887,1800,POINT (-73.40649 43.54611)
Washington,530803,Store,JAC,CUMBERLAND FARMS INC,CUMBERLAND FARMS 1512,351,BROADWAY,,,FORT EDWARD,NY,12828,2000,POINT (-73.58653 43.28339)
Washington,530739,Store,JAC,STEWARTS SHOPS CORP,STEWARTS SHOP 215,107,BROADWAY,,,FORT EDWARD,NY,12828,1800,POINT (-73.58505 43.26739)
Washington,530135,Store,A,DOLGEN NEW YORK LLC,DOLLAR GENERAL #10980,180,BROADWAY,,,WHITEHALL,NY,12887,3000,POINT (-73.40599 43.54733)
Washington,530133,Store,JAC,STEWARTS SHOPS CORP,STEWARTS SHOP #123,378,BROADWAY,,,FORT EDWARD,NY,12828,2300,POINT (-73.58658 43.28544)
Washington,530056,Store,A,CVS ALBANY LLC,CVS PHARMACY 05166,170,BROADWAY,,,WHITEHALL,NY,12887,3000,POINT (-73.40591 43.54752)
Ulster,515570,Store,A,VAN LOANS BEVERAGE CORP,VAN LOANS DISCOUNT BVG,327,BROADWAY,,,PORT EWEN,NY,12466,7500,POINT (-73.97412 41.90161)
Ulster,515440,Store,JAC,STEWARTS SHOPS CORP,STEWARTS SHOP 141,268,BROADWAY,,,KINGSTON,NY,12401,1500,POINT (-73.9896 41.92506)
Ulster,510777,Store,A,WALGREEN EASTERN CO INC,WALGREENS #02077,316,BROADWAY,,,KINGSTON,NY,12401,13000,POINT (-73.99159 41.9255)
Ulster,510684,Store,JAC,CHEEKAM MART INC,MOBIL SNACK SHOP,625,BROADWAY,,,KINGSTON,NY,12401,2500,POINT (-74.00521 41.9298)
Ulster,510683,Store,A,ECKERD CORP,RITE AID PHARMACY 10700,485,BROADWAY,,,KINGSTON,NY,12401,4500,POINT (-73.99946 41.92765)
Sullivan,480248,Store,A,ALDI INC,ALDI 56,121,BROADWAY,,,MONTICELLO,NY,12701,150000,POINT (-74.6807 41.65343)
Sullivan,480113,Store,JAC,EXPRESS MOBIL MART INC,MOBIL MART,519,BROADWAY,,,MONTICELLO,NY,12701,1950,POINT (-74.6919 41.65631)
Suffolk,474925,Store,JAC,ROHAN (NY) INC,BROADWAY CONVENIENCE,250,BROADWAY,,,AMITYVILLE,NY,11701,1200,POINT (-73.4169 40.68098)
Suffolk,474508,Store,A,VALUE DRUGS GREENLAWN INC,VALUE DRUGS,106,BROADWAY,,,GREENLAWN,NY,11740,15700,POINT (-73.36437 40.86625)
Suffolk,473985,Store,JAC,THREE WS INC,PIONEER MARKET,19-21,BROADWAY,,,FAIR HARBOR,NY,11706,5000,POINT (-73.18597 40.64036)
Suffolk,473940,Store,JAC,M&B METRO DELI LLC,M&B METRO DELI,571,BROADWAY,,,AMITYVILLE,NY,11701,1500,POINT (-73.42212 40.69256)
Suffolk,473524,Store,JAC,NOLDOS DELI CORP,NOLDOS DELI & GROCERY,216,BROADWAY,,,AMITYVILLE,NY,11701,3500,POINT (-73.4172 40.67965)
Suffolk,472938,Store,A,CVS ALBANY LLC,CVS PHARMACY 02232,89,BROADWAY,,,GREENLAWN,NY,11740,10000,POINT (-73.36438 40.86681)
Suffolk,472832,Store,A,EKINCILER CORP,SUN PETROLEUM,229,BROADWAY,,,HUNTINGTON,NY,11743,500,POINT (-73.36557 40.8523)
Suffolk,472654,Store,A,WALGREEN EASTERN CO INC,WALGREENS 05956,275,BROADWAY,,,AMITYVILLE,NY,11701,15000,POINT (-73.41691 40.68093)
Suffolk,472310,Store,JAC,ROCKY POINT ITALIAN PORK STORE IN,DEL FIORE ITLN PORK STR,39,BROADWAY,,,ROCKY POINT,NY,11778,2500,POINT (-72.92378 40.94853)
Suffolk,472252,Store,JAC,ALBANY TRIANGLE CORP,SUNOCO APLUS,293,BROADWAY,,,AMITYVILLE,NY,11701,1000,POINT (-73.41677 40.68235)
Suffolk,472245,Store,JAC,AHMAD NASIR,7-ELEVEN STR 32338C,403,BROADWAY,,,AMITYVILLE,NY,11701,2800,POINT (-73.41864 40.68553)
Schenectady,425580,Store,JABC,CENT ANNI LLC,CAPRI IMPORTS DELI & CA,2617,BROADWAY,,,SCHENECTADY,NY,12306,2000,POINT (-73.97336 42.79452)
Schenectady,420490,Store,JAC,BELLEVUE STAR MARKET INC,BELLEVUE STAR MARKET,1605,BROADWAY,,,SCHENECTADY,NY,12306,900,POINT (-73.95884 42.80102)
Schenectady,420237,Store,A,FAMILY DOLLAR STORES OF NY INC,FAMILY DOLLAR #23612,1643,EASTERN PARKWAY,,,SCHENECTADY,NY,12309,6000,POINT (-73.91237 42.80666)
Saratoga,410471,Store,JAC,BRAIDWOODS LLC,SARATOGA OLIVE OIL CO,484,BROADWAY,,,SARATOGA SPRINGS,NY,12866,1900,POINT (-73.78391 43.08356)
Saratoga,410435,Store,JAC,STEWARTS SHOPS CORP,STEWARTS SHOP #408,521,BROADWAY,,,SARATOGA SPRINGS,NY,12866,2500,POINT (-73.784 43.08509)
Saratoga,410141,Store,JABC,PUTNAM MARKET INC,PUTNAM MARKET,431,BROADWAY,,,SARATOGA SPRINGS,NY,12866,5200,POINT (-73.78518 43.08224)
Rockland,395366,Store,A,GARCIA JUAN,GARCIA GROCERY STORE,67,BROADWAY,,,HAVERSTRAW,NY,10927,1200,POINT (-73.96514 41.19905)
Rockland,390411,Store,JAC,HERSHEYS DELI CORP,HERSHEYS DELI,167,BROADWAY,,,HAVERSTRAW,NY,10927,2000,POINT (-73.97068 41.20158)
Rensselaer,380385,Store,JAC,MOHAMED ABOZEID,DELI ON BROADWAY THE,904,BROADWAY,,,RENSSELAER,NY,12144,1200,POINT (-73.7391 42.64747)
Orange,336256,Store,JAC,COURTSUNIS JOHN G,COMMODORE CHOCOLATIER,480-482,BROADWAY,,,NEWBURGH,NY,12550,4500,POINT (-74.02992 41.5013)
Orange,331167,Store,JAC,VISHAL ENTERPRISE OF GRAND ST INC,QUICK MART,401,BROADWAY,,,NEWBURGH,NY,12550,1800,POINT (-74.02603 41.50103)
Orange,331108,Store,JAC,B&J SINGH CORP,SUNOCO FOOD MART,510,BROADWAY,,,NEWBURGH,NY,12550,1700,POINT (-74.03142 41.50169)
Orange,331075,Store,JAC,B&J SINGH CORP,GULF,515,BROADWAY,,,NEWBURGH,NY,12550,900,POINT (-74.03193 41.50148)
Orange,330743,Store,JABCH,TORINO BAKERY INC,TORINO BAKERY,404,BROADWAY,,,NEWBURGH,NY,12550,6000,POINT (-74.02613 41.50103)
Orange,330706,Store,JABHK,ROCKLAND BAKERY INC,ROCKLAND BAKERY,354,BROADWAY,,,NEWBURGH,NY,12550,12000,POINT (-74.02393 41.50087)
Orange,330618,Store,A,FAMILY DOLLAR STORES OF NY INC,FAMILY DOLLAR #1859,423,BROADWAY,,,NEWBURGH,NY,12550,6000,POINT (-74.02729 41.50112)
Orange,330615,Store,A,RITE AID OF NEW YORK INC,RITE AID 1302,657,BROADWAY,,,NEWBURGH,NY,12550,1000,POINT (-74.03928 41.50186)
Orange,330024,Store,JAC,GIL GUARIEN,LATIN GROCERY II,106,BROADWAY,,,NEWBURGH,NY,12550,2100,POINT (-74.01139 41.50003)
Nassau,288437,Store,JAC,ELENI GREEK AMERICAN GROCERY INC,BAKALIKO GROCERY&DELI,115,BROADWAY,,,HICKSVILLE,NY,11801,2000,POINT (-73.52253 40.76655)
Nassau,286809,Store,A,JOHN & FRANCO DRUGS INC,STUARTS PHARMACY,681,BROADWAY,,,MASSAPEQUA,NY,11758,10000,POINT (-73.466 40.68988)
Nassau,283662,Store,JAC,OTTER 59 INC,7-ELEVEN STORE 11147C,711,BROADWAY,,,MASSAPEQUA,NY,11758,1500,POINT (-73.46534 40.69185)
Nassau,282251,Store,JAC,HEWLETT FISH MARKET INC,HEWLETT FISH MARKET,1332,BROADWAY,,,HEWLETT,NY,11557,2000,POINT (-73.69975 40.63999)
Nassau,282070,Store,A,DUANE READE ET AL PTRS,DUANE READE 14269,1338-40,BROADWAY,,,HEWLET,NY,11557,15000,POINT (-73.69972 40.64002)
Nassau,282019,Store,A,CVS ALBANY LLC,CVS PHARMACY 02096,1740,BROADWAY,,,HEWLETT,NY,11557,6000,POINT (-73.68894 40.64767)
Nassau,282016,Store,A,CVS ALBANY LLC,CVS PHARMACY 02145,929,BROADWAY,,,WOODMERE,NY,11598,10000,POINT (-73.70867 40.62956)
Nassau,282001,Store,A,CVS ALBANY LLC,CVS PHARMACY 00555,308,BROADWAY,,,BETHPAGE,NY,11714,7500,POINT (-73.47955 40.74092)
Nassau,281971,Store,A,GENOVESE DRUG STORES INC,RITE AID 10621,444,HILLSIDE AVENUE,,,WILLISTON PARK,NY,11596,10400,POINT (-73.65688 40.75448)
Nassau,281969,Store,A,GENOVESE DRUG STORES INC,RITE AID 10612,225,FOREST AVENUE,,,GLEN COVE,NY,11542,10000,POINT (-73.61794 40.87414)
Nassau,281778,Store,JAC,S&S WOODMERE INC,WOODMERE CONVENIENCE,1064,BROADWAY,,,WOODMERE,NY,11598,1500,POINT (-73.70677 40.63214)
Nassau,281533,Store,A,MEI BEVERAGE INC,LYNBROOK COLD BEER&BEV,117,BROADWAY,,,LYNBROOK,NY,11563,2000,POINT (-73.67581 40.65433)
Nassau,280860,Store,A,CVS ALBANY LLC,CVS PHARMACY 02136,20-24,BROADWAY,,,MASSAPEQUA,NY,11758,3000,POINT (-73.47028 40.6775)
Genesee,180203,Store,JAC,TRIPLE C TRUCK & GAS CORP,TRIPLE C,1632,BROADWAY,,,DARIEN CENTER,NY,14040,1800,POINT (-78.37245 42.90158)
Franklin,165177,Store,JAC,PJ HYDE&SON INC,BROADWAY MOBIL,196,BROADWAY,,,SARANAC LAKE,NY,12983,1100,POINT (-74.13708 44.3316)
Franklin,160108,Store,A,"KPH HEALTHCARE SERVICES, INC.",KINNEY DRUGS 02,277,BROADWAY,,,SARANAC LAKE,NY,12983,1100,POINT (-74.13903 44.33423)
Erie,148630,Store,JABC,UNITED REFINING CO OF PA INC,KWIK FILL A0035,5835,BROADWAY,,,LANCASTER,NY,14086,1500,POINT (-78.64205 42.89455)
Erie,142867,Store,A,DOLLAR TREE STORES INC,DOLLAR TREE #00788,5165,BROADWAY,,,DEPEW,NY,14043,11200,POINT (-78.68335 42.90133)
Erie,142789,Store,JAC,DEPEW DELI&GROCERY INC,DEPEW DELI&GROCERY,4911,BROADWAY,,,DEPEW,NY,14043,1200,POINT (-78.69316 42.90173)
Erie,142778,Store,JAC,DT SALES II LLC,ALDEN SAVE-A-LOT,13107,BROADWAY,,,ALDEN,NY,14004,20000,POINT (-78.49918 42.89806)
Erie,142761,Store,JAC,REID STORES INC,CROSBYS 40022,13285,BROADWAY,,,ALDEN,NY,14004,1500,POINT (-78.4931 42.90017)
Erie,142719,Store,JAC,RED RAYS INC,BROADWAY CONVENIENCE DL,1305,BROADWAY,,,BUFFALO,NY,14212,2000,POINT (-78.82658 42.89528)
Erie,142146,Store,A,DOLGEN NEW YORK LLC,DOLLAR GENERAL #8363,13475,BROADWAY,,,ALDEN,NY,14004,8000,POINT (-78.48503 42.90004)
Erie,142099,Store,A,UNITED REFINING CO OF PA INC,KWIK FILL A0019,2493,BROADWAY,,,CHEEKTOWAGA,NY,14227,400,POINT (-78.78144 42.90085)
Erie,142036,Store,JAC,LANCASTERS BROADWAY DELI INC,LANCASTER BROADWAY DELI,5430,BROADWAY,,,LANCASTER,NY,14086,1700,POINT (-78.66983 42.90036)
Erie,141827,Store,A,DOLGEN NEW YORK LLC,DOLLAR GENERAL 5701,5150,BROADWAY,,,DEPEW,NY,14043,7500,POINT (-78.68335 42.90133)
Erie,141681,Store,A,ALDEN PHARMACY INC,ALDEN PHARMACY,13203,BROADWAY,,,ALDEN,NY,14004,2000,POINT (-78.49598 42.90021)
Erie,141546,Store,JAC,KATES COUNTRY COUSINS LLC,KATES COUNTRY COUSINS,6148,BROADWAY,,,LANCASTER,NY,14086,0,POINT (-78.61481 42.89234)
Erie,141254,Store,A,FAMILY DOLLAR STORES OF NY INC,FAMILY DOLLAR 4705,1770,BROADWAY,,,BUFFALO,NY,14212,8000,POINT (-78.80886 42.89762)
Erie,140932,Store,JABC,TOPS MARKETS LLC,TOPS 261,12775,BROADWAY,,,ALDEN,NY,14004,47700,POINT (-78.51079 42.895)
Erie,140866,Store,JAC,ALABBADI MOHAMED,CHARLIES FOOD MART,927,BROADWAY,,,BUFFALO,NY,14212,1000,POINT (-78.84036 42.8928)
Erie,140582,Store,A,WALGREEN EASTERN CO INC,WALGREENS 03859,4815,BROADWAY,,,DEPEW,NY,14043,20000,POINT (-78.69664 42.90128)
Erie,140505,Store,JABC,BROADWAY PENORA INC,TOPS 114,5175,BROADWAY,,,DEPEW,NY,14043,77000,POINT (-78.68335 42.90133)
Erie,140436,Store,JAC,BAP GROUP INC,DOWNTOWN TRADING CO,51,BROADWAY,,,BUFFALO,NY,14202,1000,POINT (-78.87097 42.88609)
Erie,140298,Store,A,ECKERD CORP,RITE AID 10809,4900,BROADWAY,,,DEPEW,NY,14043,14000,POINT (-78.69369 42.90192)
Erie,140259,Store,JAC,HENRYS CANDY & GIFTS LLC,HENRYS CANDY & GIFTS,13237,BROADWAY,,,ALDEN,NY,14004,6000,POINT (-78.49483 42.90019)
Dutchess,130763,Store,JAC,MAIN ST MINI MART INC,MAIN ST MINI MART,220,MAIN STREET,,,BEACON,NY,12508,1800,POINT (-73.97349 41.50703)
Dutchess,130605,Store,JABH,GONNELLA MICHAEL M,TIVOLI BREAD&BAKING,75,BROADWAY,,,TIVOLI,NY,12583,600,POINT (-73.91072 42.05903)
Chemung,70229,Store,A,DOLGEN NEW YORK LLC,DOLLAR GENERAL #8106,1146,BROADWAY,,,ELMIRA,NY,14904,0,POINT (-76.81921 42.0566)
Chemung,70228,Store,JAC,SAJAR LLC,EZ FOOD MART,502,BROADWAY,,,ELMIRA,NY,14904,0,POINT (-76.81283 42.07429)
Albany,10890,Store,JAC,MENANDS GAS & CONVENIENCE INC,MENANDS GAS & CONVENIEN,116,BROADWAY,,,MENANDS,NY,12204,2200,POINT (-73.73123 42.68397)
Albany,10584,Store,JAC,STEWARTS SHOPS CORP,STEWARTS SHOP 186,14,BROADWAY,,,ALBANY,NY,12204,1800,POINT (-73.73466 42.67764)
